{"type":"FeatureCollection","name":"Communes of the Santiago Metropolitan Region","source":"Biblioteca del Congreso Nacional de Chile, via github.com/caracena/chile-geojson","adjacency":[["Alhué","Melipilla"],["Alhué","Paine"],["Alhué","San Pedro"],["Buin","Isla de Maipo"],["Buin","Paine"],["Buin","Pirque"],["Buin","San Bernardo"],["Calera de Tango","Maipú"],["Calera de Tango","Padre Hurtado"],["Calera de Tango","Peñaflor"],["Calera de Tango","San Bernardo"],["Calera de Tango","Talagante"],["Cerrillos","Estación Central"],["Cerrillos","Lo Espejo"],["Cerrillos","Maipú"],["Cerrillos","Pedro Aguirre Cerda"],["Cerrillos","San Bernardo"],["Cerro Navia","Lo Prado"],["Cerro Navia","Pudahuel"],["Cerro Navia","Quinta Normal"],["Cerro Navia","Renca"],["Colina","Huechuraba"],["Colina","Lampa"],["Colina","Lo Barnechea"],["Colina","Quilicura"],["Colina","Tiltil"],["Conchalí","Huechuraba"],["Conchalí","Independencia"],["Conchalí","Quilicura"],["Conchalí","Recoleta"],["Conchalí","Renca"],["Curacaví","Lampa"],["Curacaví","Maipú"],["Curacaví","María Pinto"],["Curacaví","Melipilla"],["Curacaví","Padre Hurtado"],["Curacaví","Pudahuel"],["El Bosque","La Cisterna"],["El Bosque","La Pintana"],["El Bosque","San Bernardo"],["El Bosque","San Ramón"],["El Monte","Isla de Maipo"],["El Monte","Melipilla"],["El Monte","Peñaflor"],["El Monte","Talagante"],["Estación Central","Lo Prado"],["Estación Central","Maipú"],["Estación Central","Pedro Aguirre Cerda"],["Estación Central","Pudahuel"],["Estación Central","Quinta Normal"],["Estación Central","Santiago"],["Huechuraba","Lo Barnechea"],["Huechuraba","Quilicura"],["Huechuraba","Recoleta"],["Huechuraba","Vitacura"],["Independencia","Recoleta"],["Independencia","Renca"],["Independencia","Santiago"],["Isla de Maipo","Melipilla"],["Isla de Maipo","Paine"],["Isla de Maipo","San Bernardo"],["Isla de Maipo","Talagante"],["La Cisterna","Lo Espejo"],["La Cisterna","San Miguel"],["La Cisterna","San Ramón"],["La Florida","La Granja"],["La Florida","La Pintana"],["La Florida","Macul"],["La Florida","Peñalolén"],["La Florida","Puente Alto"],["La Florida","San Joaquín"],["La Florida","San José de Maipo"],["La Granja","La Pintana"],["La Granja","San Joaquín"],["La Granja","San Ramón"],["La Pintana","Puente Alto"],["La Pintana","San Bernardo"],["La Pintana","San Ramón"],["La Reina","Las Condes"],["La Reina","Peñalolén"],["La Reina","Providencia"],["La Reina","Ñuñoa"],["Lampa","Pudahuel"],["Lampa","Quilicura"],["Lampa","Tiltil"],["Las Condes","Lo Barnechea"],["Las Condes","Peñalolén"],["Las Condes","Providencia"],["Las Condes","San José de Maipo"],["Las Condes","Vitacura"],["Lo Barnechea","San José de Maipo"],["Lo Barnechea","Vitacura"],["Lo Espejo","Pedro Aguirre Cerda"],["Lo Espejo","San Bernardo"],["Lo Prado","Pudahuel"],["Lo Prado","Quinta Normal"],["Macul","Peñalolén"],["Macul","San Joaquín"],["Macul","Ñuñoa"],["Maipú","Padre Hurtado"],["Maipú","Pudahuel"],["Maipú","San Bernardo"],["María Pinto","Melipilla"],["Melipilla","Padre Hurtado"],["Melipilla","Paine"],["Melipilla","Peñaflor"],["Melipilla","San Pedro"],["Padre Hurtado","Peñaflor"],["Paine","Pirque"],["Pedro Aguirre Cerda","San Miguel"],["Pedro Aguirre Cerda","Santiago"],["Peñaflor","Talagante"],["Peñalolén","San José de Maipo"],["Peñalolén","Ñuñoa"],["Pirque","Puente Alto"],["Pirque","San José de Maipo"],["Providencia","Recoleta"],["Providencia","Santiago"],["Providencia","Vitacura"],["Providencia","Ñuñoa"],["Pudahuel","Quilicura"],["Pudahuel","Renca"],["Puente Alto","San Bernardo"],["Puente Alto","San José de Maipo"],["Quilicura","Renca"],["Quinta Normal","Renca"],["Quinta Normal","Santiago"],["Recoleta","Santiago"],["Recoleta","Vitacura"],["San Bernardo","Talagante"],["San Joaquín","San Miguel"],["San Joaquín","Santiago"],["San Joaquín","Ñuñoa"],["San Miguel","San Ramón"],["San Miguel","Santiago"],["Santiago","Ñuñoa"]],"features":[{"type":"Feature","properties":{"name":"Alhué"},"geometry":{"type":"Polygon","coordinates":[[[-70.963,-33.921],[-70.96,-33.925],[-70.962,-33.935],[-70.955,-33.944],[-70.966,-33.966],[-70.963,-33.971],[-70.948,-33.972],[-70.933,-33.978],[-70.929,-33.975],[-70.916,-33.98],[-70.908,-33.978],[-70.895,-33.989],[-70.855,-33.97],[-70.857,-33.966],[-70.846,-33.956],[-70.83,-33.952],[-70.825,-33.953],[-70.825,-33.962],[-70.798,-33.975],[-70.798,-33.989],[-70.792,-33.994],[-70.793,-34.0],[-70.806,-34.008],[-70.808,-34.025],[-70.812,-34.026],[-70.818,-34.035],[-70.842,-34.032],[-70.847,-34.029],[-70.86,-34.031],[-70.872,-34.037],[-70.888,-34.039],[-70.892,-34.05],[-70.889,-34.055],[-70.894,-34.076],[-70.9,-34.079],[-70.907,-34.077],[-70.913,-34.081],[-70.919,-34.078],[-70.934,-34.086],[-70.941,-34.105],[-70.929,-34.135],[-70.914,-34.145],[-70.934,-34.151],[-70.943,-34.16],[-70.958,-34.164],[-70.969,-34.172],[-70.985,-34.173],[-71.007,-34.168],[-71.023,-34.171],[-71.033,-34.165],[-71.044,-34.172],[-71.053,-34.173],[-71.056,-34.179],[-71.067,-34.18],[-71.072,-34.184],[-71.09,-34.18],[-71.091,-34.175],[-71.106,-34.166],[-71.118,-34.164],[-71.147,-34.166],[-71.185,-34.158],[-71.202,-34.145],[-71.205,-34.136],[-71.215,-34.136],[-71.225,-34.124],[-71.231,-34.117],[-71.232,-34.107],[-71.244,-34.095],[-71.267,-34.084],[-71.27,-34.065],[-71.267,-34.063],[-71.271,-34.052],[-71.291,-34.045],[-71.3,-34.035],[-71.3,-34.03],[-71.279,-34.018],[-71.259,-34.018],[-71.248,-34.013],[-71.241,-34.016],[-71.231,-34.012],[-71.218,-33.997],[-71.207,-33.991],[-71.215,-33.973],[-71.207,-33.961],[-71.194,-33.961],[-71.185,-33.958],[-71.181,-33.963],[-71.173,-33.964],[-71.166,-33.961],[-71.166,-33.954],[-71.158,-33.949],[-71.144,-33.949],[-71.128,-33.944],[-71.115,-33.946],[-71.109,-33.943],[-71.094,-33.926],[-71.085,-33.894],[-71.069,-33.891],[-71.041,-33.899],[-71.032,-33.899],[-71.024,-33.892],[-71.016,-33.89],[-70.998,-33.895],[-70.978,-33.915],[-70.963,-33.921]]]}},{"type":"Feature","properties":{"name":"Buin"},"geometry":{"type":"Polygon","coordinates":[[[-70.614,-33.738],[-70.624,-33.738],[-70.634,-33.749],[-70.656,-33.744],[-70.671,-33.756],[-70.688,-33.759],[-70.691,-33.791],[-70.703,-33.793],[-70.702,-33.79],[-70.739,-33.789],[-70.738,-33.774],[-70.751,-33.773],[-70.757,-33.817],[-70.762,-33.812],[-70.785,-33.835],[-70.803,-33.827],[-70.809,-33.83],[-70.816,-33.828],[-70.832,-33.832],[-70.834,-33.829],[-70.842,-33.827],[-70.859,-33.815],[-70.866,-33.814],[-70.872,-33.81],[-70.887,-33.81],[-70.894,-33.804],[-70.891,-33.801],[-70.878,-33.804],[-70.863,-33.795],[-70.858,-33.787],[-70.839,-33.774],[-70.834,-33.766],[-70.83,-33.765],[-70.821,-33.754],[-70.814,-33.751],[-70.811,-33.737],[-70.796,-33.731],[-70.768,-33.707],[-70.726,-33.693],[-70.718,-33.685],[-70.71,-33.666],[-70.673,-33.66],[-70.657,-33.65],[-70.631,-33.643],[-70.635,-33.653],[-70.641,-33.661],[-70.652,-33.664],[-70.656,-33.676],[-70.644,-33.693],[-70.645,-33.697],[-70.638,-33.704],[-70.627,-33.707],[-70.616,-33.723],[-70.613,-33.734],[-70.614,-33.738]]]}},{"type":"Feature","properties":{"name":"Calera de Tango"},"geometry":{"type":"Polygon","coordinates":[[[-70.799,-33.668],[-70.808,-33.66],[-70.812,-33.645],[-70.815,-33.643],[-70.818,-33.642],[-70.836,-33.662],[-70.867,-33.651],[-70.846,-33.634],[-70.825,-33.611],[-70.817,-33.596],[-70.809,-33.594],[-70.798,-33.573],[-70.789,-33.578],[-70.779,-33.569],[-70.758,-33.574],[-70.743,-33.595],[-70.754,-33.604],[-70.747,-33.618],[-70.757,-33.621],[-70.736,-33.646],[-70.738,-33.656],[-70.742,-33.663],[-70.749,-33.664],[-70.784,-33.653],[-70.799,-33.668]]]}},{"type":"Feature","properties":{"name":"Cerrillos"},"geometry":{"type":"MultiPolygon","coordinates":[[[[-70.686,-33.478],[-70.706,-33.524],[-70.707,-33.531],[-70.726,-33.524],[-70.719,-33.514],[-70.723,-33.51],[-70.74,-33.51],[-70.732,-33.495],[-70.731,-33.483],[-70.725,-33.483],[-70.722,-33.473],[-70.712,-33.483],[-70.686,-33.478]]],[[[-70.722,-33.473],[-70.722,-33.473],[-70.722,-33.473],[-70.722,-33.473]]]]}},{"type":"Feature","properties":{"name":"Cerro Navia"},"geometry":{"type":"Polygon","coordinates":[[[-70.722,-33.439],[-70.741,-33.436],[-70.741,-33.43],[-70.776,-33.424],[-70.782,-33.414],[-70.722,-33.412],[-70.716,-33.415],[-70.722,-33.439]]]}},{"type":"Feature","properties":{"name":"Colina"},"geometry":{"type":"Polygon","coordinates":[[[-70.79,-33.172],[-70.782,-33.172],[-70.756,-33.18],[-70.734,-33.164],[-70.744,-33.146],[-70.753,-33.142],[-70.759,-33.126],[-70.754,-33.118],[-70.76,-33.104],[-70.748,-33.08],[-70.747,-33.069],[-70.767,-33.055],[-70.765,-33.049],[-70.759,-33.044],[-70.761,-33.034],[-70.753,-33.025],[-70.757,-33.02],[-70.75,-33.012],[-70.759,-33.005],[-70.762,-32.991],[-70.77,-32.984],[-70.761,-32.98],[-70.747,-32.967],[-70.738,-32.966],[-70.72,-32.953],[-70.708,-32.961],[-70.692,-32.955],[-70.674,-32.96],[-70.66,-32.954],[-70.644,-32.952],[-70.637,-32.947],[-70.623,-32.948],[-70.614,-32.952],[-70.61,-32.944],[-70.604,-32.942],[-70.594,-32.949],[-70.598,-32.953],[-70.592,-32.959],[-70.592,-32.97],[-70.565,-32.991],[-70.558,-32.999],[-70.558,-33.004],[-70.547,-33.014],[-70.553,-33.035],[-70.527,-33.052],[-70.519,-33.079],[-70.509,-33.089],[-70.482,-33.081],[-70.478,-33.068],[-70.466,-33.063],[-70.46,-33.049],[-70.451,-33.038],[-70.435,-33.021],[-70.427,-33.021],[-70.423,-33.026],[-70.417,-33.025],[-70.399,-33.034],[-70.401,-33.043],[-70.397,-33.051],[-70.402,-33.055],[-70.407,-33.066],[-70.395,-33.073],[-70.395,-33.08],[-70.386,-33.083],[-70.389,-33.089],[-70.374,-33.106],[-70.398,-33.122],[-70.418,-33.124],[-70.428,-33.13],[-70.441,-33.147],[-70.445,-33.16],[-70.454,-33.167],[-70.454,-33.172],[-70.462,-33.178],[-70.459,-33.189],[-70.467,-33.195],[-70.468,-33.201],[-70.465,-33.203],[-70.473,-33.22],[-70.509,-33.219],[-70.513,-33.22],[-70.516,-33.232],[-70.525,-33.239],[-70.558,-33.242],[-70.562,-33.248],[-70.56,-33.251],[-70.568,-33.257],[-70.574,-33.266],[-70.571,-33.278],[-70.575,-33.289],[-70.592,-33.299],[-70.592,-33.304],[-70.596,-33.308],[-70.605,-33.311],[-70.594,-33.336],[-70.62,-33.342],[-70.645,-33.342],[-70.659,-33.328],[-70.681,-33.331],[-70.707,-33.319],[-70.711,-33.319],[-70.708,-33.323],[-70.718,-33.326],[-70.783,-33.182],[-70.79,-33.172]]]}},{"type":"Feature","properties":{"name":"Conchalí"},"geometry":{"type":"Polygon","coordinates":[[[-70.658,-33.399],[-70.682,-33.403],[-70.7,-33.366],[-70.682,-33.367],[-70.657,-33.377],[-70.658,-33.399]]]}},{"type":"Feature","properties":{"name":"Curacaví"},"geometry":{"type":"Polygon","coordinates":[[[-70.997,-33.198],[-71.002,-33.213],[-71.001,-33.223],[-70.983,-33.255],[-70.972,-33.287],[-70.968,-33.29],[-70.975,-33.296],[-70.999,-33.306],[-71.003,-33.329],[-70.996,-33.342],[-70.986,-33.35],[-70.985,-33.36],[-70.971,-33.37],[-70.968,-33.376],[-70.947,-33.385],[-70.952,-33.399],[-70.951,-33.413],[-70.947,-33.417],[-70.948,-33.432],[-70.95,-33.436],[-70.954,-33.438],[-70.955,-33.448],[-70.95,-33.454],[-70.948,-33.47],[-70.929,-33.477],[-70.921,-33.488],[-70.93,-33.502],[-70.928,-33.508],[-70.92,-33.511],[-70.929,-33.546],[-70.948,-33.561],[-70.953,-33.552],[-70.961,-33.548],[-70.984,-33.547],[-70.998,-33.539],[-71.013,-33.54],[-71.026,-33.526],[-71.036,-33.522],[-71.044,-33.504],[-71.063,-33.494],[-71.061,-33.479],[-71.074,-33.468],[-71.066,-33.46],[-71.059,-33.431],[-71.09,-33.445],[-71.101,-33.446],[-71.109,-33.441],[-71.118,-33.447],[-71.149,-33.45],[-71.166,-33.446],[-71.173,-33.45],[-71.186,-33.452],[-71.189,-33.444],[-71.194,-33.441],[-71.201,-33.441],[-71.212,-33.435],[-71.23,-33.434],[-71.232,-33.428],[-71.24,-33.426],[-71.251,-33.413],[-71.263,-33.411],[-71.277,-33.403],[-71.268,-33.394],[-71.266,-33.387],[-71.255,-33.383],[-71.244,-33.384],[-71.236,-33.374],[-71.223,-33.373],[-71.22,-33.361],[-71.214,-33.356],[-71.216,-33.349],[-71.211,-33.336],[-71.213,-33.332],[-71.206,-33.331],[-71.205,-33.321],[-71.196,-33.312],[-71.195,-33.31],[-71.206,-33.309],[-71.21,-33.303],[-71.214,-33.286],[-71.223,-33.279],[-71.223,-33.272],[-71.227,-33.269],[-71.22,-33.26],[-71.226,-33.247],[-71.221,-33.24],[-71.215,-33.239],[-71.215,-33.234],[-71.189,-33.227],[-71.171,-33.231],[-71.163,-33.226],[-71.152,-33.229],[-71.141,-33.238],[-71.12,-33.231],[-71.111,-33.221],[-71.094,-33.22],[-71.072,-33.23],[-71.06,-33.225],[-71.057,-33.204],[-71.047,-33.21],[-71.038,-33.208],[-71.033,-33.212],[-71.034,-33.215],[-71.027,-33.216],[-71.029,-33.206],[-71.025,-33.201],[-71.016,-33.203],[-71.015,-33.2],[-71.004,-33.198],[-70.997,-33.198]]]}},{"type":"Feature","properties":{"name":"El Bosque"},"geometry":{"type":"Polygon","coordinates":[[[-70.663,-33.585],[-70.701,-33.573],[-70.695,-33.556],[-70.693,-33.556],[-70.685,-33.539],[-70.653,-33.549],[-70.663,-33.585]]]}},{"type":"Feature","properties":{"name":"El Monte"},"geometry":{"type":"Polygon","coordinates":[[[-70.967,-33.625],[-70.967,-33.632],[-70.959,-33.648],[-70.954,-33.653],[-70.936,-33.659],[-70.937,-33.663],[-70.967,-33.676],[-70.986,-33.688],[-71.003,-33.693],[-71.014,-33.706],[-71.022,-33.709],[-71.029,-33.719],[-71.042,-33.716],[-71.069,-33.722],[-71.081,-33.72],[-71.103,-33.705],[-71.101,-33.693],[-71.114,-33.683],[-71.106,-33.685],[-71.098,-33.634],[-71.09,-33.633],[-71.083,-33.628],[-71.063,-33.632],[-71.06,-33.638],[-71.048,-33.637],[-71.036,-33.643],[-71.031,-33.629],[-71.011,-33.626],[-71.002,-33.615],[-70.995,-33.614],[-70.978,-33.618],[-70.967,-33.625]]]}},{"type":"Feature","properties":{"name":"Estación Central"},"geometry":{"type":"Polygon","coordinates":[[[-70.672,-33.477],[-70.712,-33.483],[-70.723,-33.473],[-70.734,-33.47],[-70.731,-33.468],[-70.731,-33.455],[-70.71,-33.458],[-70.706,-33.457],[-70.707,-33.449],[-70.68,-33.444],[-70.68,-33.471],[-70.673,-33.471],[-70.672,-33.477]]]}},{"type":"Feature","properties":{"name":"Huechuraba"},"geometry":{"type":"Polygon","coordinates":[[[-70.689,-33.366],[-70.693,-33.352],[-70.687,-33.343],[-70.68,-33.338],[-70.681,-33.331],[-70.668,-33.328],[-70.659,-33.328],[-70.645,-33.342],[-70.639,-33.343],[-70.633,-33.34],[-70.62,-33.342],[-70.596,-33.337],[-70.583,-33.351],[-70.601,-33.363],[-70.597,-33.366],[-70.604,-33.383],[-70.601,-33.388],[-70.609,-33.397],[-70.611,-33.405],[-70.641,-33.383],[-70.689,-33.366]]]}},{"type":"Feature","properties":{"name":"Independencia"},"geometry":{"type":"Polygon","coordinates":[[[-70.658,-33.401],[-70.657,-33.405],[-70.653,-33.406],[-70.653,-33.417],[-70.65,-33.418],[-70.652,-33.432],[-70.671,-33.427],[-70.679,-33.417],[-70.682,-33.403],[-70.667,-33.399],[-70.658,-33.401]]]}},{"type":"Feature","properties":{"name":"Isla de Maipo"},"geometry":{"type":"Polygon","coordinates":[[[-70.891,-33.801],[-70.901,-33.803],[-70.905,-33.796],[-70.906,-33.78],[-70.911,-33.768],[-70.918,-33.797],[-70.923,-33.801],[-70.961,-33.794],[-70.981,-33.799],[-70.983,-33.775],[-70.997,-33.778],[-71.006,-33.773],[-71.019,-33.771],[-71.041,-33.755],[-71.05,-33.753],[-71.078,-33.756],[-71.092,-33.748],[-71.119,-33.74],[-71.12,-33.731],[-71.097,-33.716],[-71.096,-33.711],[-71.103,-33.705],[-71.078,-33.721],[-71.062,-33.721],[-71.042,-33.716],[-71.031,-33.72],[-71.022,-33.716],[-70.99,-33.724],[-70.976,-33.716],[-70.956,-33.714],[-70.936,-33.72],[-70.915,-33.716],[-70.899,-33.697],[-70.849,-33.715],[-70.844,-33.709],[-70.824,-33.721],[-70.821,-33.737],[-70.825,-33.742],[-70.826,-33.749],[-70.821,-33.754],[-70.826,-33.762],[-70.834,-33.766],[-70.839,-33.774],[-70.876,-33.803],[-70.891,-33.801]]]}},{"type":"Feature","properties":{"name":"La Cisterna"},"geometry":{"type":"Polygon","coordinates":[[[-70.653,-33.549],[-70.686,-33.539],[-70.671,-33.511],[-70.645,-33.517],[-70.653,-33.549]]]}},{"type":"Feature","properties":{"name":"La Florida"},"geometry":{"type":"Polygon","coordinates":[[[-70.437,-33.498],[-70.464,-33.516],[-70.469,-33.527],[-70.48,-33.532],[-70.48,-33.537],[-70.488,-33.543],[-70.504,-33.546],[-70.526,-33.543],[-70.547,-33.552],[-70.551,-33.548],[-70.568,-33.548],[-70.557,-33.561],[-70.584,-33.566],[-70.584,-33.569],[-70.6,-33.567],[-70.611,-33.571],[-70.613,-33.562],[-70.61,-33.562],[-70.615,-33.547],[-70.611,-33.547],[-70.61,-33.526],[-70.614,-33.508],[-70.542,-33.513],[-70.499,-33.498],[-70.486,-33.502],[-70.467,-33.492],[-70.451,-33.496],[-70.438,-33.492],[-70.437,-33.498]]]}},{"type":"Feature","properties":{"name":"La Granja"},"geometry":{"type":"Polygon","coordinates":[[[-70.636,-33.519],[-70.611,-33.513],[-70.611,-33.547],[-70.615,-33.547],[-70.612,-33.556],[-70.631,-33.56],[-70.636,-33.519]]]}},{"type":"Feature","properties":{"name":"La Pintana"},"geometry":{"type":"Polygon","coordinates":[[[-70.631,-33.56],[-70.612,-33.556],[-70.606,-33.602],[-70.627,-33.605],[-70.629,-33.628],[-70.643,-33.627],[-70.643,-33.61],[-70.671,-33.607],[-70.655,-33.555],[-70.631,-33.56]]]}},{"type":"Feature","properties":{"name":"La Reina"},"geometry":{"type":"Polygon","coordinates":[[[-70.487,-33.462],[-70.53,-33.459],[-70.531,-33.465],[-70.562,-33.463],[-70.572,-33.459],[-70.574,-33.438],[-70.584,-33.432],[-70.539,-33.429],[-70.538,-33.433],[-70.523,-33.432],[-70.509,-33.436],[-70.496,-33.447],[-70.496,-33.45],[-70.487,-33.462]]]}},{"type":"Feature","properties":{"name":"Lampa"},"geometry":{"type":"Polygon","coordinates":[[[-70.798,-33.17],[-70.783,-33.182],[-70.719,-33.325],[-70.793,-33.341],[-70.798,-33.338],[-70.804,-33.352],[-70.811,-33.359],[-70.821,-33.363],[-70.833,-33.381],[-70.839,-33.385],[-70.863,-33.376],[-70.876,-33.374],[-70.892,-33.375],[-70.91,-33.368],[-70.947,-33.385],[-70.968,-33.376],[-70.971,-33.37],[-70.985,-33.36],[-70.986,-33.35],[-70.996,-33.342],[-71.003,-33.329],[-71.002,-33.309],[-70.984,-33.298],[-70.975,-33.296],[-70.968,-33.29],[-70.972,-33.287],[-70.983,-33.255],[-71.001,-33.223],[-71.002,-33.213],[-70.993,-33.178],[-70.986,-33.177],[-70.982,-33.172],[-70.975,-33.172],[-70.963,-33.178],[-70.953,-33.172],[-70.941,-33.177],[-70.93,-33.187],[-70.909,-33.182],[-70.893,-33.181],[-70.89,-33.188],[-70.895,-33.211],[-70.886,-33.215],[-70.888,-33.224],[-70.883,-33.229],[-70.867,-33.226],[-70.857,-33.204],[-70.85,-33.198],[-70.85,-33.188],[-70.857,-33.181],[-70.835,-33.18],[-70.826,-33.185],[-70.819,-33.177],[-70.808,-33.172],[-70.798,-33.17]]]}},{"type":"Feature","properties":{"name":"Las Condes"},"geometry":{"type":"Polygon","coordinates":[[[-70.518,-33.373],[-70.493,-33.365],[-70.479,-33.366],[-70.475,-33.369],[-70.481,-33.371],[-70.484,-33.379],[-70.477,-33.394],[-70.454,-33.397],[-70.454,-33.417],[-70.445,-33.424],[-70.435,-33.427],[-70.429,-33.452],[-70.43,-33.462],[-70.435,-33.468],[-70.434,-33.481],[-70.439,-33.487],[-70.461,-33.476],[-70.475,-33.474],[-70.486,-33.464],[-70.496,-33.45],[-70.496,-33.447],[-70.509,-33.436],[-70.523,-33.432],[-70.538,-33.433],[-70.539,-33.429],[-70.584,-33.432],[-70.608,-33.415],[-70.606,-33.409],[-70.543,-33.388],[-70.518,-33.373]]]}},{"type":"Feature","properties":{"name":"Lo Barnechea"},"geometry":{"type":"Polygon","coordinates":[[[-70.434,-33.481],[-70.435,-33.468],[-70.428,-33.458],[-70.434,-33.429],[-70.445,-33.424],[-70.454,-33.417],[-70.454,-33.397],[-70.477,-33.394],[-70.484,-33.379],[-70.477,-33.367],[-70.493,-33.365],[-70.518,-33.373],[-70.525,-33.369],[-70.541,-33.37],[-70.55,-33.359],[-70.573,-33.356],[-70.588,-33.347],[-70.591,-33.34],[-70.596,-33.337],[-70.594,-33.332],[-70.605,-33.311],[-70.596,-33.308],[-70.592,-33.304],[-70.592,-33.299],[-70.575,-33.289],[-70.571,-33.278],[-70.574,-33.266],[-70.568,-33.257],[-70.56,-33.251],[-70.562,-33.248],[-70.558,-33.242],[-70.525,-33.239],[-70.516,-33.232],[-70.513,-33.22],[-70.483,-33.218],[-70.475,-33.22],[-70.471,-33.217],[-70.47,-33.21],[-70.465,-33.203],[-70.468,-33.201],[-70.467,-33.195],[-70.459,-33.189],[-70.462,-33.178],[-70.454,-33.172],[-70.454,-33.167],[-70.445,-33.16],[-70.441,-33.147],[-70.428,-33.13],[-70.418,-33.124],[-70.398,-33.122],[-70.374,-33.106],[-70.35,-33.105],[-70.343,-33.102],[-70.343,-33.097],[-70.337,-33.097],[-70.329,-33.102],[-70.321,-33.103],[-70.318,-33.11],[-70.311,-33.108],[-70.3,-33.113],[-70.292,-33.13],[-70.271,-33.132],[-70.271,-33.155],[-70.265,-33.167],[-70.267,-33.182],[-70.244,-33.187],[-70.237,-33.202],[-70.23,-33.204],[-70.218,-33.218],[-70.218,-33.223],[-70.223,-33.23],[-70.221,-33.237],[-70.208,-33.25],[-70.211,-33.259],[-70.205,-33.263],[-70.198,-33.272],[-70.199,-33.29],[-70.188,-33.305],[-70.182,-33.322],[-70.182,-33.338],[-70.176,-33.346],[-70.18,-33.351],[-70.177,-33.357],[-70.182,-33.362],[-70.192,-33.367],[-70.193,-33.376],[-70.203,-33.392],[-70.214,-33.396],[-70.218,-33.401],[-70.219,-33.412],[-70.236,-33.424],[-70.244,-33.436],[-70.283,-33.456],[-70.285,-33.452],[-70.298,-33.452],[-70.305,-33.465],[-70.315,-33.467],[-70.322,-33.473],[-70.335,-33.477],[-70.348,-33.49],[-70.351,-33.491],[-70.354,-33.486],[-70.376,-33.483],[-70.393,-33.491],[-70.401,-33.49],[-70.42,-33.482],[-70.429,-33.484],[-70.434,-33.481]]]}},{"type":"Feature","properties":{"name":"Lo Espejo"},"geometry":{"type":"Polygon","coordinates":[[[-70.671,-33.511],[-70.686,-33.539],[-70.707,-33.531],[-70.695,-33.502],[-70.671,-33.511]]]}},{"type":"Feature","properties":{"name":"Lo Prado"},"geometry":{"type":"Polygon","coordinates":[[[-70.706,-33.457],[-70.739,-33.453],[-70.741,-33.436],[-70.707,-33.438],[-70.706,-33.457]]]}},{"type":"Feature","properties":{"name":"Macul"},"geometry":{"type":"Polygon","coordinates":[[[-70.58,-33.486],[-70.59,-33.51],[-70.614,-33.508],[-70.623,-33.475],[-70.588,-33.474],[-70.577,-33.47],[-70.58,-33.486]]]}},{"type":"Feature","properties":{"name":"Maipú"},"geometry":{"type":"Polygon","coordinates":[[[-70.734,-33.47],[-70.722,-33.473],[-70.725,-33.483],[-70.731,-33.483],[-70.732,-33.495],[-70.74,-33.51],[-70.723,-33.51],[-70.719,-33.514],[-70.767,-33.572],[-70.786,-33.567],[-70.816,-33.544],[-70.806,-33.536],[-70.805,-33.53],[-70.813,-33.531],[-70.819,-33.538],[-70.843,-33.534],[-70.852,-33.538],[-70.86,-33.53],[-70.872,-33.533],[-70.886,-33.528],[-70.905,-33.511],[-70.921,-33.511],[-70.93,-33.506],[-70.921,-33.488],[-70.892,-33.478],[-70.85,-33.48],[-70.841,-33.467],[-70.819,-33.467],[-70.806,-33.461],[-70.777,-33.463],[-70.776,-33.458],[-70.765,-33.459],[-70.763,-33.464],[-70.738,-33.468],[-70.737,-33.471],[-70.734,-33.47]]]}},{"type":"Feature","properties":{"name":"María Pinto"},"geometry":{"type":"Polygon","coordinates":[[[-71.015,-33.543],[-71.032,-33.551],[-71.046,-33.555],[-71.067,-33.556],[-71.078,-33.549],[-71.091,-33.553],[-71.107,-33.548],[-71.116,-33.555],[-71.128,-33.548],[-71.147,-33.55],[-71.153,-33.554],[-71.164,-33.556],[-71.18,-33.554],[-71.209,-33.541],[-71.217,-33.545],[-71.214,-33.551],[-71.221,-33.551],[-71.222,-33.555],[-71.231,-33.563],[-71.239,-33.562],[-71.234,-33.566],[-71.239,-33.569],[-71.243,-33.567],[-71.244,-33.574],[-71.253,-33.577],[-71.252,-33.583],[-71.276,-33.581],[-71.289,-33.589],[-71.299,-33.589],[-71.305,-33.585],[-71.316,-33.588],[-71.324,-33.586],[-71.329,-33.584],[-71.331,-33.567],[-71.328,-33.56],[-71.335,-33.541],[-71.332,-33.536],[-71.351,-33.529],[-71.348,-33.509],[-71.353,-33.493],[-71.339,-33.476],[-71.342,-33.464],[-71.336,-33.456],[-71.339,-33.45],[-71.338,-33.441],[-71.344,-33.431],[-71.342,-33.427],[-71.343,-33.416],[-71.335,-33.413],[-71.331,-33.408],[-71.326,-33.407],[-71.322,-33.411],[-71.306,-33.409],[-71.298,-33.413],[-71.282,-33.411],[-71.276,-33.404],[-71.263,-33.411],[-71.251,-33.413],[-71.24,-33.426],[-71.232,-33.428],[-71.23,-33.434],[-71.212,-33.435],[-71.201,-33.441],[-71.194,-33.441],[-71.189,-33.444],[-71.186,-33.452],[-71.173,-33.45],[-71.166,-33.446],[-71.149,-33.45],[-71.118,-33.447],[-71.109,-33.441],[-71.101,-33.446],[-71.09,-33.445],[-71.059,-33.431],[-71.066,-33.46],[-71.074,-33.468],[-71.061,-33.479],[-71.063,-33.494],[-71.044,-33.504],[-71.036,-33.522],[-71.024,-33.528],[-71.014,-33.539],[-71.015,-33.543]]]}},{"type":"Feature","properties":{"name":"Melipilla"},"geometry":{"type":"Polygon","coordinates":[[[-71.387,-33.768],[-71.365,-33.76],[-71.359,-33.747],[-71.39,-33.739],[-71.392,-33.737],[-71.39,-33.729],[-71.397,-33.721],[-71.421,-33.708],[-71.425,-33.698],[-71.421,-33.687],[-71.435,-33.685],[-71.438,-33.679],[-71.427,-33.66],[-71.413,-33.659],[-71.4,-33.663],[-71.396,-33.657],[-71.395,-33.643],[-71.383,-33.635],[-71.382,-33.623],[-71.36,-33.623],[-71.34,-33.611],[-71.336,-33.607],[-71.332,-33.586],[-71.329,-33.584],[-71.316,-33.588],[-71.305,-33.585],[-71.299,-33.589],[-71.289,-33.589],[-71.276,-33.581],[-71.252,-33.583],[-71.253,-33.577],[-71.244,-33.574],[-71.243,-33.567],[-71.239,-33.569],[-71.234,-33.566],[-71.239,-33.562],[-71.231,-33.563],[-71.222,-33.555],[-71.221,-33.551],[-71.214,-33.551],[-71.217,-33.545],[-71.209,-33.541],[-71.18,-33.554],[-71.164,-33.556],[-71.153,-33.554],[-71.147,-33.55],[-71.128,-33.548],[-71.116,-33.555],[-71.107,-33.548],[-71.091,-33.553],[-71.078,-33.549],[-71.067,-33.556],[-71.059,-33.556],[-71.032,-33.551],[-71.012,-33.54],[-70.998,-33.539],[-70.988,-33.546],[-70.974,-33.546],[-70.955,-33.55],[-70.949,-33.556],[-70.948,-33.567],[-70.936,-33.578],[-70.937,-33.593],[-70.95,-33.599],[-70.956,-33.614],[-70.968,-33.624],[-70.978,-33.618],[-70.995,-33.614],[-71.002,-33.615],[-71.011,-33.626],[-71.031,-33.629],[-71.036,-33.643],[-71.048,-33.637],[-71.06,-33.638],[-71.063,-33.632],[-71.074,-33.628],[-71.083,-33.628],[-71.09,-33.633],[-71.098,-33.634],[-71.106,-33.685],[-71.114,-33.683],[-71.101,-33.693],[-71.103,-33.705],[-71.096,-33.711],[-71.097,-33.716],[-71.12,-33.731],[-71.119,-33.74],[-71.092,-33.748],[-71.078,-33.756],[-71.05,-33.753],[-71.041,-33.755],[-71.019,-33.771],[-71.006,-33.773],[-70.997,-33.778],[-70.983,-33.775],[-70.981,-33.799],[-70.989,-33.836],[-70.98,-33.844],[-70.982,-33.856],[-70.977,-33.87],[-70.975,-33.902],[-70.966,-33.918],[-70.978,-33.915],[-71.001,-33.894],[-71.019,-33.89],[-71.032,-33.899],[-71.041,-33.899],[-71.069,-33.891],[-71.085,-33.894],[-71.094,-33.926],[-71.109,-33.943],[-71.115,-33.946],[-71.128,-33.944],[-71.144,-33.949],[-71.158,-33.949],[-71.166,-33.954],[-71.166,-33.961],[-71.173,-33.964],[-71.181,-33.963],[-71.185,-33.958],[-71.194,-33.961],[-71.207,-33.961],[-71.223,-33.953],[-71.229,-33.937],[-71.24,-33.938],[-71.257,-33.928],[-71.262,-33.919],[-71.272,-33.912],[-71.286,-33.912],[-71.291,-33.908],[-71.289,-33.896],[-71.3,-33.882],[-71.298,-33.872],[-71.301,-33.864],[-71.314,-33.861],[-71.318,-33.868],[-71.33,-33.865],[-71.35,-33.871],[-71.352,-33.875],[-71.348,-33.881],[-71.358,-33.892],[-71.371,-33.891],[-71.381,-33.883],[-71.4,-33.847],[-71.421,-33.822],[-71.423,-33.814],[-71.421,-33.797],[-71.433,-33.789],[-71.409,-33.785],[-71.408,-33.776],[-71.399,-33.769],[-71.387,-33.768]]]}},{"type":"Feature","properties":{"name":"Padre Hurtado"},"geometry":{"type":"Polygon","coordinates":[[[-70.935,-33.588],[-70.936,-33.578],[-70.948,-33.567],[-70.948,-33.561],[-70.929,-33.546],[-70.92,-33.511],[-70.912,-33.51],[-70.901,-33.514],[-70.886,-33.528],[-70.872,-33.533],[-70.86,-33.53],[-70.852,-33.538],[-70.843,-33.534],[-70.819,-33.538],[-70.813,-33.531],[-70.805,-33.53],[-70.806,-33.536],[-70.816,-33.544],[-70.786,-33.567],[-70.779,-33.569],[-70.789,-33.578],[-70.798,-33.573],[-70.809,-33.594],[-70.811,-33.596],[-70.814,-33.594],[-70.819,-33.599],[-70.835,-33.586],[-70.833,-33.582],[-70.848,-33.581],[-70.849,-33.577],[-70.856,-33.576],[-70.868,-33.575],[-70.879,-33.584],[-70.881,-33.581],[-70.888,-33.581],[-70.894,-33.59],[-70.92,-33.586],[-70.935,-33.588]]]}},{"type":"Feature","properties":{"name":"Paine"},"geometry":{"type":"Polygon","coordinates":[[[-70.613,-33.74],[-70.606,-33.757],[-70.599,-33.76],[-70.595,-33.782],[-70.588,-33.785],[-70.56,-33.785],[-70.547,-33.796],[-70.536,-33.8],[-70.537,-33.81],[-70.525,-33.832],[-70.502,-33.834],[-70.494,-33.83],[-70.487,-33.831],[-70.475,-33.848],[-70.475,-33.861],[-70.503,-33.863],[-70.504,-33.876],[-70.516,-33.888],[-70.53,-33.886],[-70.541,-33.881],[-70.555,-33.881],[-70.577,-33.897],[-70.583,-33.897],[-70.588,-33.892],[-70.617,-33.902],[-70.626,-33.914],[-70.637,-33.917],[-70.644,-33.934],[-70.654,-33.937],[-70.663,-33.938],[-70.672,-33.934],[-70.685,-33.923],[-70.691,-33.912],[-70.701,-33.906],[-70.709,-33.905],[-70.719,-33.917],[-70.744,-33.924],[-70.758,-33.943],[-70.77,-33.944],[-70.797,-33.932],[-70.803,-33.937],[-70.806,-33.945],[-70.813,-33.949],[-70.846,-33.956],[-70.857,-33.966],[-70.855,-33.97],[-70.895,-33.989],[-70.908,-33.978],[-70.916,-33.98],[-70.929,-33.975],[-70.933,-33.978],[-70.966,-33.967],[-70.955,-33.942],[-70.962,-33.935],[-70.96,-33.923],[-70.974,-33.906],[-70.977,-33.87],[-70.982,-33.856],[-70.98,-33.844],[-70.989,-33.836],[-70.981,-33.799],[-70.961,-33.794],[-70.923,-33.801],[-70.918,-33.797],[-70.912,-33.768],[-70.906,-33.78],[-70.905,-33.796],[-70.901,-33.803],[-70.893,-33.802],[-70.893,-33.807],[-70.887,-33.81],[-70.872,-33.81],[-70.866,-33.814],[-70.859,-33.815],[-70.842,-33.827],[-70.834,-33.829],[-70.832,-33.832],[-70.816,-33.828],[-70.809,-33.83],[-70.803,-33.827],[-70.785,-33.835],[-70.762,-33.812],[-70.757,-33.817],[-70.751,-33.773],[-70.738,-33.774],[-70.739,-33.789],[-70.702,-33.79],[-70.703,-33.793],[-70.691,-33.791],[-70.688,-33.759],[-70.671,-33.756],[-70.656,-33.744],[-70.634,-33.749],[-70.622,-33.737],[-70.613,-33.74]]]}},{"type":"Feature","properties":{"name":"Pedro Aguirre Cerda"},"geometry":{"type":"Polygon","coordinates":[[[-70.671,-33.511],[-70.695,-33.502],[-70.686,-33.478],[-70.655,-33.477],[-70.671,-33.511]]]}},{"type":"Feature","properties":{"name":"Peñaflor"},"geometry":{"type":"Polygon","coordinates":[[[-70.845,-33.581],[-70.833,-33.582],[-70.835,-33.586],[-70.819,-33.599],[-70.825,-33.611],[-70.85,-33.636],[-70.874,-33.632],[-70.912,-33.636],[-70.914,-33.641],[-70.932,-33.639],[-70.935,-33.646],[-70.95,-33.646],[-70.961,-33.643],[-70.967,-33.632],[-70.968,-33.624],[-70.956,-33.614],[-70.952,-33.602],[-70.937,-33.593],[-70.935,-33.588],[-70.92,-33.586],[-70.894,-33.59],[-70.888,-33.581],[-70.881,-33.581],[-70.879,-33.584],[-70.868,-33.575],[-70.849,-33.577],[-70.845,-33.581]]]}},{"type":"Feature","properties":{"name":"Peñalolén"},"geometry":{"type":"Polygon","coordinates":[[[-70.59,-33.51],[-70.581,-33.49],[-70.572,-33.459],[-70.531,-33.465],[-70.53,-33.459],[-70.487,-33.462],[-70.472,-33.475],[-70.461,-33.476],[-70.439,-33.487],[-70.438,-33.49],[-70.451,-33.496],[-70.467,-33.492],[-70.486,-33.502],[-70.499,-33.498],[-70.542,-33.513],[-70.59,-33.51]]]}},{"type":"Feature","properties":{"name":"Pirque"},"geometry":{"type":"Polygon","coordinates":[[[-70.429,-33.852],[-70.441,-33.851],[-70.45,-33.858],[-70.473,-33.863],[-70.476,-33.858],[-70.475,-33.848],[-70.487,-33.831],[-70.494,-33.83],[-70.502,-33.834],[-70.525,-33.832],[-70.537,-33.81],[-70.536,-33.8],[-70.547,-33.796],[-70.56,-33.785],[-70.588,-33.785],[-70.596,-33.781],[-70.599,-33.76],[-70.606,-33.757],[-70.614,-33.738],[-70.616,-33.723],[-70.627,-33.707],[-70.638,-33.704],[-70.645,-33.697],[-70.644,-33.693],[-70.656,-33.676],[-70.652,-33.664],[-70.641,-33.661],[-70.635,-33.653],[-70.631,-33.643],[-70.62,-33.644],[-70.592,-33.638],[-70.581,-33.634],[-70.576,-33.627],[-70.567,-33.625],[-70.565,-33.62],[-70.54,-33.62],[-70.532,-33.616],[-70.512,-33.615],[-70.508,-33.609],[-70.498,-33.608],[-70.501,-33.604],[-70.499,-33.601],[-70.488,-33.595],[-70.481,-33.594],[-70.479,-33.59],[-70.473,-33.592],[-70.461,-33.591],[-70.461,-33.582],[-70.453,-33.583],[-70.444,-33.579],[-70.439,-33.615],[-70.435,-33.621],[-70.428,-33.62],[-70.421,-33.637],[-70.407,-33.647],[-70.421,-33.66],[-70.429,-33.661],[-70.433,-33.665],[-70.432,-33.673],[-70.441,-33.683],[-70.434,-33.695],[-70.409,-33.703],[-70.401,-33.712],[-70.404,-33.718],[-70.405,-33.731],[-70.4,-33.749],[-70.403,-33.754],[-70.404,-33.769],[-70.408,-33.775],[-70.407,-33.785],[-70.403,-33.79],[-70.406,-33.797],[-70.403,-33.804],[-70.408,-33.832],[-70.411,-33.838],[-70.422,-33.843],[-70.429,-33.852]]]}},{"type":"Feature","properties":{"name":"Providencia"},"geometry":{"type":"Polygon","coordinates":[[[-70.608,-33.415],[-70.582,-33.434],[-70.593,-33.448],[-70.599,-33.445],[-70.632,-33.45],[-70.636,-33.431],[-70.632,-33.422],[-70.617,-33.41],[-70.606,-33.409],[-70.608,-33.415]]]}},{"type":"Feature","properties":{"name":"Pudahuel"},"geometry":{"type":"Polygon","coordinates":[[[-70.757,-33.384],[-70.782,-33.405],[-70.782,-33.417],[-70.772,-33.426],[-70.741,-33.43],[-70.739,-33.453],[-70.731,-33.455],[-70.731,-33.468],[-70.737,-33.471],[-70.738,-33.468],[-70.763,-33.464],[-70.765,-33.459],[-70.776,-33.458],[-70.777,-33.463],[-70.806,-33.461],[-70.819,-33.467],[-70.841,-33.467],[-70.85,-33.48],[-70.892,-33.478],[-70.921,-33.488],[-70.929,-33.477],[-70.949,-33.469],[-70.95,-33.454],[-70.955,-33.445],[-70.954,-33.437],[-70.95,-33.436],[-70.947,-33.422],[-70.947,-33.417],[-70.951,-33.413],[-70.952,-33.399],[-70.948,-33.386],[-70.944,-33.382],[-70.907,-33.368],[-70.892,-33.375],[-70.876,-33.374],[-70.863,-33.376],[-70.839,-33.385],[-70.833,-33.381],[-70.821,-33.363],[-70.811,-33.359],[-70.804,-33.35],[-70.757,-33.384]]]}},{"type":"Feature","properties":{"name":"Puente Alto"},"geometry":{"type":"Polygon","coordinates":[[[-70.488,-33.543],[-70.489,-33.56],[-70.5,-33.571],[-70.495,-33.6],[-70.501,-33.603],[-70.498,-33.608],[-70.508,-33.609],[-70.509,-33.613],[-70.518,-33.614],[-70.519,-33.616],[-70.566,-33.621],[-70.567,-33.625],[-70.576,-33.627],[-70.581,-33.634],[-70.592,-33.638],[-70.62,-33.644],[-70.631,-33.643],[-70.627,-33.605],[-70.606,-33.602],[-70.611,-33.571],[-70.6,-33.567],[-70.584,-33.569],[-70.584,-33.566],[-70.557,-33.561],[-70.568,-33.548],[-70.551,-33.548],[-70.547,-33.552],[-70.522,-33.543],[-70.504,-33.546],[-70.488,-33.543]]]}},{"type":"Feature","properties":{"name":"Quilicura"},"geometry":{"type":"Polygon","coordinates":[[[-70.694,-33.381],[-70.705,-33.384],[-70.711,-33.391],[-70.737,-33.393],[-70.74,-33.39],[-70.751,-33.388],[-70.804,-33.35],[-70.798,-33.338],[-70.793,-33.341],[-70.718,-33.326],[-70.708,-33.323],[-70.711,-33.319],[-70.699,-33.32],[-70.681,-33.331],[-70.68,-33.338],[-70.693,-33.352],[-70.689,-33.366],[-70.7,-33.366],[-70.694,-33.381]]]}},{"type":"Feature","properties":{"name":"Quinta Normal"},"geometry":{"type":"Polygon","coordinates":[[[-70.691,-33.418],[-70.671,-33.427],[-70.68,-33.428],[-70.68,-33.438],[-70.681,-33.436],[-70.692,-33.44],[-70.692,-33.448],[-70.707,-33.449],[-70.707,-33.438],[-70.721,-33.437],[-70.716,-33.415],[-70.723,-33.411],[-70.705,-33.408],[-70.691,-33.418]]]}},{"type":"Feature","properties":{"name":"Recoleta"},"geometry":{"type":"Polygon","coordinates":[[[-70.652,-33.431],[-70.65,-33.418],[-70.653,-33.417],[-70.653,-33.406],[-70.657,-33.405],[-70.658,-33.401],[-70.657,-33.377],[-70.641,-33.383],[-70.611,-33.405],[-70.632,-33.422],[-70.635,-33.436],[-70.652,-33.431]]]}},{"type":"Feature","properties":{"name":"Renca"},"geometry":{"type":"Polygon","coordinates":[[[-70.705,-33.384],[-70.694,-33.381],[-70.681,-33.405],[-70.679,-33.417],[-70.671,-33.427],[-70.691,-33.418],[-70.705,-33.408],[-70.728,-33.414],[-70.782,-33.414],[-70.782,-33.405],[-70.757,-33.384],[-70.737,-33.393],[-70.711,-33.391],[-70.705,-33.384]]]}},{"type":"Feature","properties":{"name":"San Bernardo"},"geometry":{"type":"Polygon","coordinates":[[[-70.767,-33.572],[-70.726,-33.524],[-70.685,-33.539],[-70.693,-33.556],[-70.695,-33.556],[-70.701,-33.573],[-70.663,-33.585],[-70.671,-33.607],[-70.643,-33.61],[-70.643,-33.627],[-70.629,-33.628],[-70.631,-33.643],[-70.657,-33.65],[-70.673,-33.66],[-70.71,-33.666],[-70.718,-33.685],[-70.726,-33.693],[-70.768,-33.707],[-70.796,-33.731],[-70.811,-33.737],[-70.814,-33.751],[-70.821,-33.754],[-70.826,-33.749],[-70.825,-33.742],[-70.821,-33.737],[-70.824,-33.721],[-70.818,-33.72],[-70.812,-33.723],[-70.806,-33.72],[-70.804,-33.712],[-70.792,-33.698],[-70.796,-33.684],[-70.804,-33.672],[-70.802,-33.668],[-70.799,-33.668],[-70.784,-33.653],[-70.749,-33.664],[-70.742,-33.663],[-70.738,-33.656],[-70.736,-33.646],[-70.757,-33.621],[-70.747,-33.618],[-70.754,-33.604],[-70.743,-33.595],[-70.756,-33.576],[-70.767,-33.572]]]}},{"type":"Feature","properties":{"name":"San Joaquín"},"geometry":{"type":"Polygon","coordinates":[[[-70.625,-33.47],[-70.611,-33.513],[-70.637,-33.519],[-70.642,-33.477],[-70.625,-33.47]]]}},{"type":"Feature","properties":{"name":"San José de Maipo"},"geometry":{"type":"Polygon","coordinates":[[[-70.031,-34.288],[-70.053,-34.28],[-70.054,-34.258],[-70.049,-34.244],[-70.051,-34.226],[-70.072,-34.202],[-70.077,-34.198],[-70.093,-34.203],[-70.113,-34.202],[-70.117,-34.19],[-70.134,-34.189],[-70.147,-34.18],[-70.146,-34.173],[-70.154,-34.161],[-70.164,-34.159],[-70.16,-34.15],[-70.165,-34.14],[-70.161,-34.134],[-70.142,-34.121],[-70.158,-34.111],[-70.164,-34.101],[-70.164,-34.096],[-70.159,-34.093],[-70.172,-34.072],[-70.175,-34.058],[-70.169,-34.046],[-70.18,-34.036],[-70.186,-34.032],[-70.205,-34.034],[-70.216,-34.03],[-70.241,-34.033],[-70.245,-34.035],[-70.248,-34.057],[-70.261,-34.071],[-70.286,-34.059],[-70.303,-34.061],[-70.305,-34.066],[-70.309,-34.066],[-70.315,-34.057],[-70.33,-34.059],[-70.34,-34.053],[-70.344,-34.039],[-70.331,-34.021],[-70.321,-34.016],[-70.328,-34.01],[-70.321,-34.0],[-70.327,-33.993],[-70.33,-33.981],[-70.341,-33.979],[-70.35,-33.971],[-70.347,-33.956],[-70.362,-33.948],[-70.376,-33.928],[-70.379,-33.919],[-70.375,-33.911],[-70.369,-33.906],[-70.373,-33.9],[-70.375,-33.884],[-70.383,-33.88],[-70.391,-33.882],[-70.399,-33.88],[-70.411,-33.871],[-70.419,-33.856],[-70.434,-33.854],[-70.427,-33.851],[-70.42,-33.841],[-70.411,-33.838],[-70.408,-33.832],[-70.403,-33.804],[-70.406,-33.797],[-70.403,-33.79],[-70.407,-33.785],[-70.408,-33.775],[-70.404,-33.769],[-70.403,-33.754],[-70.4,-33.749],[-70.405,-33.731],[-70.404,-33.718],[-70.401,-33.712],[-70.409,-33.703],[-70.434,-33.695],[-70.441,-33.683],[-70.432,-33.673],[-70.433,-33.665],[-70.429,-33.661],[-70.421,-33.66],[-70.407,-33.647],[-70.421,-33.637],[-70.428,-33.62],[-70.435,-33.621],[-70.439,-33.615],[-70.444,-33.579],[-70.453,-33.583],[-70.461,-33.582],[-70.461,-33.591],[-70.473,-33.592],[-70.479,-33.59],[-70.481,-33.594],[-70.488,-33.595],[-70.495,-33.6],[-70.5,-33.58],[-70.5,-33.571],[-70.489,-33.559],[-70.487,-33.54],[-70.48,-33.537],[-70.48,-33.532],[-70.469,-33.527],[-70.464,-33.516],[-70.439,-33.5],[-70.439,-33.487],[-70.436,-33.482],[-70.428,-33.484],[-70.42,-33.482],[-70.401,-33.49],[-70.393,-33.491],[-70.376,-33.483],[-70.354,-33.486],[-70.351,-33.491],[-70.348,-33.49],[-70.335,-33.477],[-70.322,-33.473],[-70.315,-33.467],[-70.305,-33.465],[-70.298,-33.452],[-70.285,-33.452],[-70.283,-33.456],[-70.244,-33.436],[-70.236,-33.424],[-70.219,-33.412],[-70.218,-33.401],[-70.203,-33.392],[-70.193,-33.376],[-70.192,-33.367],[-70.182,-33.362],[-70.177,-33.357],[-70.18,-33.351],[-70.176,-33.346],[-70.182,-33.338],[-70.182,-33.322],[-70.188,-33.305],[-70.199,-33.29],[-70.198,-33.272],[-70.205,-33.263],[-70.211,-33.259],[-70.209,-33.248],[-70.222,-33.236],[-70.223,-33.23],[-70.218,-33.223],[-70.218,-33.218],[-70.23,-33.204],[-70.237,-33.202],[-70.244,-33.187],[-70.238,-33.176],[-70.239,-33.165],[-70.23,-33.157],[-70.227,-33.151],[-70.236,-33.14],[-70.205,-33.125],[-70.2,-33.111],[-70.19,-33.109],[-70.184,-33.102],[-70.156,-33.113],[-70.153,-33.107],[-70.159,-33.099],[-70.15,-33.095],[-70.136,-33.094],[-70.132,-33.09],[-70.129,-33.079],[-70.113,-33.072],[-70.116,-33.065],[-70.103,-33.053],[-70.094,-33.051],[-70.075,-33.065],[-70.068,-33.086],[-70.071,-33.095],[-70.066,-33.103],[-70.076,-33.117],[-70.076,-33.121],[-70.052,-33.135],[-70.056,-33.149],[-70.067,-33.155],[-70.057,-33.172],[-70.065,-33.179],[-70.06,-33.194],[-70.065,-33.2],[-70.064,-33.206],[-70.055,-33.226],[-70.038,-33.229],[-70.027,-33.235],[-70.029,-33.241],[-70.028,-33.247],[-70.034,-33.254],[-70.039,-33.27],[-70.006,-33.286],[-70.013,-33.301],[-70.008,-33.312],[-70.009,-33.316],[-70.004,-33.322],[-69.969,-33.309],[-69.967,-33.299],[-69.95,-33.283],[-69.943,-33.285],[-69.937,-33.276],[-69.917,-33.267],[-69.915,-33.256],[-69.921,-33.246],[-69.918,-33.245],[-69.908,-33.27],[-69.904,-33.273],[-69.886,-33.279],[-69.872,-33.277],[-69.86,-33.283],[-69.841,-33.272],[-69.834,-33.274],[-69.814,-33.289],[-69.8,-33.288],[-69.77,-33.346],[-69.775,-33.377],[-69.785,-33.391],[-69.795,-33.397],[-69.816,-33.391],[-69.801,-33.404],[-69.796,-33.423],[-69.807,-33.424],[-69.819,-33.431],[-69.814,-33.443],[-69.821,-33.453],[-69.821,-33.46],[-69.815,-33.469],[-69.829,-33.479],[-69.835,-33.515],[-69.856,-33.526],[-69.86,-33.533],[-69.872,-33.539],[-69.874,-33.555],[-69.869,-33.566],[-69.865,-33.585],[-69.868,-33.596],[-69.874,-33.6],[-69.881,-33.619],[-69.875,-33.625],[-69.874,-33.637],[-69.877,-33.646],[-69.87,-33.653],[-69.879,-33.659],[-69.884,-33.684],[-69.873,-33.694],[-69.865,-33.717],[-69.874,-33.728],[-69.878,-33.734],[-69.877,-33.738],[-69.896,-33.756],[-69.904,-33.774],[-69.894,-33.791],[-69.895,-33.802],[-69.893,-33.807],[-69.897,-33.814],[-69.895,-33.836],[-69.898,-33.848],[-69.886,-33.85],[-69.884,-33.856],[-69.873,-33.861],[-69.868,-33.881],[-69.858,-33.886],[-69.855,-33.892],[-69.873,-33.907],[-69.875,-33.914],[-69.891,-33.921],[-69.894,-33.936],[-69.892,-33.94],[-69.901,-33.949],[-69.901,-33.956],[-69.906,-33.963],[-69.9,-33.971],[-69.882,-33.977],[-69.874,-33.965],[-69.856,-33.964],[-69.853,-33.974],[-69.841,-33.993],[-69.842,-33.999],[-69.839,-34.008],[-69.824,-34.011],[-69.822,-34.016],[-69.828,-34.024],[-69.842,-34.035],[-69.854,-34.056],[-69.848,-34.068],[-69.833,-34.071],[-69.834,-34.086],[-69.842,-34.096],[-69.86,-34.104],[-69.856,-34.114],[-69.871,-34.125],[-69.873,-34.134],[-69.87,-34.141],[-69.863,-34.141],[-69.837,-34.159],[-69.835,-34.166],[-69.816,-34.177],[-69.812,-34.185],[-69.802,-34.193],[-69.797,-34.21],[-69.8,-34.222],[-69.805,-34.227],[-69.802,-34.235],[-69.805,-34.246],[-69.824,-34.249],[-69.828,-34.256],[-69.854,-34.256],[-69.856,-34.261],[-69.872,-34.267],[-69.884,-34.264],[-69.896,-34.265],[-69.9,-34.271],[-69.898,-34.285],[-69.909,-34.291],[-69.922,-34.29],[-69.927,-34.283],[-69.94,-34.28],[-69.942,-34.273],[-69.955,-34.26],[-69.973,-34.25],[-69.984,-34.254],[-69.987,-34.261],[-70.003,-34.262],[-70.011,-34.266],[-70.015,-34.275],[-70.02,-34.276],[-70.019,-34.281],[-70.031,-34.288]]]}},{"type":"Feature","properties":{"name":"San Miguel"},"geometry":{"type":"Polygon","coordinates":[[[-70.638,-33.519],[-70.671,-33.511],[-70.655,-33.477],[-70.642,-33.477],[-70.638,-33.519]]]}},{"type":"Feature","properties":{"name":"San Pedro"},"geometry":{"type":"Polygon","coordinates":[[[-71.566,-33.987],[-71.571,-33.989],[-71.57,-33.995],[-71.575,-34.001],[-71.572,-34.007],[-71.581,-34.012],[-71.575,-34.018],[-71.576,-34.023],[-71.587,-34.034],[-71.587,-34.029],[-71.597,-34.025],[-71.602,-34.019],[-71.603,-34.012],[-71.615,-34.003],[-71.641,-34.001],[-71.656,-33.996],[-71.667,-33.997],[-71.665,-33.977],[-71.671,-33.973],[-71.68,-33.974],[-71.686,-33.971],[-71.695,-33.975],[-71.7,-33.968],[-71.711,-33.967],[-71.708,-33.961],[-71.714,-33.946],[-71.711,-33.941],[-71.704,-33.941],[-71.692,-33.928],[-71.669,-33.92],[-71.581,-33.867],[-71.573,-33.874],[-71.556,-33.872],[-71.556,-33.783],[-71.553,-33.771],[-71.541,-33.764],[-71.531,-33.768],[-71.521,-33.778],[-71.503,-33.77],[-71.495,-33.77],[-71.481,-33.777],[-71.475,-33.784],[-71.441,-33.787],[-71.423,-33.794],[-71.421,-33.805],[-71.423,-33.814],[-71.421,-33.822],[-71.4,-33.847],[-71.385,-33.878],[-71.371,-33.891],[-71.358,-33.892],[-71.348,-33.881],[-71.352,-33.873],[-71.342,-33.867],[-71.328,-33.865],[-71.318,-33.868],[-71.314,-33.861],[-71.301,-33.864],[-71.298,-33.872],[-71.3,-33.882],[-71.289,-33.896],[-71.291,-33.908],[-71.286,-33.912],[-71.272,-33.912],[-71.262,-33.919],[-71.257,-33.928],[-71.24,-33.938],[-71.229,-33.937],[-71.223,-33.953],[-71.207,-33.962],[-71.215,-33.973],[-71.207,-33.991],[-71.218,-33.997],[-71.231,-34.012],[-71.241,-34.016],[-71.248,-34.013],[-71.259,-34.018],[-71.279,-34.018],[-71.3,-34.03],[-71.312,-34.044],[-71.316,-34.043],[-71.334,-34.052],[-71.341,-34.051],[-71.348,-34.056],[-71.347,-34.063],[-71.352,-34.065],[-71.371,-34.061],[-71.387,-34.068],[-71.39,-34.076],[-71.415,-34.058],[-71.417,-34.05],[-71.413,-34.036],[-71.421,-34.033],[-71.432,-34.033],[-71.448,-34.015],[-71.458,-34.018],[-71.499,-33.998],[-71.552,-33.989],[-71.555,-33.993],[-71.566,-33.987]]]}},{"type":"Feature","properties":{"name":"San Ramón"},"geometry":{"type":"Polygon","coordinates":[[[-70.637,-33.519],[-70.631,-33.558],[-70.655,-33.555],[-70.645,-33.517],[-70.637,-33.519]]]}},{"type":"Feature","properties":{"name":"Santiago"},"geometry":{"type":"Polygon","coordinates":[[[-70.678,-33.427],[-70.635,-33.436],[-70.625,-33.47],[-70.642,-33.477],[-70.681,-33.478],[-70.672,-33.477],[-70.673,-33.471],[-70.68,-33.471],[-70.68,-33.444],[-70.692,-33.444],[-70.692,-33.44],[-70.681,-33.436],[-70.68,-33.438],[-70.681,-33.43],[-70.678,-33.427]]]}},{"type":"Feature","properties":{"name":"Talagante"},"geometry":{"type":"Polygon","coordinates":[[[-70.812,-33.645],[-70.791,-33.696],[-70.804,-33.712],[-70.806,-33.72],[-70.812,-33.723],[-70.83,-33.719],[-70.844,-33.709],[-70.849,-33.715],[-70.899,-33.697],[-70.915,-33.716],[-70.933,-33.719],[-70.956,-33.714],[-70.976,-33.716],[-70.99,-33.724],[-71.026,-33.716],[-71.022,-33.709],[-71.014,-33.706],[-71.003,-33.693],[-70.986,-33.688],[-70.967,-33.676],[-70.937,-33.663],[-70.937,-33.658],[-70.956,-33.651],[-70.961,-33.643],[-70.95,-33.646],[-70.935,-33.646],[-70.932,-33.639],[-70.914,-33.641],[-70.912,-33.636],[-70.874,-33.632],[-70.85,-33.636],[-70.867,-33.651],[-70.836,-33.662],[-70.818,-33.642],[-70.812,-33.645]]]}},{"type":"Feature","properties":{"name":"Tiltil"},"geometry":{"type":"Polygon","coordinates":[[[-70.736,-32.924],[-70.723,-32.93],[-70.72,-32.953],[-70.738,-32.966],[-70.747,-32.967],[-70.761,-32.98],[-70.77,-32.984],[-70.762,-32.991],[-70.759,-33.005],[-70.75,-33.012],[-70.757,-33.02],[-70.753,-33.025],[-70.761,-33.034],[-70.759,-33.044],[-70.765,-33.049],[-70.767,-33.055],[-70.747,-33.069],[-70.748,-33.08],[-70.76,-33.104],[-70.754,-33.118],[-70.759,-33.126],[-70.753,-33.142],[-70.744,-33.146],[-70.739,-33.158],[-70.735,-33.16],[-70.736,-33.167],[-70.745,-33.17],[-70.756,-33.18],[-70.798,-33.17],[-70.819,-33.177],[-70.826,-33.185],[-70.835,-33.18],[-70.857,-33.181],[-70.85,-33.188],[-70.85,-33.198],[-70.857,-33.204],[-70.867,-33.226],[-70.883,-33.229],[-70.888,-33.224],[-70.886,-33.215],[-70.895,-33.211],[-70.89,-33.188],[-70.893,-33.181],[-70.909,-33.182],[-70.93,-33.187],[-70.941,-33.177],[-70.953,-33.172],[-70.963,-33.178],[-70.975,-33.172],[-70.982,-33.172],[-70.986,-33.177],[-70.993,-33.178],[-70.992,-33.176],[-71.005,-33.154],[-71.009,-33.154],[-71.014,-33.148],[-71.013,-33.132],[-71.019,-33.12],[-71.02,-33.111],[-71.015,-33.095],[-71.029,-33.084],[-71.018,-33.07],[-71.009,-33.065],[-71.008,-33.053],[-71.001,-33.05],[-71.014,-33.038],[-71.02,-33.021],[-71.02,-33.012],[-71.027,-33.005],[-71.028,-32.989],[-71.021,-32.982],[-71.01,-32.976],[-70.987,-32.979],[-70.971,-32.977],[-70.953,-32.966],[-70.947,-32.972],[-70.94,-32.973],[-70.927,-32.966],[-70.922,-32.953],[-70.916,-32.945],[-70.909,-32.945],[-70.907,-32.937],[-70.898,-32.934],[-70.886,-32.939],[-70.872,-32.931],[-70.855,-32.93],[-70.842,-32.922],[-70.837,-32.927],[-70.817,-32.931],[-70.805,-32.925],[-70.796,-32.926],[-70.79,-32.93],[-70.782,-32.929],[-70.772,-32.936],[-70.761,-32.929],[-70.749,-32.93],[-70.736,-32.924]]]}},{"type":"Feature","properties":{"name":"Vitacura"},"geometry":{"type":"Polygon","coordinates":[[[-70.518,-33.373],[-70.534,-33.384],[-70.554,-33.392],[-70.6,-33.408],[-70.615,-33.409],[-70.601,-33.388],[-70.604,-33.383],[-70.597,-33.366],[-70.601,-33.363],[-70.583,-33.351],[-70.573,-33.356],[-70.55,-33.359],[-70.541,-33.37],[-70.525,-33.369],[-70.518,-33.373]]]}},{"type":"Feature","properties":{"name":"Ñuñoa"},"geometry":{"type":"Polygon","coordinates":[[[-70.577,-33.47],[-70.588,-33.474],[-70.623,-33.475],[-70.632,-33.45],[-70.599,-33.445],[-70.593,-33.448],[-70.582,-33.434],[-70.574,-33.438],[-70.571,-33.454],[-70.577,-33.47]]]}}]}