{"type":"FeatureCollection","name":"South America","source":"Natural Earth (public domain), https://www.naturalearthdata.com","adjacency":[["Argentina","Bolivia"],["Argentina","Brazil"],["Argentina","Chile"],["Argentina","Paraguay"],["Argentina","Uruguay"],["Bolivia","Brazil"],["Bolivia","Chile"],["Bolivia","Paraguay"],["Bolivia","Peru"],["Brazil","Colombia"],["Brazil","French Guiana"],["Brazil","Guyana"],["Brazil","Paraguay"],["Brazil","Peru"],["Brazil","Suriname"],["Brazil","Uruguay"],["Brazil","Venezuela"],["Chile","Peru"],["Colombia","Ecuador"],["Colombia","Peru"],["Colombia","Venezuela"],["Ecuador","Peru"],["French Guiana","Suriname"],["Guyana","Suriname"],["Guyana","Venezuela"]],"features":[{"type":"Feature","properties":{"name":"Argentina"},"geometry":{"type":"MultiPolygon","coordinates":[[[[-57.646,-30.227],[-57.873,-30.591],[-57.811,-30.859],[-58.054,-31.495],[-57.989,-31.621],[-58.189,-31.924],[-58.12,-32.249],[-58.22,-32.564],[-58.171,-32.959],[-58.25,-33.078],[-58.424,-33.112],[-58.547,-33.663],[-58.392,-34.193],[-58.525,-34.296],[-58.283,-34.683],[-57.548,-35.019],[-57.171,-35.362],[-57.159,-35.506],[-57.354,-35.72],[-57.375,-35.9],[-57.265,-36.144],[-57.076,-36.297],[-56.717,-36.389],[-56.668,-36.735],[-56.727,-36.958],[-57.396,-37.745],[-57.547,-38.086],[-58.179,-38.436],[-59.828,-38.838],[-61.112,-38.993],[-61.848,-38.962],[-62.335,-38.8],[-62.295,-39.243],[-62.054,-39.374],[-62.179,-39.38],[-62.077,-39.462],[-62.132,-39.825],[-62.287,-39.895],[-62.402,-40.197],[-62.394,-40.459],[-62.246,-40.675],[-62.395,-40.891],[-62.959,-41.11],[-63.622,-41.16],[-64.853,-40.814],[-64.804,-40.757],[-64.869,-40.736],[-65.069,-40.805],[-65.155,-41.106],[-65.018,-41.567],[-65.059,-41.97],[-64.986,-42.102],[-64.538,-42.255],[-64.571,-42.416],[-64.42,-42.434],[-64.101,-42.395],[-64.061,-42.266],[-64.229,-42.218],[-63.796,-42.114],[-63.63,-42.283],[-63.617,-42.696],[-63.692,-42.805],[-64.035,-42.881],[-64.131,-42.861],[-64.324,-42.572],[-64.488,-42.513],[-64.971,-42.666],[-65.027,-42.759],[-64.319,-42.969],[-64.84,-43.189],[-65.252,-43.572],[-65.266,-44.28],[-65.361,-44.477],[-65.648,-44.661],[-65.698,-44.796],[-65.599,-44.876],[-65.639,-45.008],[-66.19,-44.965],[-66.585,-45.183],[-66.941,-45.257],[-67.6,-46.053],[-67.506,-46.443],[-66.777,-47.006],[-65.854,-47.157],[-65.738,-47.345],[-65.775,-47.568],[-65.886,-47.702],[-66.225,-47.827],[-65.934,-47.827],[-65.81,-47.941],[-66.393,-48.342],[-67.033,-48.628],[-67.466,-48.952],[-67.685,-49.247],[-67.783,-49.859],[-67.914,-49.984],[-68.257,-50.105],[-68.488,-49.978],[-68.668,-49.753],[-68.662,-49.936],[-68.98,-50.003],[-68.598,-50.009],[-68.422,-50.158],[-68.939,-50.382],[-69.09,-50.583],[-69.155,-50.864],[-69.359,-51.028],[-69.201,-50.994],[-69.066,-51.304],[-69.058,-51.547],[-69.465,-51.584],[-68.965,-51.677],[-68.394,-52.307],[-68.443,-52.357],[-68.461,-52.29],[-69.96,-52.008],[-71.971,-51.964],[-71.953,-51.88],[-72.408,-51.541],[-72.303,-51.299],[-72.377,-51.095],[-72.276,-50.91],[-72.34,-50.682],[-72.51,-50.608],[-73.153,-50.738],[-73.501,-50.125],[-73.47,-49.795],[-73.576,-49.583],[-73.462,-49.314],[-73.135,-49.301],[-73.149,-49.188],[-73.034,-49.014],[-72.614,-48.793],[-72.608,-48.519],[-72.355,-48.366],[-72.293,-48.229],[-72.518,-47.876],[-72.346,-47.493],[-71.905,-47.202],[-71.94,-46.831],[-71.7,-46.651],[-71.762,-46.32],[-71.876,-46.161],[-71.632,-45.954],[-71.751,-45.839],[-71.746,-45.579],[-71.508,-45.513],[-71.349,-45.332],[-71.354,-45.23],[-71.596,-44.979],[-72.042,-44.904],[-72.064,-44.772],[-71.261,-44.763],[-71.16,-44.56],[-71.213,-44.441],[-71.82,-44.383],[-71.812,-44.106],[-71.68,-43.93],[-71.795,-43.753],[-71.751,-43.59],[-71.905,-43.348],[-71.751,-43.237],[-72.146,-42.99],[-72.144,-42.577],[-72.053,-42.473],[-72.108,-42.252],[-71.75,-42.047],[-71.911,-41.65],[-71.873,-40.893],[-71.932,-40.692],[-71.709,-40.382],[-71.818,-40.177],[-71.66,-40.021],[-71.72,-39.635],[-71.539,-39.602],[-71.42,-39.287],[-71.402,-38.935],[-70.952,-38.738],[-70.859,-38.604],[-71.168,-37.762],[-71.135,-37.445],[-71.2,-37.3],[-71.118,-37.114],[-71.192,-36.844],[-71.056,-36.524],[-70.749,-36.393],[-70.722,-36.283],[-70.405,-36.062],[-70.416,-35.523],[-70.555,-35.247],[-70.393,-35.147],[-70.29,-34.733],[-70.052,-34.301],[-69.852,-34.224],[-69.894,-33.731],[-69.82,-33.284],[-70.085,-33.202],[-70.022,-32.885],[-70.116,-32.807],[-70.17,-32.472],[-70.345,-32.176],[-70.356,-32.042],[-70.254,-31.958],[-70.45,-31.842],[-70.585,-31.569],[-70.555,-31.317],[-70.52,-31.148],[-70.309,-31.023],[-70.348,-30.902],[-70.17,-30.386],[-69.956,-30.358],[-69.844,-30.175],[-69.96,-30.078],[-69.928,-29.769],[-70.027,-29.324],[-69.828,-29.103],[-69.657,-28.414],[-69.174,-27.925],[-68.846,-27.154],[-68.592,-27.14],[-68.319,-26.973],[-68.592,-26.47],[-68.415,-26.154],[-68.6,-25.486],[-68.541,-25.237],[-68.384,-25.092],[-68.562,-24.838],[-68.507,-24.63],[-68.25,-24.392],[-67.356,-24.034],[-67.009,-23.001],[-67.195,-22.822],[-67.034,-22.552],[-66.8,-22.41],[-66.712,-22.216],[-66.365,-22.114],[-66.22,-21.803],[-65.771,-22.1],[-64.993,-22.11],[-64.606,-22.229],[-64.325,-22.828],[-63.922,-22.029],[-62.843,-21.997],[-62.626,-22.29],[-62.214,-22.612],[-61.928,-23.059],[-61.033,-23.756],[-59.892,-24.094],[-59.187,-24.562],[-58.365,-24.959],[-57.96,-25.049],[-57.644,-25.328],[-57.572,-25.534],[-57.755,-25.697],[-57.891,-26.007],[-58.111,-26.18],[-58.203,-26.381],[-58.191,-26.63],[-58.619,-27.132],[-58.605,-27.314],[-58.168,-27.273],[-57.112,-27.47],[-56.603,-27.468],[-56.437,-27.554],[-56.164,-27.321],[-55.715,-27.415],[-55.427,-27.009],[-55.136,-26.931],[-54.825,-26.652],[-54.678,-26.309],[-54.616,-25.576],[-54.444,-25.625],[-54.155,-25.523],[-53.891,-25.669],[-53.669,-26.288],[-53.717,-26.883],[-53.838,-27.121],[-54.156,-27.254],[-54.327,-27.424],[-54.829,-27.551],[-55.102,-27.867],[-55.725,-28.204],[-55.687,-28.382],[-55.891,-28.37],[-56.939,-29.595],[-57.225,-29.782],[-57.646,-30.227]]],[[[-68.653,-54.854],[-68.63,-52.653],[-68.24,-53.082],[-68.431,-53.055],[-68.521,-53.177],[-68.489,-53.261],[-68.161,-53.306],[-68.008,-53.564],[-67.294,-54.05],[-66.236,-54.533],[-65.747,-54.653],[-65.179,-54.678],[-65.346,-54.878],[-65.471,-54.915],[-66.511,-55.032],[-67.127,-54.904],[-68.22,-54.818],[-68.653,-54.854]]],[[[-64.549,-54.716],[-64.221,-54.722],[-63.815,-54.725],[-63.971,-54.811],[-64.323,-54.796],[-64.637,-54.903],[-64.757,-54.827],[-64.549,-54.716]]],[[[-61.866,-39.235],[-62.042,-39.167],[-62.093,-39.086],[-61.907,-39.136],[-61.866,-39.235]]]]}},{"type":"Feature","properties":{"name":"Bolivia"},"geometry":{"type":"Polygon","coordinates":[[[-69.313,-17.943],[-69.625,-17.2],[-69.021,-16.642],[-69.033,-16.476],[-68.843,-16.338],[-69.218,-16.149],[-69.421,-15.641],[-69.172,-15.237],[-69.375,-14.963],[-69.359,-14.795],[-68.871,-14.17],[-69.074,-13.683],[-68.983,-13.496],[-68.979,-12.88],[-68.759,-12.687],[-68.685,-12.502],[-69.579,-10.952],[-68.848,-11.011],[-68.727,-11.122],[-68.623,-11.109],[-68.311,-10.975],[-68.072,-10.703],[-67.722,-10.683],[-67.417,-10.39],[-66.575,-9.9],[-65.559,-9.797],[-65.396,-9.712],[-65.299,-10.147],[-65.447,-10.507],[-65.324,-11.025],[-65.39,-11.246],[-65.186,-11.75],[-65.09,-11.741],[-64.993,-11.975],[-64.513,-12.251],[-64.421,-12.44],[-63.939,-12.53],[-63.689,-12.478],[-63.347,-12.68],[-63.067,-12.669],[-63.015,-12.806],[-62.765,-12.997],[-62.118,-13.16],[-61.79,-13.526],[-61.077,-13.49],[-60.507,-13.79],[-60.405,-14.019],[-60.475,-14.185],[-60.299,-14.619],[-60.273,-15.089],[-60.583,-15.098],[-60.242,-15.48],[-60.176,-16.269],[-58.346,-16.284],[-58.35,-16.491],[-58.478,-16.701],[-58.396,-17.234],[-57.991,-17.513],[-57.832,-17.512],[-57.496,-18.215],[-57.783,-18.914],[-57.717,-19.044],[-57.8,-19.081],[-58.131,-19.745],[-57.861,-19.98],[-58.094,-20.151],[-58.16,-20.165],[-58.18,-19.818],[-59.091,-19.286],[-60.007,-19.298],[-61.757,-19.645],[-61.917,-20.055],[-62.276,-20.562],[-62.277,-21.066],[-62.651,-22.234],[-62.843,-21.997],[-63.922,-22.029],[-64.325,-22.828],[-64.606,-22.229],[-64.993,-22.11],[-65.771,-22.1],[-66.22,-21.803],[-66.365,-22.114],[-66.712,-22.216],[-66.8,-22.41],[-67.034,-22.552],[-67.195,-22.822],[-67.707,-22.889],[-67.879,-22.823],[-67.882,-22.493],[-68.186,-21.619],[-68.197,-21.3],[-68.435,-20.948],[-68.558,-20.902],[-68.563,-20.72],[-68.484,-20.628],[-68.761,-20.416],[-68.689,-20.31],[-68.756,-20.091],[-68.561,-19.967],[-68.698,-19.721],[-68.47,-19.41],[-68.968,-18.968],[-69.145,-18.144],[-69.094,-18.05],[-69.313,-17.943]]]}},{"type":"Feature","properties":{"name":"Brazil"},"geometry":{"type":"MultiPolygon","coordinates":[[[[-66.876,1.223],[-66.302,0.752],[-66.06,0.785],[-65.681,0.983],[-65.523,0.843],[-65.556,0.688],[-65.473,0.691],[-65.104,1.108],[-64.205,1.529],[-64.008,1.932],[-63.394,2.223],[-63.389,2.412],[-64.047,2.502],[-64.009,2.672],[-64.219,3.205],[-64.221,3.587],[-64.669,4.012],[-64.789,4.276],[-64.576,4.14],[-64.192,4.127],[-64.021,3.929],[-63.339,3.944],[-62.969,3.594],[-62.857,3.593],[-62.765,3.673],[-62.712,4.018],[-62.411,4.157],[-62.153,4.098],[-61.821,4.197],[-61.554,4.288],[-61.28,4.517],[-61.003,4.535],[-60.604,4.949],[-60.742,5.202],[-60.242,5.258],[-59.991,5.083],[-60.032,4.741],[-60.149,4.533],[-59.703,4.381],[-59.739,4.227],[-59.551,3.934],[-59.679,3.7],[-59.854,3.587],[-59.831,3.349],[-59.972,2.99],[-59.994,2.69],[-59.89,2.363],[-59.755,2.274],[-59.756,1.901],[-59.667,1.746],[-59.231,1.376],[-58.862,1.204],[-58.512,1.285],[-58.506,1.439],[-58.341,1.588],[-58.035,1.52],[-57.983,1.648],[-57.594,1.704],[-57.367,1.94],[-57.119,2.014],[-56.837,1.881],[-56.483,1.942],[-55.963,1.857],[-55.915,2.04],[-56.138,2.259],[-55.957,2.52],[-55.731,2.406],[-55.385,2.441],[-54.979,2.598],[-54.662,2.328],[-54.13,2.121],[-53.768,2.355],[-53.509,2.253],[-53.334,2.34],[-53.23,2.205],[-52.965,2.184],[-52.653,2.426],[-52.328,3.182],[-51.653,4.061],[-51.547,4.311],[-51.462,4.314],[-51.22,4.094],[-50.994,3.078],[-50.679,2.21],[-50.714,2.134],[-50.609,2.104],[-50.459,1.83],[-49.957,1.66],[-49.899,1.163],[-50.294,0.836],[-50.755,0.223],[-51.283,-0.085],[-51.404,-0.393],[-51.703,-0.762],[-51.721,-1.018],[-51.922,-1.181],[-51.981,-1.368],[-52.229,-1.363],[-52.664,-1.552],[-52.31,-1.56],[-52.197,-1.64],[-51.948,-1.587],[-50.895,-0.938],[-50.838,-1.039],[-50.918,-1.115],[-50.69,-1.762],[-50.403,-2.016],[-49.999,-1.832],[-49.72,-1.926],[-49.314,-1.732],[-49.637,-2.657],[-49.458,-2.505],[-49.211,-1.917],[-48.991,-1.83],[-48.71,-1.488],[-48.463,-1.614],[-48.35,-1.482],[-48.468,-1.394],[-48.45,-1.146],[-48.115,-0.738],[-47.961,-0.77],[-47.808,-0.663],[-47.687,-0.725],[-47.557,-0.67],[-47.419,-0.766],[-47.439,-0.648],[-47.269,-0.645],[-47.127,-0.745],[-46.811,-0.78],[-46.617,-0.971],[-46.219,-1.031],[-46.215,-1.1],[-46.045,-1.103],[-45.645,-1.348],[-45.459,-1.356],[-45.329,-1.717],[-45.076,-1.466],[-44.721,-1.733],[-44.779,-1.799],[-44.651,-1.746],[-44.538,-2.053],[-44.756,-2.266],[-44.662,-2.373],[-44.435,-2.168],[-44.382,-2.366],[-44.52,-2.405],[-44.589,-2.573],[-44.723,-3.205],[-44.438,-2.944],[-44.229,-2.471],[-44.106,-2.493],[-44.193,-2.81],[-43.933,-2.583],[-43.455,-2.502],[-43.38,-2.376],[-42.937,-2.465],[-42.25,-2.792],[-41.876,-2.747],[-41.48,-2.917],[-40.475,-2.796],[-39.965,-2.862],[-38.476,-3.717],[-38.049,-4.216],[-37.626,-4.592],[-37.301,-4.713],[-37.175,-4.912],[-36.591,-5.098],[-35.98,-5.054],[-35.549,-5.129],[-35.393,-5.251],[-35.235,-5.567],[-34.805,-7.288],[-34.879,-7.747],[-34.835,-7.971],[-34.967,-8.408],[-35.158,-8.931],[-35.597,-9.541],[-35.764,-9.703],[-35.891,-9.687],[-35.885,-9.848],[-36.398,-10.484],[-36.938,-10.82],[-37.093,-11.055],[-37.183,-11.068],[-37.181,-11.188],[-37.356,-11.404],[-37.322,-11.215],[-37.359,-11.253],[-37.689,-12.1],[-38.24,-12.844],[-38.499,-12.957],[-38.525,-12.762],[-38.691,-12.624],[-38.852,-12.79],[-38.764,-12.907],[-38.835,-13.147],[-39.031,-13.365],[-39.089,-13.588],[-38.989,-13.615],[-39.048,-14.044],[-39.008,-14.101],[-38.942,-14.031],[-39.06,-14.655],[-38.881,-15.864],[-39.203,-17.178],[-39.154,-17.704],[-39.487,-17.99],[-39.651,-18.252],[-39.74,-18.64],[-39.7,-19.278],[-39.783,-19.572],[-40.001,-19.742],[-40.396,-20.569],[-40.789,-20.906],[-40.955,-21.238],[-41.047,-21.506],[-41.0,-21.999],[-41.706,-22.31],[-41.98,-22.581],[-41.941,-22.788],[-42.042,-22.947],[-42.958,-22.967],[-43.081,-22.903],[-43.065,-22.771],[-43.154,-22.725],[-43.242,-22.795],[-43.224,-22.991],[-43.899,-23.101],[-43.974,-23.057],[-43.676,-23.009],[-43.866,-22.911],[-44.637,-23.055],[-44.674,-23.207],[-44.57,-23.274],[-44.952,-23.381],[-45.325,-23.6],[-45.464,-23.803],[-45.972,-23.796],[-46.867,-24.236],[-47.137,-24.493],[-47.989,-25.036],[-47.908,-25.068],[-47.929,-25.168],[-48.203,-25.417],[-48.186,-25.31],[-48.402,-25.272],[-48.476,-25.443],[-48.732,-25.369],[-48.692,-25.492],[-48.401,-25.597],[-48.545,-25.816],[-48.666,-25.844],[-48.576,-25.935],[-48.619,-26.179],[-48.748,-26.269],[-48.652,-26.406],[-48.678,-26.703],[-48.554,-27.196],[-48.643,-27.558],[-48.621,-28.076],[-48.8,-28.575],[-49.271,-28.871],[-49.746,-29.363],[-50.033,-29.801],[-50.3,-30.426],[-50.921,-31.258],[-52.039,-32.115],[-52.063,-31.83],[-51.893,-31.868],[-51.681,-31.775],[-51.272,-31.477],[-51.174,-31.34],[-51.161,-31.119],[-50.98,-31.094],[-50.941,-30.904],[-50.689,-30.704],[-50.716,-30.426],[-50.582,-30.439],[-50.564,-30.254],[-51.025,-30.369],[-51.04,-30.261],[-51.179,-30.211],[-51.298,-30.035],[-51.282,-30.244],[-51.157,-30.364],[-51.288,-30.591],[-51.283,-30.752],[-51.359,-30.675],[-51.506,-31.104],[-51.972,-31.384],[-52.194,-31.886],[-52.127,-32.168],[-52.342,-32.44],[-52.652,-33.138],[-53.371,-33.742],[-53.531,-33.655],[-53.531,-33.171],[-53.126,-32.737],[-53.602,-32.403],[-53.762,-32.057],[-54.221,-31.855],[-54.588,-31.485],[-55.174,-31.28],[-55.603,-30.851],[-55.808,-31.037],[-56.005,-31.079],[-56.045,-30.778],[-56.833,-30.107],[-57.121,-30.144],[-57.214,-30.283],[-57.552,-30.261],[-57.609,-30.188],[-56.939,-29.595],[-55.891,-28.37],[-55.687,-28.382],[-55.725,-28.204],[-55.102,-27.867],[-54.829,-27.551],[-54.327,-27.424],[-54.156,-27.254],[-53.838,-27.121],[-53.717,-26.883],[-53.671,-26.225],[-53.891,-25.669],[-54.012,-25.578],[-54.155,-25.523],[-54.444,-25.625],[-54.616,-25.576],[-54.436,-25.121],[-54.281,-24.306],[-54.318,-24.128],[-54.242,-24.047],[-54.625,-23.812],[-55.194,-24.017],[-55.416,-23.951],[-55.651,-22.886],[-55.618,-22.671],[-55.8,-22.354],[-56.246,-22.265],[-56.448,-22.076],[-56.633,-22.235],[-56.937,-22.271],[-57.721,-22.099],[-57.88,-22.136],[-57.986,-22.046],[-57.83,-20.998],[-58.16,-20.165],[-57.861,-19.98],[-58.131,-19.745],[-57.8,-19.081],[-57.717,-19.044],[-57.783,-18.914],[-57.496,-18.215],[-57.832,-17.512],[-57.991,-17.513],[-58.396,-17.234],[-58.478,-16.701],[-58.35,-16.491],[-58.346,-16.284],[-60.176,-16.269],[-60.242,-15.48],[-60.583,-15.098],[-60.273,-15.089],[-60.299,-14.619],[-60.475,-14.185],[-60.405,-14.019],[-60.507,-13.79],[-61.077,-13.49],[-61.79,-13.526],[-62.118,-13.16],[-62.765,-12.997],[-63.015,-12.806],[-63.067,-12.669],[-63.347,-12.68],[-63.689,-12.478],[-63.939,-12.53],[-64.421,-12.44],[-64.513,-12.251],[-64.993,-11.975],[-65.09,-11.741],[-65.186,-11.75],[-65.39,-11.246],[-65.324,-11.025],[-65.447,-10.507],[-65.299,-10.147],[-65.396,-9.712],[-65.559,-9.797],[-66.575,-9.9],[-67.417,-10.39],[-67.722,-10.683],[-68.072,-10.703],[-68.311,-10.975],[-68.623,-11.109],[-69.229,-10.956],[-69.96,-10.93],[-70.342,-11.067],[-70.533,-10.947],[-70.642,-11.01],[-70.637,-9.824],[-70.541,-9.438],[-71.238,-9.966],[-72.182,-10.004],[-72.173,-9.844],[-72.379,-9.51],[-73.209,-9.411],[-72.97,-9.12],[-72.974,-8.993],[-73.302,-8.654],[-73.36,-8.479],[-73.549,-8.346],[-73.776,-7.936],[-73.72,-7.783],[-74.002,-7.556],[-73.964,-7.379],[-73.72,-7.309],[-73.805,-7.08],[-73.758,-6.906],[-73.137,-6.466],[-73.236,-6.098],[-72.98,-5.635],[-72.887,-5.123],[-71.845,-4.504],[-70.974,-4.35],[-70.8,-4.173],[-70.405,-4.15],[-70.239,-4.301],[-69.972,-4.301],[-69.4,-1.195],[-69.612,-0.763],[-69.634,-0.509],[-70.071,-0.139],[-70.054,0.579],[-69.472,0.73],[-69.283,0.627],[-69.153,0.659],[-69.163,0.864],[-69.312,1.05],[-69.852,1.06],[-69.849,1.709],[-69.543,1.773],[-68.177,1.72],[-68.256,1.846],[-68.194,1.987],[-67.936,1.748],[-67.556,2.073],[-67.4,2.117],[-67.119,1.704],[-67.082,1.185],[-66.876,1.223]]],[[[-49.535,-0.234],[-49.117,-0.164],[-48.393,-0.297],[-48.497,-0.665],[-48.567,-0.684],[-48.571,-0.893],[-48.84,-1.227],[-48.834,-1.39],[-49.038,-1.514],[-49.173,-1.413],[-49.234,-1.6],[-49.507,-1.512],[-49.588,-1.712],[-49.805,-1.79],[-50.066,-1.704],[-50.508,-1.788],[-50.76,-1.24],[-50.729,-1.127],[-50.577,-1.103],[-50.71,-1.078],[-50.796,-0.906],[-50.646,-0.273],[-50.248,-0.116],[-49.535,-0.234]]],[[[-44.098,-23.169],[-44.32,-23.212],[-44.36,-23.172],[-44.243,-23.074],[-44.098,-23.169]]],[[[-48.603,-26.414],[-48.666,-26.29],[-48.54,-26.17],[-48.498,-26.219],[-48.603,-26.414]]],[[[-45.261,-23.941],[-45.451,-23.896],[-45.302,-23.728],[-45.233,-23.825],[-45.261,-23.941]]],[[[-44.598,-3.038],[-44.569,-2.785],[-44.481,-2.718],[-44.499,-2.94],[-44.598,-3.038]]],[[[-38.783,-13.119],[-38.787,-13.055],[-38.668,-12.88],[-38.601,-12.993],[-38.783,-13.119]]],[[[-38.938,-13.532],[-39.022,-13.446],[-38.98,-13.398],[-38.907,-13.401],[-38.938,-13.532]]],[[[-44.888,-1.277],[-45.021,-1.372],[-44.979,-1.267],[-44.888,-1.277]]],[[[-49.697,0.216],[-49.917,-0.023],[-50.339,0.043],[-50.273,0.232],[-49.879,0.305],[-49.697,0.216]]],[[[-50.399,1.893],[-50.509,2.03],[-50.419,2.161],[-50.342,2.142],[-50.292,1.98],[-50.399,1.893]]],[[[-50.926,-0.327],[-51.038,-0.226],[-50.995,-0.105],[-50.667,-0.058],[-50.653,-0.132],[-50.926,-0.327]]],[[[-49.444,-0.112],[-49.83,-0.094],[-49.712,0.015],[-49.4,0.057],[-49.444,-0.112]]],[[[-50.444,-0.008],[-50.624,0.054],[-50.61,0.205],[-50.452,0.327],[-50.373,0.591],[-50.332,0.259],[-50.444,-0.008]]],[[[-50.261,0.359],[-50.251,0.585],[-50.059,0.638],[-50.04,0.523],[-50.261,0.359]]],[[[-51.938,-1.453],[-51.68,-1.086],[-51.678,-0.855],[-51.546,-0.65],[-51.254,-0.541],[-51.161,-0.667],[-51.276,-1.022],[-51.638,-1.342],[-51.938,-1.453]]],[[[-48.555,-27.812],[-48.542,-27.575],[-48.415,-27.4],[-48.41,-27.566],[-48.555,-27.812]]]]}},{"type":"Feature","properties":{"name":"Chile"},"geometry":{"type":"MultiPolygon","coordinates":[[[[-78.983,-33.668],[-78.888,-33.576],[-78.769,-33.627],[-78.775,-33.642],[-78.983,-33.668]]],[[[-70.377,-18.334],[-69.926,-18.206],[-69.803,-17.99],[-69.852,-17.704],[-69.511,-17.506],[-69.313,-17.943],[-69.094,-18.05],[-69.145,-18.144],[-68.968,-18.968],[-68.463,-19.433],[-68.698,-19.721],[-68.561,-19.967],[-68.756,-20.091],[-68.689,-20.31],[-68.761,-20.416],[-68.484,-20.628],[-68.563,-20.72],[-68.558,-20.902],[-68.435,-20.948],[-68.197,-21.3],[-68.186,-21.619],[-67.882,-22.493],[-67.879,-22.823],[-67.58,-22.892],[-67.195,-22.822],[-67.009,-23.001],[-67.356,-24.034],[-68.25,-24.392],[-68.562,-24.747],[-68.384,-25.092],[-68.496,-25.163],[-68.592,-25.42],[-68.415,-26.154],[-68.592,-26.47],[-68.319,-26.973],[-68.592,-27.14],[-68.846,-27.154],[-69.174,-27.925],[-69.657,-28.414],[-69.828,-29.103],[-70.027,-29.324],[-69.928,-29.769],[-69.96,-30.078],[-69.844,-30.175],[-69.956,-30.358],[-70.153,-30.361],[-70.348,-30.902],[-70.309,-31.023],[-70.52,-31.148],[-70.585,-31.569],[-70.45,-31.842],[-70.254,-31.958],[-70.364,-32.083],[-70.17,-32.472],[-70.116,-32.807],[-70.022,-32.885],[-70.085,-33.202],[-69.82,-33.284],[-69.894,-33.731],[-69.852,-34.224],[-70.052,-34.301],[-70.29,-34.733],[-70.393,-35.147],[-70.555,-35.247],[-70.416,-35.523],[-70.405,-36.062],[-70.722,-36.283],[-70.749,-36.393],[-71.056,-36.524],[-71.192,-36.844],[-71.118,-37.114],[-71.2,-37.3],[-71.135,-37.445],[-71.168,-37.762],[-71.028,-38.041],[-70.968,-38.446],[-70.848,-38.542],[-70.952,-38.738],[-71.402,-38.935],[-71.42,-39.287],[-71.539,-39.602],[-71.72,-39.635],[-71.66,-40.021],[-71.818,-40.177],[-71.695,-40.335],[-71.941,-40.789],[-71.873,-40.893],[-71.911,-41.65],[-71.75,-42.047],[-72.108,-42.252],[-72.053,-42.473],[-72.144,-42.577],[-72.102,-43.066],[-71.751,-43.237],[-71.905,-43.348],[-71.751,-43.59],[-71.795,-43.753],[-71.68,-43.93],[-71.812,-44.106],[-71.82,-44.383],[-71.213,-44.441],[-71.16,-44.56],[-71.261,-44.763],[-72.064,-44.772],[-72.042,-44.904],[-71.596,-44.979],[-71.354,-45.23],[-71.349,-45.332],[-71.508,-45.513],[-71.746,-45.579],[-71.751,-45.839],[-71.632,-45.954],[-71.876,-46.161],[-71.762,-46.32],[-71.7,-46.651],[-71.94,-46.831],[-71.905,-47.202],[-72.346,-47.493],[-72.518,-47.876],[-72.293,-48.229],[-72.355,-48.366],[-72.608,-48.519],[-72.614,-48.793],[-73.034,-49.014],[-73.149,-49.188],[-73.135,-49.301],[-73.462,-49.314],[-73.576,-49.583],[-73.47,-49.795],[-73.501,-50.125],[-73.153,-50.738],[-72.51,-50.608],[-72.34,-50.682],[-72.276,-50.91],[-72.377,-51.095],[-72.303,-51.299],[-72.408,-51.541],[-71.953,-51.88],[-71.971,-51.964],[-69.96,-52.008],[-68.461,-52.29],[-68.443,-52.357],[-69.241,-52.205],[-69.447,-52.269],[-69.62,-52.465],[-70.795,-52.769],[-70.984,-53.374],[-70.996,-53.779],[-71.298,-53.883],[-72.174,-53.632],[-72.377,-53.471],[-72.413,-53.35],[-72.306,-53.254],[-71.942,-53.234],[-71.828,-53.398],[-71.892,-53.524],[-71.791,-53.485],[-71.741,-53.233],[-71.289,-53.034],[-71.163,-52.888],[-71.227,-52.811],[-71.388,-52.764],[-72.278,-53.132],[-72.493,-53.291],[-72.549,-53.461],[-73.053,-53.243],[-72.916,-53.122],[-72.889,-52.872],[-72.728,-52.762],[-72.453,-52.814],[-72.118,-52.65],[-71.797,-52.683],[-71.511,-52.605],[-72.226,-52.521],[-72.438,-52.626],[-72.712,-52.536],[-73.122,-53.074],[-73.338,-53.055],[-73.645,-52.837],[-73.241,-52.707],[-73.073,-52.535],[-73.124,-52.488],[-73.244,-52.624],[-73.382,-52.595],[-73.586,-52.686],[-74.014,-52.639],[-74.037,-52.403],[-74.151,-52.383],[-74.296,-52.118],[-73.834,-52.234],[-73.703,-52.199],[-73.684,-52.078],[-73.26,-52.158],[-72.795,-51.95],[-72.695,-51.985],[-72.571,-52.2],[-72.714,-52.357],[-72.631,-52.372],[-72.523,-52.255],[-72.625,-52.007],[-72.494,-51.848],[-72.543,-51.706],[-73.169,-51.454],[-72.649,-51.695],[-72.6,-51.799],[-73.383,-52.07],[-73.518,-52.041],[-73.753,-51.796],[-74.197,-51.681],[-74.07,-51.579],[-73.93,-51.618],[-73.94,-51.266],[-74.815,-51.063],[-75.095,-50.681],[-74.686,-50.662],[-74.649,-50.618],[-74.776,-50.47],[-74.644,-50.361],[-74.366,-50.488],[-74.139,-50.818],[-73.807,-50.938],[-73.741,-50.697],[-73.618,-50.651],[-73.693,-50.57],[-73.654,-50.493],[-73.978,-50.827],[-74.197,-50.61],[-74.186,-50.485],[-73.95,-50.511],[-74.425,-50.35],[-74.63,-50.194],[-74.334,-49.975],[-73.959,-49.995],[-74.324,-49.783],[-74.291,-49.604],[-74.102,-49.555],[-73.836,-49.609],[-74.094,-49.43],[-73.935,-49.021],[-74.028,-49.026],[-74.221,-49.501],[-74.367,-49.4],[-74.341,-48.596],[-74.009,-48.475],[-74.474,-48.464],[-74.577,-48.274],[-74.585,-47.999],[-73.854,-48.042],[-73.528,-48.198],[-73.391,-48.146],[-73.61,-47.994],[-73.716,-47.655],[-73.941,-47.929],[-74.227,-47.969],[-74.655,-47.702],[-74.534,-47.568],[-74.243,-47.679],[-74.134,-47.591],[-74.483,-47.43],[-74.158,-47.183],[-74.208,-47.083],[-74.152,-46.974],[-74.314,-46.788],[-74.454,-46.767],[-74.512,-46.885],[-75.006,-46.741],[-75.053,-46.628],[-74.984,-46.512],[-75.54,-46.699],[-75.386,-46.863],[-75.43,-46.935],[-75.635,-46.863],[-75.706,-46.705],[-74.924,-46.16],[-75.075,-46.004],[-75.067,-45.875],[-74.158,-45.767],[-74.082,-45.678],[-74.123,-45.496],[-73.957,-45.404],[-73.825,-45.447],[-74.061,-45.947],[-74.02,-46.056],[-74.393,-46.217],[-73.968,-46.154],[-73.879,-45.847],[-73.735,-45.812],[-73.708,-46.07],[-73.811,-46.377],[-73.949,-46.533],[-73.845,-46.566],[-73.662,-46.297],[-73.592,-45.899],[-73.594,-45.777],[-73.757,-45.703],[-73.731,-45.48],[-73.55,-45.484],[-73.266,-45.346],[-72.934,-45.452],[-73.226,-45.255],[-73.445,-45.238],[-73.405,-45.102],[-73.362,-44.978],[-72.739,-44.734],[-72.68,-44.594],[-72.664,-44.436],[-73.265,-44.169],[-73.224,-43.898],[-73.069,-43.862],[-72.997,-43.632],[-73.101,-43.455],[-73.076,-43.324],[-72.878,-43.048],[-72.758,-43.039],[-72.848,-42.669],[-72.774,-42.505],[-72.632,-42.51],[-72.773,-42.258],[-72.631,-42.2],[-72.412,-42.388],[-72.499,-41.981],[-72.738,-41.995],[-72.824,-41.909],[-72.66,-41.742],[-72.36,-41.649],[-72.318,-41.499],[-72.542,-41.691],[-72.953,-41.515],[-73.242,-41.781],[-73.735,-41.742],[-73.624,-41.581],[-73.855,-41.446],[-73.984,-40.974],[-73.671,-39.963],[-73.41,-39.789],[-73.226,-39.224],[-73.52,-38.509],[-73.465,-38.04],[-73.662,-37.699],[-73.603,-37.479],[-73.662,-37.341],[-73.602,-37.188],[-73.216,-37.167],[-73.118,-36.688],[-73.007,-36.643],[-72.778,-35.979],[-72.587,-35.76],[-72.624,-35.586],[-72.224,-35.096],[-72.056,-34.616],[-72.003,-34.165],[-71.664,-33.653],[-71.743,-33.095],[-71.592,-32.97],[-71.452,-32.66],[-71.421,-32.387],[-71.513,-32.208],[-71.709,-30.628],[-71.669,-30.33],[-71.4,-30.143],[-71.316,-29.65],[-71.519,-28.926],[-71.186,-28.378],[-71.087,-27.814],[-70.926,-27.589],[-70.898,-27.188],[-70.647,-26.329],[-70.635,-25.993],[-70.714,-25.784],[-70.452,-25.252],[-70.574,-24.644],[-70.507,-23.886],[-70.392,-23.566],[-70.588,-23.368],[-70.593,-23.255],[-70.563,-23.057],[-70.45,-23.034],[-70.332,-22.849],[-70.088,-21.493],[-70.197,-20.725],[-70.148,-19.805],[-70.377,-18.334]]],[[[-68.659,-52.632],[-68.653,-54.854],[-69.082,-54.91],[-69.486,-54.859],[-69.723,-54.712],[-70.031,-54.816],[-70.282,-54.752],[-70.497,-54.81],[-71.902,-54.602],[-71.928,-54.529],[-71.8,-54.434],[-71.606,-54.497],[-71.355,-54.395],[-71.08,-54.444],[-70.797,-54.327],[-70.699,-54.349],[-70.701,-54.485],[-70.311,-54.529],[-70.863,-54.11],[-70.868,-53.884],[-70.644,-53.823],[-70.696,-53.727],[-70.531,-53.627],[-70.38,-53.987],[-70.63,-54.006],[-70.535,-54.136],[-70.169,-54.379],[-69.742,-54.306],[-69.419,-54.407],[-69.253,-54.557],[-69.044,-54.407],[-69.988,-54.109],[-70.151,-53.888],[-70.091,-53.722],[-69.39,-53.499],[-69.356,-53.416],[-69.637,-53.334],[-70.09,-53.418],[-70.329,-53.378],[-70.46,-53.206],[-70.443,-53.086],[-70.131,-52.943],[-70.38,-52.752],[-70.19,-52.724],[-69.935,-52.821],[-69.414,-52.486],[-69.167,-52.668],[-68.79,-52.577],[-68.659,-52.632]]],[[[-67.109,-55.192],[-67.34,-55.293],[-67.495,-55.177],[-67.768,-55.26],[-68.07,-55.221],[-68.301,-54.981],[-68.107,-54.929],[-67.245,-54.978],[-67.107,-55.064],[-67.109,-55.192]]],[[[-73.849,-43.367],[-74.114,-43.358],[-74.387,-43.232],[-74.209,-42.879],[-74.17,-42.269],[-74.072,-42.106],[-74.037,-41.796],[-73.528,-41.896],[-73.423,-42.193],[-73.533,-42.314],[-73.471,-42.466],[-73.789,-42.586],[-73.436,-42.937],[-73.541,-43.074],[-73.75,-43.159],[-73.738,-43.291],[-73.849,-43.367]]],[[[-74.467,-49.295],[-74.522,-49.623],[-74.472,-49.786],[-74.595,-50.007],[-74.763,-50.011],[-74.88,-49.726],[-74.724,-49.424],[-74.96,-49.533],[-75.066,-49.852],[-75.55,-49.791],[-75.521,-49.622],[-75.337,-49.628],[-75.306,-49.494],[-75.467,-49.359],[-75.327,-49.269],[-75.086,-49.27],[-75.094,-49.185],[-75.21,-49.148],[-74.949,-48.96],[-74.981,-48.819],[-74.896,-48.733],[-74.546,-48.767],[-74.467,-49.295]]],[[[-75.623,-48.765],[-75.651,-48.586],[-75.509,-48.231],[-75.571,-48.096],[-75.391,-48.02],[-75.156,-48.425],[-75.158,-48.623],[-75.623,-48.765]]],[[[-74.369,-52.931],[-73.654,-53.07],[-73.135,-53.354],[-73.567,-53.307],[-73.867,-53.097],[-74.27,-53.082],[-74.712,-52.749],[-74.369,-52.931]]],[[[-74.586,-48.616],[-74.923,-48.626],[-75.013,-48.536],[-75.213,-48.142],[-75.198,-47.975],[-74.827,-47.85],[-74.846,-48.021],[-74.602,-48.37],[-74.586,-48.616]]],[[[-72.896,-53.563],[-72.482,-53.588],[-72.205,-53.807],[-72.409,-54.004],[-72.871,-54.127],[-72.959,-54.066],[-72.764,-53.865],[-73.039,-53.833],[-73.081,-53.998],[-73.211,-53.986],[-73.305,-53.944],[-73.314,-53.729],[-73.471,-53.736],[-73.642,-53.57],[-73.845,-53.546],[-73.687,-53.427],[-73.447,-53.41],[-73.099,-53.512],[-73.054,-53.394],[-72.896,-53.563]]],[[[-74.78,-51.825],[-74.537,-51.965],[-74.694,-52.279],[-74.852,-52.271],[-75.105,-51.789],[-74.823,-51.63],[-74.78,-51.825]]],[[[-68.901,-55.018],[-68.458,-54.96],[-68.4,-55.042],[-68.613,-55.156],[-68.283,-55.255],[-68.327,-55.333],[-68.09,-55.478],[-68.048,-55.643],[-68.338,-55.505],[-68.867,-55.45],[-68.931,-55.371],[-68.89,-55.241],[-69.297,-55.166],[-69.359,-55.301],[-69.181,-55.475],[-69.241,-55.477],[-69.988,-55.131],[-69.884,-54.882],[-68.901,-55.018]]],[[[-71.996,-53.885],[-71.022,-54.112],[-71.005,-54.247],[-71.143,-54.374],[-71.473,-54.231],[-71.949,-54.301],[-71.972,-54.207],[-72.21,-54.048],[-71.996,-53.885]]],[[[-73.785,-44.438],[-73.983,-44.495],[-74.002,-44.591],[-73.828,-44.84],[-73.727,-45.119],[-73.752,-45.267],[-73.849,-45.341],[-74.099,-45.325],[-74.089,-45.196],[-74.618,-44.648],[-74.481,-44.585],[-74.502,-44.474],[-74.097,-44.389],[-74.083,-44.186],[-73.995,-44.14],[-73.703,-44.274],[-73.785,-44.438]]],[[[-73.228,-44.86],[-73.35,-44.833],[-73.445,-44.641],[-73.282,-44.49],[-73.26,-44.35],[-72.776,-44.509],[-72.897,-44.712],[-73.228,-44.86]]],[[[-75.067,-44.907],[-75.124,-44.87],[-75.107,-44.795],[-75.048,-44.824],[-75.067,-44.907]]],[[[-75.33,-50.772],[-75.477,-50.654],[-75.428,-50.481],[-75.115,-50.51],[-75.292,-50.597],[-75.33,-50.772]]],[[[-75.115,-48.916],[-75.506,-49.231],[-75.641,-49.195],[-75.488,-49.082],[-75.638,-48.943],[-75.583,-48.859],[-75.119,-48.773],[-75.115,-48.916]]],[[[-75.186,-47.851],[-75.261,-47.764],[-75.203,-47.728],[-74.926,-47.723],[-75.186,-47.851]]],[[[-74.665,-43.6],[-74.842,-43.57],[-74.745,-43.536],[-74.665,-43.6]]],[[[-73.665,-44.833],[-73.818,-44.652],[-73.779,-44.559],[-73.641,-44.611],[-73.665,-44.833]]],[[[-74.561,-51.361],[-74.853,-51.434],[-75.047,-51.398],[-75.289,-51.625],[-75.154,-51.279],[-75.04,-51.318],[-74.612,-51.207],[-74.561,-51.361]]],[[[-75.25,-50.376],[-75.449,-50.343],[-75.327,-50.012],[-74.876,-50.11],[-74.839,-50.197],[-75.25,-50.376]]],[[[-73.79,-43.876],[-73.956,-43.922],[-74.14,-43.821],[-73.857,-43.784],[-73.79,-43.876]]],[[[-74.172,-51.942],[-74.424,-51.845],[-74.475,-51.726],[-74.133,-51.871],[-74.172,-51.942]]],[[[-74.368,-45.736],[-74.678,-45.739],[-74.69,-45.663],[-74.495,-45.426],[-74.502,-45.285],[-74.311,-45.173],[-74.315,-45.464],[-74.229,-45.611],[-74.368,-45.736]]],[[[-67.51,-55.844],[-67.832,-55.865],[-67.85,-55.843],[-67.51,-55.844]]],[[[-66.552,-55.273],[-66.625,-55.213],[-66.436,-55.19],[-66.472,-55.229],[-66.552,-55.273]]],[[[-70.945,-54.931],[-70.418,-54.909],[-70.283,-55.066],[-70.476,-55.177],[-70.597,-55.082],[-70.94,-55.062],[-71.203,-54.893],[-71.437,-54.889],[-71.197,-54.844],[-70.945,-54.931]]],[[[-67.262,-55.744],[-67.56,-55.725],[-67.563,-55.708],[-67.374,-55.589],[-67.262,-55.744]]]]}},{"type":"Feature","properties":{"name":"Colombia"},"geometry":{"type":"MultiPolygon","coordinates":[[[[-71.356,11.85],[-71.958,11.666],[-72.248,11.196],[-72.446,11.114],[-72.69,10.836],[-72.869,10.491],[-73.007,9.789],[-73.366,9.194],[-73.058,9.26],[-72.96,9.135],[-72.796,9.109],[-72.665,8.628],[-72.39,8.287],[-72.358,8.087],[-72.446,7.966],[-72.472,7.524],[-72.395,7.415],[-72.208,7.37],[-72.007,7.033],[-71.129,6.987],[-70.737,7.09],[-70.129,6.954],[-69.427,6.124],[-68.937,6.198],[-68.472,6.157],[-67.859,6.29],[-67.482,6.18],[-67.474,5.93],[-67.825,5.27],[-67.855,4.507],[-67.662,3.864],[-67.311,3.416],[-67.859,2.794],[-67.619,2.794],[-67.211,2.39],[-66.884,1.358],[-66.876,1.223],[-67.082,1.185],[-67.119,1.704],[-67.4,2.117],[-67.556,2.073],[-67.936,1.748],[-68.194,1.987],[-68.256,1.846],[-68.177,1.72],[-69.543,1.773],[-69.849,1.709],[-69.852,1.06],[-69.312,1.05],[-69.163,0.864],[-69.153,0.659],[-69.283,0.627],[-69.472,0.73],[-70.054,0.579],[-70.071,-0.139],[-69.634,-0.509],[-69.612,-0.763],[-69.4,-1.195],[-69.966,-4.236],[-70.34,-3.814],[-70.53,-3.866],[-70.735,-3.782],[-70.074,-2.75],[-70.096,-2.658],[-70.969,-2.207],[-71.397,-2.334],[-71.753,-2.153],[-72.218,-2.4],[-72.941,-2.394],[-73.154,-2.278],[-73.197,-1.83],[-73.496,-1.693],[-73.521,-1.45],[-73.664,-1.249],[-74.246,-0.971],[-74.418,-0.581],[-74.802,-0.2],[-75.777,0.089],[-76.271,0.439],[-76.388,0.405],[-76.495,0.235],[-77.396,0.394],[-77.468,0.637],[-77.649,0.724],[-77.703,0.838],[-77.83,0.825],[-78.312,1.046],[-79.025,1.624],[-78.793,1.849],[-78.577,1.774],[-78.592,2.357],[-78.417,2.483],[-78.067,2.509],[-77.814,2.716],[-77.67,2.879],[-77.694,3.04],[-77.559,3.076],[-77.357,3.349],[-77.077,3.913],[-77.264,3.893],[-77.278,4.058],[-77.358,3.945],[-77.409,4.248],[-77.521,4.213],[-77.354,4.398],[-77.286,4.722],[-77.373,5.324],[-77.534,5.537],[-77.249,5.78],[-77.469,6.177],[-77.369,6.576],[-77.901,7.229],[-77.744,7.537],[-77.762,7.699],[-77.538,7.566],[-77.351,7.706],[-77.346,7.837],[-77.196,7.972],[-77.479,8.498],[-77.393,8.645],[-76.852,8.09],[-76.897,7.939],[-76.787,7.932],[-76.772,8.311],[-76.92,8.574],[-76.277,8.989],[-76.027,9.366],[-75.639,9.45],[-75.68,9.73],[-75.539,10.205],[-75.708,10.143],[-75.446,10.611],[-74.845,11.11],[-74.33,10.997],[-74.516,10.863],[-74.401,10.765],[-74.143,11.321],[-73.313,11.296],[-72.722,11.712],[-72.275,11.889],[-72.136,12.189],[-71.715,12.42],[-71.494,12.432],[-71.262,12.335],[-71.137,12.046],[-71.356,11.85]]],[[[-78.141,2.52],[-78.21,2.609],[-78.178,2.646],[-78.119,2.604],[-78.141,2.52]]]]}},{"type":"Feature","properties":{"name":"Ecuador"},"geometry":{"type":"MultiPolygon","coordinates":[[[[-75.284,-0.107],[-75.632,-0.158],[-75.259,-0.59],[-75.25,-0.952],[-75.408,-0.924],[-75.571,-1.531],[-76.09,-2.133],[-76.679,-2.563],[-77.861,-2.982],[-78.183,-3.35],[-78.158,-3.465],[-78.345,-3.397],[-78.42,-3.777],[-78.679,-4.326],[-78.686,-4.562],[-78.908,-4.714],[-78.919,-4.858],[-79.033,-4.969],[-79.331,-4.928],[-79.516,-4.539],[-79.639,-4.455],[-79.797,-4.476],[-80.14,-4.296],[-80.383,-4.464],[-80.479,-4.43],[-80.353,-4.208],[-80.488,-4.166],[-80.49,-4.01],[-80.303,-4.005],[-80.179,-3.878],[-80.325,-3.388],[-79.963,-3.158],[-79.73,-2.579],[-79.842,-2.067],[-79.926,-2.549],[-80.03,-2.557],[-80.007,-2.354],[-80.285,-2.707],[-80.932,-2.269],[-80.963,-2.189],[-80.77,-2.077],[-80.761,-1.935],[-80.902,-1.079],[-80.841,-0.975],[-80.554,-0.848],[-80.455,-0.585],[-80.282,-0.621],[-80.385,-0.584],[-80.482,-0.368],[-80.046,0.155],[-80.088,0.785],[-80.036,0.835],[-78.9,1.206],[-78.827,1.296],[-78.86,1.455],[-78.181,0.969],[-77.703,0.838],[-77.649,0.724],[-77.468,0.637],[-77.396,0.394],[-76.495,0.235],[-76.388,0.405],[-76.271,0.439],[-75.777,0.089],[-75.284,-0.107]]],[[[-80.151,-3.012],[-80.273,-2.996],[-80.224,-2.753],[-80.081,-2.669],[-79.909,-2.726],[-80.093,-2.846],[-80.151,-3.012]]],[[[-78.909,1.253],[-78.992,1.293],[-78.9,1.36],[-78.909,1.253]]]]}},{"type":"Feature","properties":{"name":"French Guiana"},"geometry":{"type":"Polygon","coordinates":[[[-54.605,2.336],[-54.402,2.462],[-54.196,2.818],[-54.203,3.138],[-53.99,3.59],[-54.351,4.054],[-54.473,4.915],[-54.332,5.187],[-54.085,5.412],[-53.92,5.769],[-52.899,5.425],[-52.291,4.942],[-52.325,4.771],[-52.22,4.863],[-52.058,4.717],[-51.962,4.514],[-52.003,4.352],[-51.828,4.636],[-51.653,4.061],[-52.328,3.182],[-52.701,2.364],[-53.01,2.182],[-53.23,2.205],[-53.334,2.34],[-53.509,2.253],[-53.768,2.355],[-54.13,2.121],[-54.605,2.336]]]}},{"type":"Feature","properties":{"name":"Guyana"},"geometry":{"type":"Polygon","coordinates":[[[-60.742,5.202],[-61.391,5.939],[-61.129,6.214],[-61.204,6.588],[-61.146,6.695],[-60.718,6.768],[-60.352,7.003],[-60.345,7.15],[-60.633,7.211],[-60.607,7.321],[-60.719,7.536],[-60.514,7.813],[-60.032,8.054],[-59.849,8.249],[-60.018,8.549],[-59.837,8.374],[-59.666,8.363],[-59.2,8.075],[-58.511,7.398],[-58.481,7.038],[-58.673,6.391],[-58.415,6.851],[-58.298,6.879],[-57.983,6.786],[-57.54,6.332],[-57.228,6.178],[-57.195,5.548],[-57.319,5.335],[-57.21,5.195],[-57.331,5.02],[-57.711,4.991],[-57.881,4.881],[-57.846,4.668],[-58.054,4.102],[-57.833,3.676],[-57.649,3.517],[-57.647,3.395],[-57.304,3.377],[-57.197,2.853],[-56.704,2.036],[-56.483,1.942],[-56.837,1.881],[-57.119,2.014],[-57.317,1.963],[-57.546,1.726],[-57.983,1.648],[-58.035,1.52],[-58.341,1.588],[-58.506,1.439],[-58.512,1.285],[-58.822,1.201],[-59.231,1.376],[-59.667,1.746],[-59.756,1.901],[-59.755,2.274],[-59.89,2.363],[-59.994,2.69],[-59.972,2.99],[-59.831,3.349],[-59.854,3.587],[-59.679,3.7],[-59.551,3.934],[-59.739,4.227],[-59.703,4.381],[-60.149,4.533],[-60.032,4.741],[-59.991,5.083],[-60.242,5.258],[-60.742,5.202]]]}},{"type":"Feature","properties":{"name":"Paraguay"},"geometry":{"type":"Polygon","coordinates":[[[-58.138,-20.237],[-57.83,-20.998],[-57.946,-21.494],[-57.956,-22.109],[-56.937,-22.271],[-56.633,-22.235],[-56.448,-22.076],[-56.246,-22.265],[-55.849,-22.308],[-55.618,-22.671],[-55.651,-22.886],[-55.416,-23.951],[-55.194,-24.017],[-54.625,-23.812],[-54.242,-24.047],[-54.318,-24.128],[-54.281,-24.306],[-54.436,-25.121],[-54.611,-25.433],[-54.632,-26.006],[-54.755,-26.533],[-55.136,-26.931],[-55.427,-27.009],[-55.715,-27.415],[-56.164,-27.321],[-56.437,-27.554],[-56.603,-27.468],[-57.112,-27.47],[-58.168,-27.273],[-58.605,-27.314],[-58.619,-27.132],[-58.191,-26.63],[-58.203,-26.381],[-58.111,-26.18],[-57.891,-26.007],[-57.755,-25.697],[-57.572,-25.534],[-57.644,-25.328],[-57.96,-25.049],[-58.365,-24.959],[-59.187,-24.562],[-59.892,-24.094],[-61.033,-23.756],[-61.208,-23.557],[-61.799,-23.182],[-62.214,-22.612],[-62.651,-22.234],[-62.277,-21.066],[-62.276,-20.562],[-61.917,-20.055],[-61.757,-19.645],[-60.007,-19.298],[-59.091,-19.286],[-58.18,-19.818],[-58.138,-20.237]]]}},{"type":"Feature","properties":{"name":"Peru"},"geometry":{"type":"Polygon","coordinates":[[[-69.972,-4.301],[-70.239,-4.301],[-70.405,-4.15],[-70.8,-4.173],[-70.974,-4.35],[-71.845,-4.504],[-72.887,-5.123],[-72.98,-5.635],[-73.236,-6.098],[-73.137,-6.466],[-73.758,-6.906],[-73.805,-7.08],[-73.72,-7.309],[-73.964,-7.379],[-74.002,-7.556],[-73.72,-7.783],[-73.776,-7.936],[-73.549,-8.346],[-73.36,-8.479],[-73.302,-8.654],[-72.974,-8.993],[-72.97,-9.12],[-73.209,-9.411],[-72.379,-9.51],[-72.173,-9.844],[-72.182,-10.004],[-71.238,-9.966],[-70.541,-9.438],[-70.637,-9.824],[-70.642,-11.01],[-70.533,-10.947],[-70.29,-11.064],[-69.96,-10.93],[-69.579,-10.952],[-68.685,-12.502],[-68.759,-12.687],[-68.979,-12.88],[-68.983,-13.496],[-69.074,-13.683],[-68.871,-14.17],[-69.359,-14.795],[-69.375,-14.963],[-69.172,-15.237],[-69.421,-15.641],[-69.218,-16.149],[-68.843,-16.338],[-69.033,-16.476],[-69.021,-16.642],[-69.625,-17.2],[-69.511,-17.506],[-69.852,-17.704],[-69.803,-17.99],[-69.926,-18.206],[-70.418,-18.346],[-71.337,-17.683],[-71.399,-17.422],[-71.532,-17.294],[-72.111,-17.003],[-72.468,-16.708],[-73.728,-16.202],[-75.104,-15.412],[-75.534,-14.899],[-75.934,-14.634],[-76.289,-14.133],[-76.376,-13.863],[-76.259,-13.803],[-76.184,-13.515],[-76.224,-13.371],[-76.832,-12.349],[-77.153,-12.06],[-77.22,-11.663],[-77.633,-11.288],[-77.736,-10.837],[-78.186,-10.089],[-78.762,-8.617],[-79.012,-8.21],[-79.377,-7.836],[-79.618,-7.296],[-79.995,-6.769],[-81.142,-6.057],[-81.164,-5.875],[-81.092,-5.812],[-80.931,-5.841],[-80.882,-5.635],[-81.168,-5.167],[-81.108,-5.028],[-81.337,-4.67],[-81.232,-4.234],[-80.799,-3.731],[-80.325,-3.388],[-80.179,-3.878],[-80.303,-4.005],[-80.49,-4.01],[-80.488,-4.166],[-80.353,-4.208],[-80.479,-4.43],[-80.383,-4.464],[-80.14,-4.296],[-79.797,-4.476],[-79.639,-4.455],[-79.516,-4.539],[-79.331,-4.928],[-79.033,-4.969],[-78.919,-4.858],[-78.908,-4.714],[-78.686,-4.562],[-78.679,-4.326],[-78.42,-3.777],[-78.345,-3.397],[-78.158,-3.465],[-78.183,-3.35],[-77.861,-2.982],[-76.679,-2.563],[-76.09,-2.133],[-75.571,-1.531],[-75.408,-0.924],[-75.25,-0.952],[-75.259,-0.59],[-75.626,-0.123],[-75.34,-0.142],[-75.225,-0.042],[-74.802,-0.2],[-74.616,-0.37],[-74.418,-0.581],[-74.246,-0.971],[-73.664,-1.249],[-73.521,-1.45],[-73.496,-1.693],[-73.197,-1.83],[-73.154,-2.278],[-72.941,-2.394],[-72.218,-2.4],[-71.753,-2.153],[-71.397,-2.334],[-70.969,-2.207],[-70.096,-2.658],[-70.074,-2.75],[-70.735,-3.782],[-70.53,-3.866],[-70.34,-3.814],[-69.972,-4.301]]]}},{"type":"Feature","properties":{"name":"Suriname"},"geometry":{"type":"Polygon","coordinates":[[[-54.046,5.609],[-54.452,5.013],[-54.45,4.485],[-54.351,4.054],[-53.99,3.59],[-54.203,3.138],[-54.196,2.818],[-54.402,2.462],[-54.662,2.328],[-54.979,2.598],[-55.385,2.441],[-55.731,2.406],[-55.957,2.52],[-56.138,2.259],[-55.915,2.04],[-55.963,1.857],[-56.704,2.036],[-57.197,2.853],[-57.304,3.377],[-57.647,3.395],[-57.649,3.517],[-58.032,4.002],[-58.054,4.172],[-57.846,4.668],[-57.881,4.881],[-57.711,4.991],[-57.306,5.05],[-57.207,5.214],[-57.319,5.335],[-57.057,5.939],[-56.97,5.993],[-56.236,5.885],[-55.94,5.795],[-55.898,5.699],[-55.91,5.893],[-55.648,5.986],[-54.834,5.988],[-54.142,5.856],[-54.054,5.808],[-54.046,5.609]]]}},{"type":"Feature","properties":{"name":"Uruguay"},"geometry":{"type":"Polygon","coordinates":[[[-53.371,-33.742],[-53.785,-34.38],[-54.169,-34.671],[-54.902,-34.933],[-55.673,-34.776],[-56.25,-34.901],[-56.855,-34.677],[-57.171,-34.452],[-57.873,-34.448],[-58.4,-33.912],[-58.438,-33.719],[-58.364,-33.182],[-58.093,-32.967],[-58.201,-32.472],[-58.12,-32.249],[-58.189,-31.924],[-57.989,-31.621],[-58.054,-31.495],[-57.811,-30.859],[-57.873,-30.591],[-57.646,-30.227],[-57.214,-30.283],[-57.121,-30.144],[-56.833,-30.107],[-56.045,-30.778],[-56.005,-31.079],[-55.808,-31.037],[-55.603,-30.851],[-55.174,-31.28],[-54.588,-31.485],[-54.221,-31.855],[-53.762,-32.057],[-53.602,-32.403],[-53.126,-32.737],[-53.531,-33.171],[-53.538,-33.623],[-53.371,-33.742]]]}},{"type":"Feature","properties":{"name":"Venezuela"},"geometry":{"type":"MultiPolygon","coordinates":[[[[-60.941,9.106],[-60.907,9.179],[-60.736,9.203],[-60.821,9.138],[-60.941,9.106]]],[[[-63.817,11.0],[-63.994,10.881],[-64.402,10.982],[-64.214,11.086],[-64.028,11.002],[-63.893,11.167],[-63.817,11.0]]],[[[-65.213,10.906],[-65.365,10.906],[-65.415,10.938],[-65.302,10.974],[-65.213,10.906]]],[[[-61.06,8.847],[-61.069,8.947],[-60.916,9.07],[-60.861,8.95],[-61.06,8.847]]],[[[-59.832,8.306],[-60.032,8.054],[-60.514,7.813],[-60.719,7.536],[-60.583,7.156],[-60.325,7.134],[-60.395,6.945],[-60.718,6.768],[-61.146,6.695],[-61.204,6.588],[-61.129,6.214],[-61.391,5.939],[-60.672,5.164],[-60.604,4.995],[-60.679,4.827],[-61.003,4.535],[-61.28,4.517],[-61.554,4.288],[-61.821,4.197],[-62.153,4.098],[-62.411,4.157],[-62.712,4.018],[-62.765,3.673],[-62.857,3.593],[-62.969,3.594],[-63.339,3.944],[-64.021,3.929],[-64.192,4.127],[-64.576,4.14],[-64.789,4.276],[-64.669,4.012],[-64.221,3.587],[-64.219,3.205],[-64.009,2.672],[-64.047,2.502],[-63.389,2.412],[-63.394,2.223],[-64.008,1.932],[-64.205,1.529],[-65.027,1.158],[-65.473,0.691],[-65.556,0.688],[-65.523,0.843],[-65.645,0.97],[-66.302,0.752],[-66.876,1.223],[-67.211,2.39],[-67.619,2.794],[-67.859,2.794],[-67.311,3.416],[-67.662,3.864],[-67.855,4.507],[-67.825,5.27],[-67.474,5.93],[-67.482,6.18],[-67.859,6.29],[-68.472,6.157],[-68.937,6.198],[-69.427,6.124],[-70.129,6.954],[-70.737,7.09],[-71.129,6.987],[-72.007,7.033],[-72.208,7.37],[-72.395,7.415],[-72.472,7.524],[-72.446,7.966],[-72.358,8.087],[-72.39,8.287],[-72.665,8.628],[-72.796,9.109],[-72.96,9.135],[-73.058,9.26],[-73.366,9.194],[-73.007,9.789],[-72.869,10.491],[-72.69,10.836],[-72.446,11.114],[-72.248,11.196],[-71.958,11.666],[-71.32,11.862],[-71.488,11.719],[-71.957,11.57],[-71.835,11.19],[-71.642,11.014],[-71.731,10.995],[-71.594,10.657],[-71.665,10.444],[-72.113,9.816],[-71.761,9.336],[-71.687,9.073],[-71.537,9.048],[-71.241,9.16],[-71.086,9.348],[-71.053,9.706],[-71.494,10.533],[-71.545,10.779],[-71.461,10.836],[-71.47,10.964],[-70.233,11.373],[-70.097,11.52],[-69.805,11.474],[-69.817,11.672],[-70.193,11.625],[-70.287,11.886],[-70.203,12.098],[-70.004,12.178],[-69.86,12.054],[-69.632,11.48],[-69.233,11.518],[-68.828,11.432],[-68.399,11.161],[-68.272,10.88],[-68.296,10.689],[-68.14,10.493],[-66.247,10.632],[-66.106,10.575],[-66.09,10.473],[-65.852,10.258],[-65.129,10.07],[-64.85,10.098],[-64.188,10.458],[-63.732,10.503],[-64.248,10.543],[-64.298,10.635],[-61.879,10.741],[-62.38,10.547],[-62.914,10.531],[-62.686,10.29],[-62.741,10.056],[-62.55,10.2],[-62.32,9.783],[-62.221,9.883],[-62.153,9.822],[-62.155,9.979],[-62.077,9.975],[-61.736,9.631],[-61.766,9.814],[-61.625,9.816],[-61.589,9.895],[-61.309,9.633],[-61.013,9.556],[-60.792,9.361],[-61.023,9.155],[-61.247,8.6],[-61.619,8.597],[-61.304,8.41],[-60.801,8.592],[-60.481,8.547],[-60.167,8.617],[-60.018,8.549],[-59.832,8.306]]]]}}]}