{"type":"FeatureCollection","name":"Contiguous United States","source":"Natural Earth (public domain), https://www.naturalearthdata.com","adjacency":[["Alabama","Florida"],["Alabama","Georgia"],["Alabama","Mississippi"],["Alabama","Tennessee"],["Arizona","California"],["Arizona","Nevada"],["Arizona","New Mexico"],["Arizona","Utah"],["Arkansas","Louisiana"],["Arkansas","Mississippi"],["Arkansas","Missouri"],["Arkansas","Oklahoma"],["Arkansas","Tennessee"],["Arkansas","Texas"],["California","Nevada"],["California","Oregon"],["Colorado","Kansas"],["Colorado","Nebraska"],["Colorado","New Mexico"],["Colorado","Oklahoma"],["Colorado","Utah"],["Colorado","Wyoming"],["Connecticut","Massachusetts"],["Connecticut","New York"],["Connecticut","Rhode Island"],["Delaware","Maryland"],["Delaware","Pennsylvania"],["Florida","Georgia"],["Georgia","North Carolina"],["Georgia","South Carolina"],["Georgia","Tennessee"],["Idaho","Montana"],["Idaho","Nevada"],["Idaho","Oregon"],["Idaho","Utah"],["Idaho","Washington"],["Idaho","Wyoming"],["Illinois","Indiana"],["Illinois","Iowa"],["Illinois","Kentucky"],["Illinois","Missouri"],["Illinois","Wisconsin"],["Indiana","Kentucky"],["Indiana","Michigan"],["Indiana","Ohio"],["Iowa","Minnesota"],["Iowa","Missouri"],["Iowa","Nebraska"],["Iowa","South Dakota"],["Iowa","Wisconsin"],["Kansas","Missouri"],["Kansas","Nebraska"],["Kansas","Oklahoma"],["Kentucky","Missouri"],["Kentucky","Ohio"],["Kentucky","Tennessee"],["Kentucky","Virginia"],["Kentucky","West Virginia"],["Louisiana","Mississippi"],["Louisiana","Texas"],["Maine","New Hampshire"],["Maryland","Pennsylvania"],["Maryland","Virginia"],["Maryland","West Virginia"],["Massachusetts","New Hampshire"],["Massachusetts","New York"],["Massachusetts","Rhode Island"],["Massachusetts","Vermont"],["Michigan","Ohio"],["Michigan","Wisconsin"],["Minnesota","North Dakota"],["Minnesota","South Dakota"],["Minnesota","Wisconsin"],["Mississippi","Tennessee"],["Missouri","Nebraska"],["Missouri","Oklahoma"],["Missouri","Tennessee"],["Montana","North Dakota"],["Montana","South Dakota"],["Montana","Wyoming"],["Nebraska","South Dakota"],["Nebraska","Wyoming"],["Nevada","Oregon"],["Nevada","Utah"],["New Hampshire","Vermont"],["New Jersey","New York"],["New Jersey","Pennsylvania"],["New Mexico","Oklahoma"],["New Mexico","Texas"],["New York","Pennsylvania"],["New York","Vermont"],["North Carolina","South Carolina"],["North Carolina","Tennessee"],["North Carolina","Virginia"],["North Dakota","South Dakota"],["Ohio","Pennsylvania"],["Ohio","West Virginia"],["Oklahoma","Texas"],["Oregon","Washington"],["Pennsylvania","West Virginia"],["South Dakota","Wyoming"],["Tennessee","Virginia"],["Utah","Wyoming"],["Virginia","West Virginia"]],"features":[{"type":"Feature","properties":{"name":"Alabama"},"geometry":{"type":"MultiPolygon","coordinates":[[[[-87.427,30.483],[-87.392,30.45],[-87.474,30.359],[-87.557,30.319],[-87.612,30.36],[-87.606,30.306],[-87.565,30.313],[-87.59,30.275],[-87.655,30.252],[-88.03,30.224],[-87.764,30.28],[-87.821,30.405],[-87.911,30.414],[-87.912,30.584],[-88.03,30.738],[-88.126,30.326],[-88.304,30.401],[-88.402,30.388],[-88.486,31.89],[-88.089,34.892],[-88.186,35.01],[-85.606,34.985],[-85.201,32.935],[-85.103,32.653],[-84.968,32.434],[-84.992,32.337],[-84.898,32.269],[-85.031,32.17],[-85.144,31.824],[-85.043,31.535],[-85.101,31.183],[-84.997,31.011],[-87.594,31.0],[-87.621,30.857],[-87.405,30.67],[-87.427,30.483]]],[[[-87.496,30.306],[-87.446,30.298],[-87.529,30.278],[-87.496,30.306]]],[[[-88.109,30.276],[-88.091,30.245],[-88.311,30.237],[-88.109,30.276]]]]}},{"type":"Feature","properties":{"name":"Arizona"},"geometry":{"type":"Polygon","coordinates":[[[-111.067,31.334],[-114.822,32.5],[-114.721,32.725],[-114.536,32.738],[-114.461,32.855],[-114.502,33.019],[-114.697,33.089],[-114.673,33.205],[-114.724,33.321],[-114.727,33.411],[-114.626,33.437],[-114.533,33.569],[-114.488,33.725],[-114.516,33.964],[-114.382,34.124],[-114.119,34.293],[-114.369,34.472],[-114.421,34.634],[-114.617,34.879],[-114.639,35.124],[-114.572,35.213],[-114.668,35.517],[-114.669,35.885],[-114.741,36.014],[-114.707,36.109],[-114.555,36.161],[-114.356,36.144],[-114.234,36.024],[-114.124,36.046],[-114.042,36.22],[-114.04,37.003],[-109.047,37.0],[-109.047,31.327],[-111.067,31.334]]]}},{"type":"Feature","properties":{"name":"Arkansas"},"geometry":{"type":"Polygon","coordinates":[[[-90.301,34.996],[-90.272,34.923],[-90.464,34.828],[-90.478,34.738],[-90.568,34.72],[-90.594,34.425],[-90.759,34.381],[-90.771,34.284],[-90.956,34.157],[-90.88,34.061],[-91.093,33.99],[-91.036,33.93],[-91.045,33.815],[-91.226,33.69],[-91.152,33.633],[-91.156,33.588],[-91.235,33.567],[-91.127,33.478],[-91.182,33.32],[-91.113,33.28],[-91.093,33.167],[-91.161,33.119],[-91.166,33.014],[-94.041,33.011],[-94.047,33.554],[-94.193,33.594],[-94.387,33.562],[-94.484,33.647],[-94.439,35.386],[-94.618,36.5],[-90.162,36.5],[-90.064,36.374],[-90.067,36.287],[-90.298,36.113],[-90.379,35.988],[-89.724,36.0],[-89.667,35.915],[-89.76,35.909],[-89.784,35.878],[-89.722,35.833],[-89.952,35.723],[-89.918,35.548],[-90.012,35.512],[-90.115,35.37],[-90.085,35.148],[-90.178,35.13],[-90.301,34.996]]]}},{"type":"Feature","properties":{"name":"California"},"geometry":{"type":"MultiPolygon","coordinates":[[[[-114.536,32.738],[-117.125,32.532],[-117.15,32.646],[-117.226,32.697],[-117.168,32.699],[-117.115,32.6],[-117.133,32.69],[-117.175,32.727],[-117.255,32.691],[-117.254,32.885],[-117.322,33.109],[-117.509,33.335],[-118.117,33.744],[-118.207,33.764],[-118.193,33.732],[-118.222,33.771],[-118.255,33.765],[-118.277,33.757],[-118.291,33.703],[-118.412,33.742],[-118.391,33.836],[-118.514,34.022],[-118.807,33.999],[-119.129,34.101],[-119.217,34.146],[-119.281,34.269],[-119.563,34.415],[-119.879,34.407],[-120.133,34.473],[-120.454,34.443],[-120.51,34.521],[-120.637,34.563],[-120.603,34.705],[-120.64,34.759],[-120.616,34.858],[-120.673,34.908],[-120.645,35.139],[-120.877,35.224],[-120.862,35.362],[-120.831,35.336],[-120.887,35.433],[-121.005,35.461],[-121.169,35.637],[-121.288,35.665],[-121.507,36.003],[-121.9,36.304],[-121.933,36.555],[-121.981,36.584],[-121.938,36.639],[-121.87,36.607],[-121.805,36.738],[-121.764,36.722],[-121.804,36.836],[-121.906,36.969],[-122.135,36.966],[-122.339,37.119],[-122.404,37.195],[-122.449,37.477],[-122.52,37.531],[-122.515,37.781],[-122.409,37.81],[-122.355,37.73],[-122.392,37.71],[-122.374,37.604],[-122.1,37.455],[-122.032,37.463],[-122.109,37.518],[-122.192,37.7],[-122.252,37.723],[-122.217,37.758],[-122.332,37.782],[-122.314,37.886],[-122.43,37.964],[-122.366,38.012],[-122.227,38.058],[-122.148,38.024],[-122.004,38.056],[-121.69,38.009],[-121.721,38.032],[-121.607,38.099],[-121.577,38.074],[-121.613,38.021],[-121.569,38.066],[-121.445,38.004],[-121.604,38.106],[-121.779,38.036],[-121.683,38.147],[-121.898,38.053],[-122.055,38.134],[-122.13,38.042],[-122.397,38.153],[-122.502,38.114],[-122.506,38.017],[-122.445,37.985],[-122.503,37.925],[-122.439,37.882],[-122.499,37.894],[-122.47,37.832],[-122.528,37.816],[-122.728,37.903],[-122.92,38.065],[-122.963,37.992],[-123.027,37.994],[-122.95,38.144],[-122.996,38.243],[-122.826,38.072],[-122.832,38.096],[-123.002,38.295],[-123.062,38.296],[-123.129,38.449],[-123.337,38.567],[-123.726,38.919],[-123.689,39.028],[-123.825,39.347],[-123.769,39.564],[-123.854,39.834],[-124.116,40.107],[-124.364,40.261],[-124.409,40.444],[-124.24,40.759],[-124.259,40.698],[-124.226,40.686],[-124.183,40.8],[-124.082,40.844],[-124.155,40.862],[-124.233,40.767],[-124.11,41.015],[-124.164,41.132],[-124.062,41.436],[-124.159,41.737],[-124.263,41.776],[-124.215,42.0],[-120.001,42.0],[-120.0,38.999],[-118.126,37.691],[-114.628,35.004],[-114.617,34.879],[-114.421,34.634],[-114.369,34.472],[-114.119,34.293],[-114.382,34.124],[-114.516,33.964],[-114.488,33.725],[-114.533,33.569],[-114.626,33.437],[-114.727,33.411],[-114.724,33.321],[-114.673,33.205],[-114.697,33.089],[-114.502,33.019],[-114.461,32.855],[-114.536,32.738]]],[[[-118.351,32.819],[-118.429,32.803],[-118.499,32.851],[-118.607,33.031],[-118.351,32.819]]],[[[-119.579,33.276],[-119.434,33.224],[-119.544,33.231],[-119.579,33.276]]],[[[-118.464,33.324],[-118.604,33.477],[-118.369,33.408],[-118.304,33.309],[-118.464,33.324]]],[[[-120.042,34.028],[-119.969,33.941],[-120.11,33.893],[-120.249,34.001],[-120.042,34.028]]],[[[-120.369,34.076],[-120.308,34.018],[-120.449,34.036],[-120.369,34.076]]],[[[-119.543,34.02],[-119.817,33.959],[-119.933,34.06],[-119.633,34.014],[-119.565,34.055],[-119.543,34.02]]],[[[-118.227,33.765],[-118.236,33.728],[-118.258,33.717],[-118.268,33.747],[-118.227,33.765]]]]}},{"type":"Feature","properties":{"name":"Colorado"},"geometry":{"type":"Polygon","coordinates":[[[-109.046,41.0],[-102.052,41.0],[-102.04,37.0],[-109.047,37.0],[-109.046,41.0]]]}},{"type":"Feature","properties":{"name":"Connecticut"},"geometry":{"type":"Polygon","coordinates":[[[-73.643,41.001],[-73.723,41.103],[-73.484,41.218],[-73.545,41.295],[-73.481,42.055],[-72.806,42.007],[-71.802,42.022],[-71.796,41.519],[-71.845,41.322],[-72.083,41.352],[-72.111,41.311],[-72.288,41.283],[-72.392,41.366],[-72.37,41.277],[-72.856,41.245],[-72.91,41.305],[-73.108,41.149],[-73.221,41.167],[-73.643,41.001]]]}},{"type":"Feature","properties":{"name":"Delaware"},"geometry":{"type":"Polygon","coordinates":[[[-75.063,38.457],[-75.694,38.46],[-75.789,39.721],[-75.678,39.815],[-75.424,39.807],[-75.592,39.649],[-75.555,39.541],[-75.588,39.463],[-75.408,39.27],[-75.401,39.078],[-75.31,38.928],[-75.166,38.794],[-75.084,38.796],[-75.065,38.633],[-75.086,38.693],[-75.139,38.688],[-75.099,38.638],[-75.208,38.57],[-75.096,38.566],[-75.06,38.613],[-75.063,38.457]]]}},{"type":"Feature","properties":{"name":"Florida"},"geometry":{"type":"MultiPolygon","coordinates":[[[[-87.464,30.321],[-87.345,30.44],[-87.439,30.529],[-87.405,30.67],[-87.625,30.865],[-87.594,31.0],[-85.007,31.0],[-84.876,30.719],[-82.24,30.565],[-82.166,30.365],[-82.049,30.375],[-82.011,30.578],[-82.041,30.737],[-81.962,30.818],[-81.44,30.701],[-81.438,30.524],[-81.489,30.621],[-81.5,30.551],[-81.41,30.456],[-81.239,29.737],[-80.922,29.068],[-80.627,28.651],[-80.528,28.473],[-80.594,28.402],[-80.592,28.208],[-80.451,27.866],[-80.62,28.207],[-80.6,28.6],[-80.766,28.612],[-80.752,28.742],[-80.848,28.791],[-80.738,28.373],[-80.381,27.666],[-80.345,27.515],[-80.198,27.196],[-80.197,27.18],[-80.217,27.209],[-80.314,27.243],[-80.149,27.138],[-80.076,26.973],[-80.115,26.935],[-80.038,26.811],[-80.129,25.775],[-80.141,25.901],[-80.307,25.618],[-80.344,25.475],[-80.314,25.371],[-80.423,25.252],[-80.402,25.186],[-80.451,25.243],[-80.499,25.22],[-80.459,25.209],[-80.443,25.173],[-80.566,25.246],[-80.711,25.145],[-80.855,25.186],[-81.102,25.125],[-81.177,25.228],[-81.165,25.298],[-81.13,25.344],[-81.078,25.273],[-80.985,25.235],[-81.006,25.214],[-80.917,25.246],[-81.141,25.385],[-81.215,25.528],[-81.188,25.56],[-81.232,25.564],[-81.28,25.704],[-81.357,25.753],[-81.322,25.783],[-81.348,25.817],[-81.623,25.947],[-81.732,25.92],[-81.743,25.957],[-81.694,25.94],[-81.664,25.981],[-81.732,26.001],[-81.787,26.14],[-81.801,26.099],[-81.856,26.449],[-81.883,26.496],[-81.887,26.445],[-82.009,26.485],[-81.78,26.715],[-81.907,26.643],[-81.952,26.544],[-82.039,26.528],[-82.082,26.68],[-82.057,26.866],[-82.097,26.909],[-81.978,26.996],[-82.155,26.928],[-82.274,27.016],[-82.15,26.803],[-82.314,26.849],[-82.562,27.276],[-82.574,27.395],[-82.698,27.455],[-82.729,27.515],[-82.657,27.462],[-82.661,27.52],[-82.589,27.503],[-82.637,27.524],[-82.39,27.811],[-82.422,27.917],[-82.472,27.92],[-82.483,27.821],[-82.527,27.825],[-82.541,27.943],[-82.691,28.038],[-82.69,27.971],[-82.644,27.969],[-82.719,27.928],[-82.562,27.886],[-82.654,27.695],[-82.815,27.832],[-82.739,27.729],[-82.719,27.66],[-82.842,27.829],[-82.852,27.908],[-82.767,28.106],[-82.787,28.194],[-82.664,28.448],[-82.632,28.695],[-82.685,28.805],[-82.63,28.784],[-82.634,28.888],[-82.727,28.959],[-82.801,29.175],[-83.041,29.18],[-83.216,29.411],[-83.405,29.532],[-83.397,29.655],[-83.544,29.728],[-83.681,29.921],[-84.024,30.107],[-84.178,30.073],[-84.209,30.107],[-84.384,30.032],[-84.346,29.97],[-84.454,30.005],[-84.466,29.99],[-84.343,29.947],[-84.349,29.902],[-84.377,29.887],[-84.508,29.922],[-84.875,29.733],[-84.873,29.805],[-85.004,29.716],[-85.346,29.678],[-85.392,29.716],[-85.413,29.851],[-85.378,29.728],[-85.321,29.693],[-85.302,29.798],[-85.357,29.889],[-85.68,30.134],[-85.442,30.02],[-85.395,30.056],[-85.462,30.035],[-85.495,30.141],[-85.57,30.114],[-85.721,30.196],[-85.555,30.285],[-85.587,30.326],[-85.709,30.247],[-85.755,30.319],[-85.854,30.265],[-85.756,30.232],[-85.721,30.134],[-86.066,30.306],[-86.511,30.408],[-86.347,30.395],[-86.312,30.436],[-86.242,30.395],[-86.248,30.436],[-86.108,30.387],[-86.138,30.483],[-86.207,30.505],[-86.408,30.461],[-86.44,30.476],[-86.413,30.518],[-86.488,30.524],[-86.485,30.48],[-86.602,30.418],[-86.783,30.422],[-87.194,30.36],[-86.894,30.439],[-87.014,30.511],[-86.961,30.56],[-87.03,30.607],[-87.077,30.45],[-87.181,30.585],[-87.18,30.436],[-87.307,30.329],[-87.464,30.321]]],[[[-81.81,24.558],[-81.732,24.556],[-81.815,24.543],[-81.81,24.558]]],[[[-81.726,24.556],[-81.657,24.598],[-81.65,24.576],[-81.726,24.556]]],[[[-81.506,24.631],[-81.565,24.602],[-81.636,24.584],[-81.555,24.631],[-81.581,24.652],[-81.527,24.624],[-81.561,24.693],[-81.506,24.631]]],[[[-81.088,24.686],[-81.136,24.707],[-81.04,24.734],[-81.088,24.686]]],[[[-81.427,24.751],[-81.355,24.686],[-81.363,24.631],[-81.364,24.661],[-81.427,24.751]]],[[[-80.956,24.769],[-80.959,24.749],[-81.033,24.721],[-80.956,24.769]]],[[[-80.8,24.844],[-80.802,24.81],[-80.855,24.803],[-80.8,24.844]]],[[[-80.252,25.344],[-80.361,25.159],[-80.579,24.95],[-80.598,24.95],[-80.357,25.227],[-80.369,25.286],[-80.252,25.344]]],[[[-80.188,25.498],[-80.217,25.415],[-80.238,25.406],[-80.188,25.498]]],[[[-80.158,25.679],[-80.183,25.714],[-80.156,25.735],[-80.158,25.679]]],[[[-82.205,26.55],[-82.027,26.447],[-82.088,26.42],[-82.164,26.454],[-82.205,26.55]]],[[[-82.248,26.654],[-82.246,26.695],[-82.225,26.611],[-82.248,26.654]]],[[[-82.082,26.492],[-82.178,26.701],[-82.114,26.654],[-82.082,26.492]]],[[[-82.281,26.809],[-82.259,26.737],[-82.266,26.715],[-82.281,26.809]]],[[[-82.649,27.381],[-82.681,27.434],[-82.589,27.324],[-82.649,27.381]]],[[[-80.293,27.417],[-80.445,27.857],[-80.163,27.174],[-80.293,27.417]]],[[[-80.629,28.181],[-80.641,28.204],[-80.649,28.223],[-80.629,28.181]]],[[[-80.656,28.593],[-80.612,28.569],[-80.658,28.437],[-80.65,28.225],[-80.74,28.517],[-80.656,28.593]]],[[[-85.109,29.634],[-85.213,29.689],[-85.086,29.686],[-85.109,29.634]]],[[[-84.987,29.62],[-84.693,29.764],[-84.706,29.744],[-84.788,29.696],[-84.969,29.612],[-85.049,29.606],[-85.097,29.627],[-84.987,29.62]]],[[[-84.657,29.787],[-84.586,29.8],[-84.665,29.779],[-84.657,29.787]]],[[[-87.296,30.332],[-86.522,30.401],[-87.241,30.326],[-87.296,30.332]]],[[[-82.128,24.554],[-82.119,24.554],[-82.129,24.551],[-82.128,24.554]]],[[[-82.12,24.585],[-82.146,24.593],[-82.11,24.565],[-82.12,24.585]]],[[[-81.424,24.655],[-81.411,24.655],[-81.415,24.648],[-81.424,24.655]]],[[[-81.265,24.671],[-81.258,24.668],[-81.276,24.656],[-81.265,24.671]]],[[[-81.462,24.671],[-81.441,24.651],[-81.447,24.651],[-81.462,24.671]]],[[[-81.493,24.692],[-81.511,24.661],[-81.515,24.698],[-81.493,24.692]]],[[[-81.329,24.703],[-81.318,24.675],[-81.341,24.7],[-81.329,24.703]]],[[[-80.73,24.863],[-80.718,24.859],[-80.738,24.851],[-80.73,24.863]]],[[[-80.625,24.936],[-80.626,24.924],[-80.657,24.901],[-80.625,24.936]]],[[[-81.073,25.31],[-81.052,25.278],[-81.067,25.277],[-81.073,25.31]]],[[[-81.089,25.339],[-81.091,25.313],[-81.122,25.337],[-81.089,25.339]]],[[[-81.373,25.816],[-81.44,25.804],[-81.441,25.842],[-81.43,25.851],[-81.373,25.816]]],[[[-81.46,25.823],[-81.512,25.836],[-81.517,25.86],[-81.474,25.872],[-81.46,25.823]]],[[[-81.663,25.897],[-81.677,25.861],[-81.711,25.89],[-81.708,25.899],[-81.663,25.897]]],[[[-81.558,25.903],[-81.534,25.879],[-81.546,25.854],[-81.558,25.903]]],[[[-82.673,28.737],[-82.678,28.714],[-82.696,28.729],[-82.673,28.737]]],[[[-82.682,28.76],[-82.695,28.788],[-82.673,28.777],[-82.682,28.76]]],[[[-83.05,29.156],[-83.05,29.132],[-83.058,29.15],[-83.05,29.156]]]]}},{"type":"Feature","properties":{"name":"Georgia"},"geometry":{"type":"MultiPolygon","coordinates":[[[[-81.136,32.136],[-80.836,32.003],[-80.903,31.951],[-80.937,31.976],[-80.963,31.931],[-80.924,31.909],[-80.98,31.865],[-81.118,31.908],[-81.09,31.876],[-81.143,31.855],[-81.04,31.827],[-81.106,31.743],[-81.273,31.766],[-81.196,31.718],[-81.331,31.552],[-81.365,31.438],[-81.326,31.349],[-81.492,31.368],[-81.268,31.259],[-81.386,31.142],[-81.423,31.22],[-81.455,31.206],[-81.452,31.117],[-81.496,31.126],[-81.43,31.073],[-81.404,31.121],[-81.424,31.025],[-81.514,31.093],[-81.451,31.022],[-81.52,30.984],[-81.451,30.964],[-81.499,30.906],[-81.492,30.847],[-81.533,30.854],[-81.5,30.712],[-81.962,30.818],[-82.041,30.737],[-82.011,30.566],[-82.058,30.369],[-82.192,30.374],[-82.24,30.565],[-84.876,30.719],[-85.018,31.087],[-85.101,31.183],[-85.043,31.535],[-85.144,31.824],[-85.031,32.17],[-84.898,32.269],[-84.992,32.337],[-84.968,32.434],[-85.103,32.653],[-85.201,32.935],[-85.606,34.985],[-83.115,35.0],[-83.308,34.82],[-83.355,34.708],[-83.047,34.497],[-82.857,34.461],[-82.729,34.171],[-82.571,33.968],[-82.273,33.778],[-82.174,33.616],[-81.938,33.476],[-81.931,33.361],[-81.842,33.314],[-81.848,33.26],[-81.76,33.156],[-81.518,33.04],[-81.403,32.745],[-81.406,32.624],[-81.201,32.485],[-81.132,32.321],[-81.136,32.136]]],[[[-81.462,30.726],[-81.482,30.904],[-81.417,30.97],[-81.462,30.726]]],[[[-81.235,31.527],[-81.175,31.521],[-81.28,31.385],[-81.3,31.412],[-81.235,31.527]]],[[[-81.149,31.698],[-81.128,31.629],[-81.161,31.567],[-81.179,31.636],[-81.149,31.698]]]]}},{"type":"Feature","properties":{"name":"Idaho"},"geometry":{"type":"Polygon","coordinates":[[[-117.038,48.993],[-116.048,48.993],[-116.049,48.004],[-115.719,47.7],[-115.677,47.604],[-115.733,47.556],[-115.639,47.479],[-115.724,47.442],[-115.497,47.304],[-115.333,47.264],[-114.918,46.923],[-114.905,46.842],[-114.766,46.774],[-114.761,46.716],[-114.663,46.748],[-114.636,46.674],[-114.567,46.644],[-114.329,46.672],[-114.339,46.536],[-114.4,46.501],[-114.371,46.454],[-114.454,46.27],[-114.433,46.191],[-114.503,46.16],[-114.451,46.109],[-114.474,46.013],[-114.404,45.985],[-114.388,45.888],[-114.55,45.783],[-114.494,45.705],[-114.541,45.569],[-114.298,45.484],[-114.109,45.573],[-113.99,45.703],[-113.803,45.608],[-113.715,45.309],[-113.436,45.022],[-113.481,44.934],[-113.434,44.863],[-113.334,44.794],[-113.233,44.819],[-113.141,44.776],[-113.045,44.652],[-113.069,44.609],[-112.993,44.532],[-112.996,44.465],[-112.838,44.377],[-112.751,44.489],[-112.39,44.458],[-112.242,44.569],[-111.461,44.549],[-111.494,44.644],[-111.375,44.755],[-111.051,44.498],[-111.05,42.0],[-117.017,42.0],[-117.031,43.829],[-116.936,44.017],[-116.969,44.1],[-116.892,44.177],[-116.973,44.268],[-117.195,44.298],[-117.204,44.482],[-117.029,44.734],[-116.864,44.866],[-116.831,45.025],[-116.455,45.601],[-116.543,45.762],[-116.839,45.91],[-116.961,46.105],[-116.909,46.162],[-116.942,46.26],[-117.044,46.378],[-117.038,48.993]]]}},{"type":"Feature","properties":{"name":"Illinois"},"geometry":{"type":"Polygon","coordinates":[[[-90.627,38.89],[-90.703,38.995],[-90.774,39.279],[-91.375,39.736],[-91.449,39.866],[-91.519,40.175],[-91.473,40.358],[-91.374,40.403],[-91.401,40.581],[-91.153,40.672],[-91.083,40.839],[-90.949,40.982],[-90.969,41.116],[-91.099,41.236],[-91.031,41.414],[-90.705,41.451],[-90.441,41.543],[-90.346,41.605],[-90.305,41.749],[-90.189,41.835],[-90.14,42.031],[-90.17,42.116],[-90.403,42.245],[-90.432,42.353],[-90.641,42.512],[-87.019,42.496],[-87.208,41.76],[-87.521,41.76],[-87.533,39.362],[-87.615,39.32],[-87.599,39.206],[-87.667,39.118],[-87.536,38.958],[-87.557,38.878],[-87.511,38.763],[-87.662,38.572],[-87.653,38.497],[-87.762,38.461],[-87.849,38.294],[-87.946,38.299],[-87.992,38.233],[-87.934,38.16],[-88.03,38.098],[-87.968,38.084],[-88.045,38.052],[-88.038,37.906],[-88.112,37.899],[-88.04,37.833],[-88.099,37.828],[-88.05,37.774],[-88.163,37.64],[-88.091,37.491],[-88.489,37.385],[-88.512,37.303],[-88.434,37.169],[-88.454,37.096],[-88.561,37.077],[-88.955,37.228],[-89.078,37.185],[-89.179,37.062],[-89.124,36.98],[-89.188,36.981],[-89.26,37.083],[-89.309,37.071],[-89.275,37.0],[-89.377,37.047],[-89.523,37.268],[-89.441,37.398],[-89.523,37.542],[-89.523,37.679],[-89.647,37.733],[-89.722,37.837],[-90.111,38.017],[-90.368,38.239],[-90.378,38.338],[-90.196,38.638],[-90.144,38.857],[-90.428,38.967],[-90.627,38.89]]]}},{"type":"Feature","properties":{"name":"Indiana"},"geometry":{"type":"Polygon","coordinates":[[[-84.806,41.758],[-84.824,39.097],[-84.873,39.062],[-84.823,38.974],[-84.877,38.92],[-84.784,38.893],[-84.806,38.795],[-84.936,38.792],[-85.186,38.694],[-85.257,38.741],[-85.455,38.726],[-85.415,38.553],[-85.59,38.461],[-85.665,38.31],[-85.829,38.277],[-85.931,38.029],[-86.051,37.97],[-86.259,38.059],[-86.292,38.154],[-86.383,38.195],[-86.333,38.147],[-86.462,38.137],[-86.444,38.069],[-86.519,38.04],[-86.523,37.938],[-86.624,37.854],[-86.663,37.864],[-86.644,37.901],[-86.773,37.924],[-86.819,37.995],[-87.02,37.919],[-87.118,37.789],[-87.405,37.942],[-87.549,37.913],[-87.599,37.976],[-87.627,37.835],[-87.68,37.837],[-87.687,37.907],[-87.797,37.878],[-87.909,37.932],[-87.9,37.83],[-87.951,37.782],[-88.095,37.818],[-88.04,37.833],[-88.112,37.899],[-88.038,37.906],[-88.045,38.052],[-87.968,38.084],[-88.03,38.098],[-87.934,38.16],[-87.992,38.233],[-87.946,38.299],[-87.849,38.294],[-87.762,38.461],[-87.653,38.497],[-87.662,38.572],[-87.511,38.763],[-87.557,38.878],[-87.536,38.958],[-87.667,39.118],[-87.599,39.206],[-87.615,39.32],[-87.533,39.362],[-87.521,41.76],[-84.806,41.758]]]}},{"type":"Feature","properties":{"name":"Iowa"},"geometry":{"type":"Polygon","coordinates":[[[-96.571,43.229],[-96.533,43.375],[-96.595,43.499],[-91.25,43.501],[-91.209,43.373],[-91.086,43.317],[-91.168,43.16],[-91.141,42.928],[-91.045,42.742],[-90.703,42.655],[-90.626,42.544],[-90.642,42.476],[-90.432,42.353],[-90.403,42.245],[-90.17,42.116],[-90.149,41.976],[-90.201,41.814],[-90.305,41.749],[-90.346,41.605],[-90.422,41.554],[-90.705,41.451],[-91.031,41.414],[-91.099,41.236],[-90.969,41.116],[-90.949,40.982],[-91.083,40.839],[-91.153,40.672],[-91.401,40.581],[-91.383,40.393],[-91.494,40.403],[-91.731,40.619],[-94.131,40.575],[-95.768,40.6],[-95.773,40.661],[-95.869,40.729],[-95.825,40.889],[-95.882,41.065],[-95.853,41.176],[-95.924,41.208],[-95.87,41.309],[-95.958,41.338],[-95.924,41.455],[-96.0,41.48],[-95.996,41.541],[-96.082,41.55],[-96.074,41.819],[-96.153,41.898],[-96.154,41.988],[-96.342,42.181],[-96.397,42.497],[-96.483,42.518],[-96.524,42.653],[-96.638,42.751],[-96.455,43.122],[-96.481,43.217],[-96.571,43.229]]]}},{"type":"Feature","properties":{"name":"Kansas"},"geometry":{"type":"Polygon","coordinates":[[[-102.04,37.0],[-102.051,40.0],[-95.317,40.0],[-95.091,39.861],[-94.948,39.901],[-94.875,39.742],[-94.969,39.739],[-95.111,39.55],[-94.9,39.385],[-94.83,39.217],[-94.613,39.153],[-94.618,37.0],[-102.04,37.0]]]}},{"type":"Feature","properties":{"name":"Kentucky"},"geometry":{"type":"MultiPolygon","coordinates":[[[[-89.226,36.581],[-89.133,36.761],[-89.119,36.962],[-89.179,37.062],[-89.078,37.185],[-88.907,37.22],[-88.484,37.072],[-88.433,37.137],[-88.512,37.303],[-88.489,37.385],[-88.091,37.491],[-88.157,37.664],[-88.045,37.807],[-87.951,37.782],[-87.9,37.83],[-87.927,37.923],[-87.797,37.878],[-87.687,37.907],[-87.657,37.825],[-87.601,37.857],[-87.599,37.976],[-87.549,37.913],[-87.405,37.942],[-87.118,37.789],[-87.02,37.919],[-86.819,37.995],[-86.773,37.924],[-86.644,37.901],[-86.663,37.864],[-86.624,37.854],[-86.523,37.938],[-86.519,38.04],[-86.444,38.069],[-86.462,38.137],[-86.333,38.147],[-86.383,38.195],[-86.292,38.154],[-86.259,38.059],[-86.051,37.97],[-85.931,38.029],[-85.829,38.277],[-85.665,38.31],[-85.59,38.461],[-85.415,38.553],[-85.455,38.726],[-85.257,38.741],[-85.186,38.694],[-84.936,38.792],[-84.806,38.795],[-84.784,38.893],[-84.877,38.92],[-84.823,38.974],[-84.873,39.062],[-84.73,39.146],[-84.637,39.077],[-84.444,39.102],[-84.307,39.017],[-84.218,38.823],[-83.866,38.762],[-83.714,38.639],[-83.534,38.707],[-83.305,38.601],[-83.152,38.619],[-83.031,38.716],[-82.886,38.745],[-82.827,38.586],[-82.698,38.535],[-82.589,38.419],[-82.572,38.248],[-82.637,38.162],[-82.296,37.688],[-82.116,37.563],[-81.965,37.539],[-82.351,37.278],[-82.682,37.137],[-82.712,37.047],[-82.849,36.98],[-82.869,36.901],[-83.062,36.852],[-83.129,36.753],[-83.73,36.586],[-86.508,36.664],[-87.839,36.643],[-88.067,36.69],[-88.043,36.499],[-89.424,36.499],[-89.359,36.638],[-89.226,36.581]]],[[[-89.56,36.5],[-89.57,36.556],[-89.503,36.554],[-89.494,36.501],[-89.56,36.5]]]]}},{"type":"Feature","properties":{"name":"Louisiana"},"geometry":{"type":"MultiPolygon","coordinates":[[[[-89.536,30.18],[-89.708,30.175],[-89.751,30.237],[-89.969,30.265],[-90.059,30.36],[-90.189,30.391],[-90.405,30.22],[-90.433,30.143],[-90.38,30.08],[-90.145,30.024],[-89.996,30.052],[-89.88,30.155],[-89.789,30.099],[-89.736,30.175],[-89.743,30.1],[-89.667,30.164],[-89.64,30.141],[-89.718,30.033],[-89.8,30.051],[-89.84,30.011],[-89.811,29.947],[-89.708,29.956],[-89.729,29.922],[-89.665,29.875],[-89.602,29.891],[-89.486,30.076],[-89.366,30.049],[-89.455,29.976],[-89.37,29.951],[-89.435,29.929],[-89.332,29.88],[-89.38,29.833],[-89.345,29.792],[-89.414,29.764],[-89.483,29.833],[-89.601,29.735],[-89.483,29.634],[-89.702,29.71],[-89.62,29.627],[-89.757,29.634],[-89.678,29.528],[-89.524,29.47],[-89.54,29.398],[-89.337,29.391],[-89.381,29.363],[-89.244,29.316],[-89.197,29.353],[-89.113,29.264],[-89.147,29.237],[-89.01,29.175],[-89.097,29.16],[-89.023,29.147],[-89.065,29.086],[-89.099,29.12],[-89.085,29.079],[-89.151,29.048],[-89.134,28.996],[-89.248,29.106],[-89.414,28.928],[-89.276,29.16],[-89.304,29.127],[-89.322,29.182],[-89.325,29.12],[-89.384,29.088],[-89.455,29.25],[-89.818,29.316],[-89.744,29.37],[-89.82,29.417],[-89.816,29.474],[-89.942,29.464],[-90.182,29.579],[-90.21,29.515],[-90.024,29.429],[-90.059,29.36],[-90.018,29.298],[-90.095,29.284],[-90.051,29.229],[-90.08,29.175],[-90.229,29.087],[-90.261,29.269],[-90.287,29.235],[-90.339,29.311],[-90.394,29.243],[-90.434,29.357],[-90.483,29.291],[-90.603,29.308],[-90.586,29.229],[-90.62,29.243],[-90.641,29.141],[-90.675,29.161],[-90.706,29.12],[-90.805,29.127],[-90.777,29.168],[-90.846,29.182],[-90.884,29.134],[-91.011,29.182],[-91.015,29.224],[-91.08,29.196],[-91.285,29.261],[-91.328,29.295],[-91.34,29.339],[-91.293,29.323],[-91.223,29.38],[-91.161,29.339],[-91.154,29.25],[-91.113,29.271],[-91.122,29.338],[-91.263,29.469],[-91.228,29.608],[-91.299,29.484],[-91.424,29.521],[-91.429,29.566],[-91.559,29.538],[-91.561,29.642],[-91.644,29.645],[-91.638,29.742],[-91.858,29.719],[-91.848,29.831],[-91.984,29.832],[-92.135,29.736],[-92.202,29.764],[-92.172,29.696],[-92.1,29.71],[-92.142,29.689],[-92.107,29.62],[-92.025,29.627],[-92.276,29.534],[-92.683,29.604],[-93.2,29.773],[-93.559,29.763],[-93.831,29.7],[-93.894,29.791],[-93.782,29.857],[-93.76,29.961],[-93.798,29.986],[-93.704,30.144],[-93.756,30.373],[-93.704,30.473],[-93.731,30.566],[-93.574,30.82],[-93.538,30.944],[-93.578,31.008],[-93.515,31.042],[-93.56,31.097],[-93.548,31.193],[-93.6,31.198],[-93.676,31.32],[-93.654,31.374],[-93.743,31.473],[-93.727,31.515],[-93.83,31.594],[-93.84,31.79],[-94.043,31.998],[-94.041,33.011],[-91.166,33.014],[-91.072,32.923],[-91.157,32.771],[-91.07,32.711],[-91.168,32.666],[-91.099,32.567],[-91.105,32.465],[-90.913,32.31],[-91.032,32.148],[-91.095,32.141],[-91.091,32.014],[-91.351,31.841],[-91.436,31.573],[-91.529,31.501],[-91.496,31.411],[-91.529,31.293],[-91.648,31.272],[-91.579,31.056],[-91.657,31.0],[-89.735,31.0],[-89.846,30.682],[-89.536,30.18]]],[[[-90.903,29.057],[-90.88,29.051],[-90.944,29.061],[-90.903,29.057]]],[[[-90.347,29.058],[-90.303,29.085],[-90.284,29.086],[-90.347,29.058]]],[[[-90.024,29.238],[-89.955,29.257],[-90.031,29.216],[-90.024,29.238]]],[[[-89.188,29.48],[-89.166,29.482],[-89.222,29.47],[-89.188,29.48]]],[[[-91.84,29.484],[-92.02,29.569],[-92.035,29.596],[-91.917,29.648],[-91.714,29.574],[-91.84,29.484]]],[[[-89.441,29.785],[-89.427,29.744],[-89.459,29.771],[-89.49,29.736],[-89.491,29.794],[-89.441,29.785]]],[[[-89.335,29.812],[-89.291,29.771],[-89.337,29.807],[-89.335,29.812]]],[[[-89.279,29.937],[-89.241,29.929],[-89.294,29.92],[-89.279,29.937]]],[[[-89.273,29.982],[-89.304,29.932],[-89.328,29.916],[-89.273,29.982]]],[[[-88.85,30.047],[-88.818,29.984],[-88.811,29.915],[-88.821,29.833],[-88.855,29.769],[-88.818,29.935],[-88.85,30.047]]],[[[-89.433,30.146],[-89.431,30.133],[-89.439,30.137],[-89.433,30.146]]],[[[-89.187,30.063],[-89.222,30.034],[-89.345,30.066],[-89.181,30.169],[-89.25,30.102],[-89.187,30.063]]],[[[-90.767,29.047],[-90.642,29.073],[-90.656,29.063],[-90.673,29.057],[-90.749,29.041],[-90.767,29.047]]],[[[-90.414,29.052],[-90.465,29.058],[-90.511,29.08],[-90.452,29.07],[-90.414,29.052]]],[[[-90.453,29.224],[-90.446,29.26],[-90.435,29.264],[-90.434,29.255],[-90.453,29.224]]],[[[-89.934,29.285],[-89.913,29.29],[-89.939,29.277],[-89.934,29.285]]],[[[-90.12,29.506],[-89.996,29.445],[-90.016,29.444],[-90.12,29.506]]],[[[-89.057,29.562],[-89.05,29.565],[-89.099,29.521],[-89.057,29.562]]],[[[-88.97,29.64],[-88.965,29.643],[-88.98,29.633],[-88.97,29.64]]],[[[-88.939,29.673],[-88.874,29.747],[-88.925,29.683],[-88.939,29.673]]]]}},{"type":"Feature","properties":{"name":"Maine"},"geometry":{"type":"MultiPolygon","coordinates":[[[[-71.064,45.307],[-70.968,45.345],[-70.892,45.235],[-70.813,45.423],[-70.641,45.408],[-70.73,45.508],[-70.59,45.652],[-70.419,45.717],[-70.415,45.804],[-70.263,45.923],[-70.316,45.983],[-70.313,46.08],[-70.244,46.141],[-70.281,46.212],[-70.188,46.358],[-70.074,46.42],[-70.008,46.704],[-69.251,47.453],[-69.07,47.432],[-69.057,47.269],[-68.906,47.19],[-68.518,47.305],[-68.386,47.302],[-68.3,47.368],[-67.993,47.223],[-67.809,47.075],[-67.758,45.919],[-67.799,45.876],[-67.807,45.713],[-67.608,45.62],[-67.431,45.598],[-67.426,45.533],[-67.493,45.493],[-67.429,45.387],[-67.471,45.266],[-67.319,45.154],[-67.255,45.205],[-67.176,45.179],[-67.21,45.171],[-67.04,44.973],[-67.063,44.931],[-67.117,44.948],[-67.122,44.895],[-67.203,44.905],[-67.149,44.816],[-67.088,44.888],[-67.044,44.834],[-67.059,44.897],[-66.977,44.816],[-67.196,44.644],[-67.281,44.631],[-67.332,44.709],[-67.396,44.699],[-67.367,44.627],[-67.409,44.596],[-67.435,44.659],[-67.454,44.605],[-67.554,44.644],[-67.603,44.528],[-67.659,44.567],[-67.728,44.503],[-67.745,44.596],[-67.786,44.528],[-67.783,44.602],[-67.828,44.584],[-67.902,44.397],[-67.902,44.487],[-67.937,44.409],[-67.978,44.499],[-68.029,44.469],[-67.975,44.395],[-68.061,44.328],[-68.112,44.48],[-68.149,44.501],[-68.182,44.459],[-68.202,44.525],[-68.222,44.466],[-68.308,44.529],[-68.273,44.452],[-68.355,44.466],[-68.409,44.405],[-68.432,44.487],[-68.478,44.493],[-68.465,44.39],[-68.485,44.432],[-68.574,44.411],[-68.541,44.237],[-68.732,44.328],[-68.821,44.315],[-68.804,44.369],[-68.699,44.41],[-68.718,44.446],[-68.816,44.402],[-68.743,44.537],[-68.802,44.56],[-68.807,44.473],[-68.987,44.421],[-68.937,44.332],[-69.088,44.137],[-69.065,44.068],[-69.191,43.993],[-69.191,43.952],[-69.263,43.93],[-69.219,44.008],[-69.311,43.942],[-69.303,43.981],[-69.369,43.973],[-69.364,44.061],[-69.513,43.835],[-69.54,43.898],[-69.548,43.835],[-69.534,44.021],[-69.586,43.948],[-69.592,43.808],[-69.595,43.849],[-69.67,43.874],[-69.623,43.917],[-69.657,43.955],[-69.63,44.027],[-69.759,43.886],[-69.746,43.814],[-69.705,43.842],[-69.758,43.76],[-69.807,43.983],[-69.783,44.057],[-69.883,43.977],[-69.822,43.961],[-69.791,43.733],[-69.839,43.709],[-69.879,43.871],[-69.883,43.801],[-69.985,43.726],[-69.926,43.829],[-70.027,43.74],[-69.951,43.849],[-70.02,43.829],[-69.986,43.863],[-70.183,43.757],[-70.287,43.65],[-70.211,43.635],[-70.205,43.561],[-70.344,43.539],[-70.368,43.467],[-70.322,43.453],[-70.571,43.298],[-70.583,43.189],[-70.672,43.086],[-70.715,43.122],[-70.744,43.084],[-70.825,43.161],[-70.822,43.247],[-70.977,43.395],[-71.064,45.307]]],[[[-69.652,43.79],[-69.673,43.853],[-69.647,43.837],[-69.652,43.79]]],[[[-69.669,43.943],[-69.699,43.871],[-69.715,43.859],[-69.723,43.908],[-69.669,43.943]]],[[[-68.641,44.078],[-68.608,44.024],[-68.656,44.01],[-68.641,44.078]]],[[[-68.824,44.145],[-68.863,44.12],[-68.943,44.117],[-68.857,44.181],[-68.824,44.145]]],[[[-68.392,44.146],[-68.432,44.129],[-68.507,44.16],[-68.417,44.182],[-68.392,44.146]]],[[[-68.934,44.236],[-68.943,44.29],[-68.901,44.311],[-68.885,44.3],[-68.934,44.236]]],[[[-68.487,44.335],[-68.53,44.331],[-68.512,44.379],[-68.496,44.376],[-68.487,44.335]]],[[[-68.859,44.358],[-68.904,44.319],[-68.917,44.332],[-68.884,44.392],[-68.859,44.358]]],[[[-67.585,44.444],[-67.616,44.505],[-67.615,44.514],[-67.566,44.479],[-67.585,44.444]]],[[[-67.271,44.613],[-67.302,44.596],[-67.322,44.603],[-67.303,44.625],[-67.271,44.613]]],[[[-67.045,44.927],[-67.038,44.955],[-66.99,44.898],[-67.045,44.927]]],[[[-68.91,44.096],[-68.775,44.062],[-68.835,44.035],[-68.91,44.096]]],[[[-68.69,44.26],[-68.609,44.213],[-68.656,44.199],[-68.623,44.171],[-68.716,44.167],[-68.69,44.26]]],[[[-68.355,44.423],[-68.185,44.357],[-68.199,44.309],[-68.314,44.308],[-68.326,44.226],[-68.414,44.259],[-68.434,44.312],[-68.355,44.423]]]]}},{"type":"Feature","properties":{"name":"Maryland"},"geometry":{"type":"MultiPolygon","coordinates":[[[[-75.377,38.015],[-75.875,37.951],[-75.853,38.032],[-75.743,38.111],[-75.853,38.09],[-75.794,38.159],[-75.941,38.135],[-75.928,38.194],[-75.819,38.234],[-75.907,38.271],[-75.843,38.404],[-75.963,38.248],[-75.996,38.313],[-75.955,38.351],[-75.99,38.362],[-76.038,38.232],[-76.21,38.392],[-76.216,38.317],[-76.319,38.474],[-76.286,38.5],[-76.264,38.466],[-76.172,38.566],[-76.286,38.563],[-76.277,38.625],[-76.161,38.631],[-76.054,38.568],[-75.97,38.607],[-75.963,38.659],[-76.024,38.593],[-76.105,38.625],[-76.092,38.659],[-76.154,38.653],[-76.106,38.686],[-76.166,38.681],[-76.168,38.728],[-76.199,38.675],[-76.234,38.757],[-76.292,38.721],[-76.288,38.776],[-76.341,38.673],[-76.305,38.823],[-76.253,38.855],[-76.173,38.757],[-76.109,38.801],[-76.177,38.786],[-76.188,38.847],[-76.106,38.878],[-76.161,38.926],[-76.198,38.878],[-76.197,38.936],[-76.247,38.951],[-76.375,38.842],[-76.315,39.029],[-76.198,38.979],[-76.065,39.146],[-76.175,39.124],[-76.204,39.015],[-76.243,39.033],[-76.273,39.168],[-76.175,39.316],[-76.105,39.372],[-75.839,39.371],[-76.034,39.393],[-75.935,39.475],[-75.839,39.461],[-75.894,39.509],[-75.832,39.584],[-76.001,39.453],[-75.935,39.604],[-76.008,39.549],[-76.083,39.558],[-76.12,39.495],[-76.068,39.458],[-76.21,39.365],[-76.232,39.475],[-76.284,39.311],[-76.312,39.403],[-76.401,39.393],[-76.333,39.351],[-76.431,39.318],[-76.401,39.256],[-76.483,39.311],[-76.397,39.238],[-76.449,39.195],[-76.571,39.274],[-76.623,39.26],[-76.433,39.131],[-76.433,39.067],[-76.516,39.076],[-76.394,39.025],[-76.456,38.989],[-76.569,39.066],[-76.452,38.944],[-76.46,38.912],[-76.569,38.953],[-76.493,38.899],[-76.537,38.892],[-76.494,38.826],[-76.552,38.776],[-76.512,38.528],[-76.393,38.354],[-76.454,38.324],[-76.483,38.392],[-76.636,38.474],[-76.681,38.679],[-76.674,38.486],[-76.451,38.293],[-76.373,38.299],[-76.324,38.044],[-76.415,38.108],[-76.456,38.207],[-76.469,38.139],[-76.504,38.166],[-76.517,38.132],[-76.617,38.223],[-76.804,38.254],[-76.828,38.363],[-76.881,38.399],[-76.839,38.257],[-76.922,38.292],[-77.032,38.481],[-77.095,38.409],[-77.1,38.461],[-77.134,38.453],[-77.134,38.399],[-77.204,38.364],[-77.255,38.394],[-77.228,38.557],[-77.089,38.689],[-77.012,38.697],[-77.023,38.803],[-76.909,38.893],[-77.042,38.996],[-77.12,38.934],[-77.272,39.048],[-77.445,39.085],[-77.515,39.153],[-77.467,39.244],[-77.751,39.351],[-77.748,39.423],[-77.806,39.448],[-77.771,39.502],[-77.821,39.497],[-77.839,39.543],[-77.86,39.516],[-77.88,39.564],[-77.847,39.612],[-77.969,39.602],[-78.184,39.704],[-78.28,39.635],[-78.434,39.624],[-78.406,39.594],[-78.469,39.534],[-78.577,39.529],[-78.749,39.577],[-78.775,39.638],[-78.958,39.454],[-79.103,39.467],[-79.486,39.207],[-79.477,39.722],[-75.789,39.721],[-75.694,38.46],[-75.083,38.447],[-75.104,38.395],[-75.18,38.408],[-75.094,38.335],[-75.164,38.234],[-75.233,38.239],[-75.377,38.015]]],[[[-75.058,38.453],[-75.051,38.388],[-75.079,38.337],[-75.058,38.453]]],[[[-76.01,37.961],[-76.051,37.994],[-76.003,38.001],[-76.017,38.039],[-75.981,37.993],[-76.01,37.961]]],[[[-76.026,38.153],[-76.079,38.183],[-76.049,38.2],[-76.026,38.153]]],[[[-75.254,38.031],[-75.2,38.104],[-75.179,38.168],[-75.092,38.303],[-75.19,38.09],[-75.254,38.031]]]]}},{"type":"Feature","properties":{"name":"Massachusetts"},"geometry":{"type":"MultiPolygon","coordinates":[[[[-71.19,41.686],[-71.111,41.797],[-71.237,41.71],[-71.324,41.778],[-71.387,42.016],[-72.806,42.007],[-73.507,42.079],[-73.266,42.746],[-71.306,42.701],[-71.141,42.816],[-70.916,42.887],[-70.814,42.877],[-70.809,42.826],[-70.864,42.826],[-70.806,42.801],[-70.775,42.716],[-70.824,42.75],[-70.82,42.719],[-70.757,42.657],[-70.682,42.632],[-70.632,42.695],[-70.597,42.634],[-70.878,42.538],[-70.892,42.503],[-70.838,42.499],[-70.922,42.466],[-70.892,42.428],[-70.963,42.438],[-70.953,42.359],[-71.037,42.372],[-71.038,42.308],[-70.95,42.243],[-70.867,42.265],[-70.899,42.318],[-70.742,42.236],[-70.591,42.017],[-70.638,42.011],[-70.648,42.065],[-70.715,42.003],[-70.545,41.941],[-70.533,41.816],[-70.439,41.756],[-70.275,41.715],[-70.0,41.816],[-70.021,41.907],[-69.987,41.921],[-70.038,41.942],[-70.069,41.893],[-70.1,42.037],[-70.166,42.064],[-70.189,42.018],[-70.247,42.061],[-70.216,42.085],[-70.051,42.04],[-69.925,41.838],[-69.98,41.797],[-69.934,41.793],[-69.939,41.674],[-70.185,41.661],[-70.273,41.611],[-70.261,41.646],[-70.418,41.64],[-70.48,41.574],[-70.659,41.521],[-70.631,41.74],[-70.72,41.746],[-70.713,41.688],[-70.85,41.63],[-70.845,41.592],[-70.905,41.64],[-70.925,41.551],[-71.04,41.507],[-71.062,41.564],[-71.122,41.513],[-71.131,41.661],[-71.19,41.686]]],[[[-70.052,41.397],[-69.958,41.276],[-69.967,41.249],[-70.138,41.247],[-70.278,41.308],[-70.082,41.293],[-70.014,41.345],[-70.076,41.311],[-70.052,41.397]]],[[[-70.495,41.382],[-70.456,41.43],[-70.453,41.359],[-70.495,41.382]]],[[[-70.556,41.469],[-70.507,41.363],[-70.776,41.304],[-70.846,41.347],[-70.605,41.474],[-70.556,41.469]]],[[[-69.973,41.654],[-70.002,41.554],[-70.021,41.551],[-69.973,41.654]]],[[[-70.832,41.257],[-70.802,41.257],[-70.802,41.248],[-70.832,41.257]]],[[[-70.926,41.429],[-70.854,41.429],[-70.949,41.414],[-70.926,41.429]]],[[[-70.84,41.451],[-70.679,41.51],[-70.791,41.449],[-70.84,41.451]]]]}},{"type":"Feature","properties":{"name":"Michigan"},"geometry":{"type":"Polygon","coordinates":[[[-89.499,47.995],[-89.34,47.984],[-88.643,48.257],[-88.347,48.299],[-84.879,46.898],[-84.773,46.633],[-84.567,46.461],[-84.39,46.52],[-84.11,46.526],[-84.159,46.433],[-84.097,46.225],[-83.965,46.063],[-83.839,46.119],[-83.614,46.116],[-83.463,46.008],[-83.637,45.774],[-83.484,45.772],[-82.589,45.372],[-82.532,45.294],[-82.145,43.601],[-82.411,43.051],[-82.526,42.62],[-82.833,42.398],[-83.08,42.305],[-83.159,42.046],[-83.131,41.938],[-83.414,41.735],[-84.806,41.697],[-84.806,41.758],[-87.208,41.76],[-87.019,42.496],[-87.147,43.38],[-87.061,43.97],[-86.715,44.845],[-86.498,45.076],[-86.251,45.236],[-86.764,45.444],[-87.092,45.444],[-87.199,45.323],[-87.403,45.205],[-87.436,45.079],[-87.654,45.121],[-87.735,45.199],[-87.661,45.37],[-87.882,45.377],[-87.804,45.5],[-87.803,45.687],[-87.902,45.759],[-88.11,45.803],[-88.086,45.877],[-88.123,45.931],[-88.529,46.025],[-88.837,46.036],[-89.119,46.148],[-90.118,46.341],[-90.23,46.509],[-90.399,46.551],[-89.499,47.995]]]}},{"type":"Feature","properties":{"name":"Minnesota"},"geometry":{"type":"Polygon","coordinates":[[[-97.229,48.969],[-95.177,48.993],[-95.161,49.369],[-94.983,49.356],[-94.827,49.293],[-94.689,48.779],[-94.519,48.704],[-94.293,48.712],[-94.232,48.652],[-93.875,48.636],[-93.779,48.519],[-93.492,48.542],[-93.386,48.615],[-92.98,48.618],[-92.649,48.536],[-92.627,48.503],[-92.719,48.46],[-92.491,48.433],[-92.372,48.223],[-92.291,48.25],[-92.282,48.332],[-92.07,48.347],[-91.975,48.237],[-91.744,48.18],[-91.716,48.112],[-91.59,48.088],[-91.575,48.048],[-91.276,48.065],[-90.874,48.234],[-90.75,48.084],[-90.12,48.115],[-89.92,47.987],[-89.499,47.995],[-89.958,47.286],[-90.654,47.308],[-91.468,46.924],[-91.965,46.729],[-92.11,46.769],[-92.215,46.664],[-92.289,46.663],[-92.293,46.083],[-92.704,45.913],[-92.891,45.704],[-92.883,45.576],[-92.751,45.559],[-92.663,45.426],[-92.759,45.283],[-92.75,45.126],[-92.802,45.078],[-92.758,44.926],[-92.82,44.758],[-92.585,44.608],[-92.394,44.58],[-92.286,44.471],[-92.103,44.437],[-91.663,44.073],[-91.408,44.013],[-91.284,43.898],[-91.25,43.501],[-96.454,43.5],[-96.454,45.297],[-96.566,45.394],[-96.708,45.422],[-96.863,45.601],[-96.588,45.839],[-96.565,46.171],[-96.602,46.324],[-96.715,46.445],[-96.795,46.642],[-96.759,46.921],[-96.828,47.002],[-96.856,47.602],[-97.122,48.133],[-97.157,48.534],[-97.101,48.651],[-97.229,48.969]]]}},{"type":"Feature","properties":{"name":"Mississippi"},"geometry":{"type":"MultiPolygon","coordinates":[[[[-88.403,30.388],[-88.471,30.324],[-88.591,30.395],[-88.742,30.354],[-88.928,30.442],[-88.982,30.422],[-88.859,30.408],[-89.253,30.319],[-89.322,30.381],[-89.356,30.35],[-89.321,30.312],[-89.421,30.258],[-89.443,30.19],[-89.565,30.189],[-89.678,30.457],[-89.799,30.566],[-89.846,30.682],[-89.735,31.0],[-91.657,31.0],[-91.579,31.056],[-91.648,31.272],[-91.529,31.293],[-91.496,31.411],[-91.529,31.501],[-91.436,31.573],[-91.351,31.841],[-91.091,32.014],[-91.095,32.141],[-91.032,32.148],[-90.91,32.324],[-91.105,32.465],[-91.099,32.567],[-91.166,32.644],[-91.07,32.711],[-91.157,32.771],[-91.072,32.923],[-91.168,32.982],[-91.161,33.119],[-91.093,33.167],[-91.113,33.28],[-91.182,33.32],[-91.127,33.478],[-91.235,33.567],[-91.156,33.588],[-91.152,33.633],[-91.226,33.69],[-91.045,33.815],[-91.036,33.93],[-91.093,33.99],[-90.88,34.061],[-90.956,34.157],[-90.771,34.284],[-90.759,34.381],[-90.594,34.425],[-90.568,34.72],[-90.478,34.738],[-90.464,34.828],[-90.272,34.923],[-90.304,35.0],[-88.179,34.998],[-88.088,34.908],[-88.486,31.89],[-88.403,30.388]]],[[[-88.967,30.214],[-88.943,30.214],[-88.969,30.211],[-88.967,30.214]]],[[[-88.503,30.224],[-88.427,30.216],[-88.47,30.211],[-88.503,30.224]]],[[[-89.077,30.241],[-89.085,30.196],[-89.154,30.23],[-89.077,30.241]]],[[[-88.756,30.25],[-88.538,30.224],[-88.556,30.217],[-88.756,30.25]]]]}},{"type":"Feature","properties":{"name":"Missouri"},"geometry":{"type":"Polygon","coordinates":[[[-95.65,40.311],[-95.696,40.518],[-95.768,40.549],[-95.768,40.6],[-94.131,40.575],[-91.731,40.619],[-91.442,40.38],[-91.519,40.175],[-91.449,39.866],[-91.375,39.736],[-90.774,39.279],[-90.658,38.921],[-90.585,38.878],[-90.428,38.967],[-90.144,38.857],[-90.196,38.638],[-90.378,38.338],[-90.368,38.239],[-90.111,38.017],[-89.722,37.837],[-89.647,37.733],[-89.523,37.679],[-89.523,37.542],[-89.441,37.398],[-89.523,37.268],[-89.377,37.047],[-89.275,37.0],[-89.309,37.071],[-89.26,37.083],[-89.188,36.981],[-89.124,36.98],[-89.133,36.761],[-89.205,36.608],[-89.253,36.569],[-89.37,36.633],[-89.479,36.452],[-89.503,36.554],[-89.57,36.556],[-89.531,36.384],[-89.628,36.341],[-89.557,36.275],[-89.695,36.247],[-89.614,36.142],[-89.724,36.0],[-90.373,35.986],[-90.298,36.113],[-90.067,36.287],[-90.064,36.374],[-90.162,36.5],[-94.618,36.5],[-94.613,39.153],[-94.83,39.217],[-94.9,39.385],[-95.111,39.55],[-94.969,39.739],[-94.875,39.742],[-94.948,39.901],[-95.091,39.861],[-95.191,39.907],[-95.42,40.045],[-95.404,40.114],[-95.478,40.249],[-95.65,40.311]]]}},{"type":"Feature","properties":{"name":"Montana"},"geometry":{"type":"Polygon","coordinates":[[[-116.048,48.993],[-104.048,48.993],[-104.039,45.0],[-111.051,45.0],[-111.051,44.498],[-111.375,44.755],[-111.494,44.644],[-111.461,44.549],[-112.242,44.569],[-112.39,44.458],[-112.751,44.489],[-112.838,44.377],[-112.996,44.465],[-112.993,44.532],[-113.069,44.609],[-113.045,44.652],[-113.141,44.776],[-113.233,44.819],[-113.334,44.794],[-113.434,44.863],[-113.481,44.934],[-113.436,45.022],[-113.715,45.309],[-113.803,45.608],[-113.99,45.703],[-114.109,45.573],[-114.298,45.484],[-114.545,45.573],[-114.494,45.705],[-114.55,45.783],[-114.388,45.888],[-114.404,45.985],[-114.474,46.013],[-114.451,46.109],[-114.503,46.16],[-114.433,46.191],[-114.454,46.27],[-114.325,46.665],[-114.567,46.644],[-114.636,46.674],[-114.663,46.748],[-114.761,46.716],[-114.766,46.774],[-114.905,46.842],[-114.918,46.923],[-115.333,47.264],[-115.497,47.304],[-115.724,47.442],[-115.639,47.479],[-115.733,47.556],[-115.677,47.604],[-115.719,47.7],[-116.049,48.004],[-116.048,48.993]]]}},{"type":"Feature","properties":{"name":"Nebraska"},"geometry":{"type":"Polygon","coordinates":[[[-104.054,41.0],[-104.053,43.0],[-98.485,43.0],[-97.98,42.782],[-97.839,42.872],[-97.276,42.884],[-97.127,42.79],[-96.697,42.672],[-96.705,42.627],[-96.611,42.534],[-96.397,42.497],[-96.342,42.181],[-96.154,41.988],[-96.153,41.898],[-96.064,41.796],[-96.082,41.55],[-95.988,41.534],[-96.0,41.48],[-95.924,41.455],[-95.958,41.338],[-95.87,41.309],[-95.925,41.224],[-95.853,41.176],[-95.882,41.065],[-95.828,40.794],[-95.869,40.729],[-95.773,40.661],[-95.768,40.549],[-95.696,40.518],[-95.65,40.311],[-95.478,40.249],[-95.404,40.114],[-95.42,40.045],[-95.317,40.0],[-102.051,40.0],[-102.052,41.0],[-104.054,41.0]]]}},{"type":"Feature","properties":{"name":"Nevada"},"geometry":{"type":"Polygon","coordinates":[[[-114.043,42.0],[-114.042,36.22],[-114.159,36.03],[-114.257,36.032],[-114.366,36.147],[-114.555,36.161],[-114.721,36.093],[-114.74,35.986],[-114.667,35.874],[-114.668,35.517],[-114.572,35.213],[-114.582,35.151],[-114.636,35.137],[-114.628,35.004],[-118.126,37.691],[-120.0,38.999],[-120.001,42.0],[-114.043,42.0]]]}},{"type":"Feature","properties":{"name":"New Hampshire"},"geometry":{"type":"Polygon","coordinates":[[[-71.515,44.895],[-71.407,45.205],[-71.449,45.227],[-71.312,45.294],[-71.16,45.246],[-71.085,45.304],[-70.977,43.395],[-70.822,43.247],[-70.825,43.161],[-70.708,43.045],[-70.814,42.877],[-71.141,42.816],[-71.296,42.702],[-72.467,42.729],[-72.555,42.878],[-72.471,43.006],[-72.392,43.558],[-72.101,43.973],[-72.02,44.318],[-71.678,44.446],[-71.549,44.587],[-71.635,44.74],[-71.515,44.895]]]}},{"type":"Feature","properties":{"name":"New Jersey"},"geometry":{"type":"MultiPolygon","coordinates":[[[[-75.537,39.503],[-75.51,39.56],[-75.557,39.621],[-75.44,39.777],[-75.144,39.875],[-75.099,39.906],[-75.116,39.953],[-74.729,40.163],[-74.975,40.415],[-75.036,40.415],[-75.089,40.558],[-75.182,40.57],[-75.196,40.619],[-75.189,40.759],[-75.058,40.872],[-75.14,40.982],[-74.938,41.128],[-74.845,41.273],[-74.699,41.356],[-73.907,40.991],[-74.032,40.714],[-74.142,40.646],[-74.112,40.718],[-74.21,40.634],[-74.283,40.497],[-73.993,40.402],[-74.018,40.481],[-73.979,40.449],[-74.093,39.776],[-74.051,40.035],[-74.061,40.062],[-74.122,39.997],[-74.168,39.699],[-74.328,39.576],[-74.297,39.509],[-74.407,39.557],[-74.384,39.471],[-74.448,39.447],[-74.469,39.399],[-74.413,39.357],[-74.53,39.311],[-74.482,39.365],[-74.51,39.379],[-74.551,39.311],[-74.66,39.289],[-74.551,39.283],[-74.742,39.118],[-74.708,39.098],[-74.803,38.988],[-74.955,38.926],[-74.906,39.18],[-75.04,39.215],[-75.146,39.187],[-75.537,39.503]]],[[[-74.368,39.465],[-74.302,39.465],[-74.393,39.389],[-74.448,39.42],[-74.387,39.406],[-74.368,39.465]]],[[[-74.24,39.575],[-74.098,39.756],[-74.256,39.522],[-74.24,39.575]]]]}},{"type":"Feature","properties":{"name":"New Mexico"},"geometry":{"type":"Polygon","coordinates":[[[-106.506,31.77],[-108.215,31.778],[-108.215,31.327],[-109.047,31.327],[-109.047,37.0],[-103.001,37.0],[-103.0,36.5],[-103.042,36.5],[-103.066,32.002],[-106.662,32.0],[-106.601,31.836],[-106.506,31.77]]]}},{"type":"Feature","properties":{"name":"New York"},"geometry":{"type":"MultiPolygon","coordinates":[[[[-79.763,42.538],[-79.019,42.803],[-78.919,42.889],[-78.915,42.948],[-79.032,43.013],[-79.058,43.278],[-79.174,43.465],[-78.688,43.632],[-76.842,43.626],[-76.328,44.181],[-76.186,44.226],[-76.179,44.279],[-76.067,44.348],[-75.87,44.409],[-75.7,44.582],[-75.13,44.925],[-74.887,45.009],[-73.351,45.005],[-73.377,44.619],[-73.293,44.454],[-73.325,44.242],[-73.439,44.06],[-73.363,43.779],[-73.425,43.607],[-73.407,43.57],[-73.309,43.626],[-73.247,43.552],[-73.266,42.746],[-73.507,42.079],[-73.545,41.295],[-73.484,41.218],[-73.723,41.103],[-73.643,41.001],[-73.812,40.871],[-73.798,40.813],[-73.932,40.818],[-73.909,40.869],[-73.922,40.887],[-73.875,41.013],[-73.872,41.116],[-73.947,41.311],[-73.985,41.27],[-73.918,41.164],[-73.907,40.991],[-74.699,41.356],[-74.742,41.431],[-74.984,41.498],[-75.061,41.605],[-75.079,41.828],[-75.249,41.882],[-75.339,41.997],[-79.763,42.0],[-79.763,42.538]]],[[[-73.928,40.878],[-73.976,40.714],[-74.017,40.699],[-73.928,40.878]]],[[[-73.248,40.648],[-73.39,40.617],[-73.574,40.575],[-73.339,40.645],[-73.248,40.648]]],[[[-74.182,40.637],[-74.054,40.603],[-74.251,40.501],[-74.182,40.637]]],[[[-73.04,40.682],[-72.757,40.769],[-73.305,40.63],[-73.04,40.682]]],[[[-72.109,41.001],[-71.857,41.072],[-72.407,40.862],[-72.497,40.884],[-72.502,40.839],[-72.724,40.77],[-72.651,40.797],[-73.233,40.715],[-73.711,40.61],[-73.582,40.584],[-73.939,40.542],[-73.769,40.619],[-73.869,40.64],[-73.878,40.582],[-73.988,40.569],[-74.04,40.62],[-73.909,40.789],[-73.758,40.771],[-73.756,40.833],[-73.697,40.822],[-73.72,40.866],[-73.653,40.824],[-73.633,40.9],[-73.52,40.918],[-73.549,40.891],[-73.48,40.877],[-73.486,40.946],[-73.358,40.9],[-73.402,40.954],[-73.235,40.908],[-73.113,40.973],[-72.628,40.984],[-72.343,41.141],[-72.247,41.156],[-72.412,41.065],[-72.385,41.044],[-72.438,40.984],[-72.521,40.985],[-72.625,40.908],[-72.481,40.898],[-72.322,41.036],[-72.187,41.009],[-72.155,41.055],[-72.109,41.001]]],[[[-71.999,41.252],[-72.022,41.277],[-71.921,41.291],[-71.999,41.252]]],[[[-72.34,41.104],[-72.28,41.079],[-72.276,41.032],[-72.371,41.055],[-72.34,41.104]]],[[[-72.142,41.097],[-72.078,41.1],[-72.101,41.054],[-72.142,41.097]]]]}},{"type":"Feature","properties":{"name":"North Carolina"},"geometry":{"type":"MultiPolygon","coordinates":[[[[-76.031,36.548],[-76.029,36.48],[-75.968,36.433],[-75.974,36.401],[-75.928,36.364],[-75.919,36.429],[-75.786,36.082],[-75.863,36.127],[-75.962,36.307],[-75.996,36.315],[-75.963,36.206],[-75.908,36.165],[-76.02,36.191],[-76.199,36.323],[-76.219,36.288],[-76.063,36.162],[-76.168,36.131],[-76.292,36.213],[-76.22,36.1],[-76.463,36.206],[-76.312,36.096],[-76.577,36.012],[-76.687,36.056],[-76.73,36.182],[-76.68,36.288],[-76.73,36.323],[-76.702,36.285],[-76.757,36.127],[-76.689,36.007],[-76.73,35.945],[-76.42,35.981],[-76.38,35.932],[-76.264,35.925],[-76.307,35.958],[-76.048,35.984],[-76.072,35.919],[-76.024,35.932],[-76.086,35.87],[-76.056,35.793],[-76.124,35.795],[-76.058,35.768],[-76.037,35.699],[-76.141,35.699],[-76.031,35.651],[-75.99,35.887],[-75.935,35.925],[-75.861,35.881],[-75.908,35.938],[-75.825,35.932],[-75.853,35.98],[-75.722,35.829],[-75.721,35.705],[-75.773,35.697],[-75.754,35.612],[-75.839,35.569],[-75.886,35.637],[-76.028,35.419],[-76.056,35.441],[-76.065,35.384],[-76.15,35.347],[-76.28,35.351],[-76.355,35.413],[-76.374,35.343],[-76.421,35.377],[-76.38,35.377],[-76.418,35.465],[-76.463,35.377],[-76.498,35.391],[-76.575,35.497],[-76.463,35.541],[-76.647,35.521],[-76.6,35.395],[-77.052,35.534],[-76.976,35.438],[-76.497,35.312],[-76.47,35.271],[-76.493,35.23],[-76.565,35.239],[-76.53,35.2],[-76.675,35.171],[-76.572,35.178],[-76.561,35.124],[-76.764,34.989],[-76.874,35.009],[-77.079,35.157],[-76.94,34.98],[-76.757,34.91],[-76.632,34.987],[-76.54,34.932],[-76.569,34.993],[-76.49,34.973],[-76.454,35.073],[-76.419,34.987],[-76.462,34.941],[-76.325,34.976],[-76.353,35.027],[-76.27,34.965],[-76.34,34.94],[-76.355,34.877],[-76.408,34.883],[-76.513,34.734],[-76.584,34.751],[-76.616,34.816],[-76.633,34.709],[-76.685,34.801],[-76.771,34.753],[-76.702,34.726],[-76.896,34.739],[-77.093,34.677],[-77.132,34.762],[-77.137,34.682],[-77.318,34.564],[-77.401,34.589],[-77.333,34.65],[-77.436,34.753],[-77.382,34.632],[-77.45,34.609],[-77.379,34.527],[-77.536,34.469],[-77.73,34.316],[-77.833,34.207],[-77.874,34.122],[-77.911,33.958],[-77.942,33.93],[-77.922,34.109],[-77.963,34.191],[-77.949,34.003],[-78.032,33.892],[-78.333,33.91],[-78.375,33.951],[-78.559,33.869],[-79.654,34.796],[-80.784,34.828],[-80.793,34.962],[-80.934,35.113],[-81.045,35.065],[-81.061,35.152],[-82.391,35.218],[-82.751,35.073],[-83.097,35.001],[-84.325,34.987],[-84.291,35.23],[-84.078,35.268],[-84.011,35.425],[-83.889,35.512],[-83.735,35.566],[-83.499,35.57],[-83.171,35.756],[-82.991,35.784],[-82.907,35.946],[-82.81,35.933],[-82.77,36.0],[-82.63,36.057],[-82.56,35.962],[-82.377,36.107],[-82.213,36.159],[-82.078,36.104],[-81.892,36.317],[-81.81,36.361],[-81.716,36.344],[-81.744,36.4],[-81.659,36.61],[-80.09,36.54],[-76.031,36.548]]],[[[-75.909,36.549],[-75.901,36.496],[-75.952,36.493],[-76.013,36.55],[-75.909,36.549]]],[[[-75.853,36.548],[-75.786,36.282],[-75.524,35.794],[-75.719,36.01],[-75.675,36.021],[-75.818,36.297],[-75.853,36.548]]],[[[-78.018,33.876],[-77.942,33.917],[-77.97,33.848],[-78.018,33.876]]],[[[-77.874,34.088],[-77.844,34.167],[-77.819,34.177],[-77.874,34.088]]],[[[-77.579,34.425],[-77.353,34.528],[-77.634,34.362],[-77.579,34.425]]],[[[-76.634,34.691],[-76.538,34.642],[-76.655,34.691],[-76.634,34.691]]],[[[-77.054,34.675],[-76.681,34.698],[-77.1,34.65],[-77.054,34.675]]],[[[-76.408,34.794],[-76.202,34.945],[-76.396,34.788],[-76.531,34.589],[-76.408,34.794]]],[[[-76.106,35.03],[-76.037,35.061],[-76.147,34.992],[-76.106,35.03]]],[[[-76.017,35.075],[-75.886,35.157],[-75.77,35.198],[-76.017,35.075]]],[[[-75.517,35.781],[-75.452,35.583],[-75.516,35.26],[-75.736,35.188],[-75.516,35.291],[-75.469,35.565],[-75.517,35.781]]],[[[-75.721,35.93],[-75.661,35.925],[-75.625,35.83],[-75.659,35.836],[-75.721,35.93]]]]}},{"type":"Feature","properties":{"name":"North Dakota"},"geometry":{"type":"Polygon","coordinates":[[[-104.048,48.993],[-97.226,48.993],[-97.101,48.651],[-97.157,48.534],[-97.122,48.133],[-96.856,47.602],[-96.828,47.002],[-96.759,46.921],[-96.795,46.642],[-96.715,46.445],[-96.602,46.324],[-96.556,45.942],[-104.045,45.942],[-104.048,48.993]]]}},{"type":"Feature","properties":{"name":"Ohio"},"geometry":{"type":"Polygon","coordinates":[[[-83.123,41.92],[-83.068,41.848],[-82.711,41.68],[-82.451,41.672],[-81.277,42.209],[-80.52,42.324],[-80.52,40.647],[-80.677,40.589],[-80.605,40.486],[-80.601,40.323],[-80.735,40.08],[-80.759,39.929],[-80.802,39.925],[-80.871,39.771],[-80.841,39.701],[-80.875,39.629],[-81.212,39.406],[-81.369,39.351],[-81.463,39.407],[-81.581,39.275],[-81.682,39.271],[-81.755,39.105],[-81.818,39.08],[-81.764,38.937],[-81.824,38.954],[-81.902,38.874],[-81.937,38.991],[-82.058,39.003],[-82.209,38.786],[-82.177,38.612],[-82.277,38.588],[-82.35,38.438],[-82.589,38.419],[-82.698,38.535],[-82.827,38.586],[-82.898,38.752],[-83.152,38.619],[-83.305,38.601],[-83.534,38.707],[-83.714,38.639],[-83.866,38.762],[-84.218,38.823],[-84.307,39.017],[-84.466,39.111],[-84.637,39.077],[-84.73,39.146],[-84.824,39.097],[-84.806,41.697],[-83.414,41.735],[-83.123,41.92]]]}},{"type":"Feature","properties":{"name":"Oklahoma"},"geometry":{"type":"Polygon","coordinates":[[[-103.0,36.5],[-103.001,37.0],[-94.618,37.0],[-94.618,36.5],[-94.439,35.386],[-94.484,33.647],[-94.873,33.756],[-94.967,33.855],[-95.22,33.963],[-95.357,33.868],[-95.497,33.875],[-95.598,33.952],[-95.77,33.896],[-95.783,33.855],[-95.938,33.896],[-96.147,33.828],[-96.203,33.764],[-96.29,33.763],[-96.329,33.702],[-96.41,33.787],[-96.582,33.839],[-96.601,33.905],[-96.748,33.849],[-96.851,33.872],[-96.933,33.957],[-97.018,33.859],[-97.075,33.862],[-97.094,33.742],[-97.144,33.725],[-97.201,33.787],[-97.178,33.869],[-97.212,33.91],[-97.267,33.855],[-97.436,33.827],[-97.469,33.892],[-97.586,33.906],[-97.641,33.995],[-97.84,33.868],[-97.927,33.873],[-97.956,33.995],[-98.088,34.028],[-98.107,34.15],[-98.343,34.143],[-98.491,34.075],[-98.586,34.157],[-98.72,34.137],[-98.975,34.216],[-99.176,34.221],[-99.192,34.322],[-99.362,34.462],[-99.416,34.38],[-99.681,34.395],[-99.882,34.565],[-99.999,34.575],[-100.002,36.5],[-103.0,36.5]]]}},{"type":"Feature","properties":{"name":"Oregon"},"geometry":{"type":"MultiPolygon","coordinates":[[[[-124.464,42.993],[-124.385,43.33],[-124.329,43.349],[-124.317,43.3],[-124.233,43.424],[-124.213,43.375],[-124.14,43.375],[-124.209,43.452],[-124.335,43.365],[-124.21,43.657],[-124.175,43.673],[-124.14,43.733],[-124.109,43.706],[-124.07,43.712],[-124.149,43.748],[-124.203,43.681],[-124.119,44.006],[-124.114,44.307],[-124.084,44.412],[-124.018,44.41],[-124.083,44.428],[-124.084,44.498],[-124.063,44.61],[-124.005,44.616],[-124.068,44.618],[-124.078,44.675],[-123.971,45.154],[-123.96,45.3],[-124.002,45.344],[-123.918,45.418],[-123.971,45.452],[-123.949,45.557],[-123.891,45.475],[-123.896,45.56],[-123.958,45.576],[-123.918,45.69],[-123.887,45.683],[-123.871,45.698],[-123.917,45.704],[-123.938,45.661],[-123.981,45.76],[-123.957,45.873],[-123.991,45.938],[-123.923,46.014],[-124.017,46.235],[-123.825,46.157],[-123.799,46.102],[-123.778,46.143],[-123.865,46.186],[-123.706,46.171],[-123.519,46.235],[-123.386,46.146],[-123.256,46.133],[-123.112,46.186],[-122.967,46.136],[-122.807,45.978],[-122.722,45.649],[-122.261,45.566],[-121.793,45.721],[-121.272,45.709],[-121.155,45.622],[-120.9,45.642],[-120.631,45.729],[-120.23,45.737],[-119.575,45.928],[-119.093,45.949],[-119.002,46.0],[-116.879,46.001],[-116.759,45.838],[-116.53,45.752],[-116.456,45.622],[-116.831,45.025],[-116.841,44.901],[-117.029,44.734],[-117.204,44.482],[-117.195,44.298],[-116.973,44.268],[-116.892,44.177],[-116.969,44.1],[-116.936,44.017],[-117.031,43.829],[-117.017,42.0],[-124.215,42.0],[-124.36,42.113],[-124.433,42.329],[-124.4,42.616],[-124.567,42.834],[-124.464,42.993]]],[[[-123.478,46.236],[-123.444,46.236],[-123.441,46.213],[-123.478,46.236]]]]}},{"type":"Feature","properties":{"name":"Pennsylvania"},"geometry":{"type":"Polygon","coordinates":[[[-80.504,42.326],[-80.247,42.365],[-79.763,42.538],[-79.763,42.0],[-75.339,41.997],[-75.249,41.882],[-75.079,41.828],[-75.061,41.605],[-74.984,41.498],[-74.742,41.431],[-74.704,41.376],[-75.027,41.047],[-75.129,40.998],[-75.058,40.872],[-75.198,40.701],[-75.182,40.57],[-75.089,40.558],[-75.054,40.435],[-74.975,40.415],[-74.729,40.163],[-75.12,39.974],[-75.148,39.903],[-75.424,39.807],[-75.652,39.825],[-75.777,39.721],[-80.519,39.721],[-80.504,42.326]]]}},{"type":"Feature","properties":{"name":"Rhode Island"},"geometry":{"type":"MultiPolygon","coordinates":[[[[-71.268,41.75],[-71.26,41.651],[-71.302,41.66],[-71.283,41.749],[-71.337,41.734],[-71.391,41.819],[-71.364,41.712],[-71.447,41.677],[-71.41,41.633],[-71.423,41.486],[-71.488,41.371],[-71.878,41.312],[-71.804,41.416],[-71.801,42.011],[-71.387,42.016],[-71.341,41.797],[-71.268,41.75]]],[[[-71.186,41.469],[-71.211,41.602],[-71.194,41.677],[-71.131,41.661],[-71.122,41.513],[-71.186,41.469]]],[[[-71.331,41.576],[-71.359,41.642],[-71.344,41.671],[-71.303,41.626],[-71.331,41.576]]],[[[-71.573,41.229],[-71.549,41.152],[-71.614,41.155],[-71.573,41.229]]],[[[-71.378,41.578],[-71.371,41.482],[-71.399,41.462],[-71.378,41.578]]],[[[-71.355,41.458],[-71.221,41.661],[-71.234,41.489],[-71.355,41.458]]]]}},{"type":"Feature","properties":{"name":"South Carolina"},"geometry":{"type":"MultiPolygon","coordinates":[[[[-79.654,34.796],[-78.573,33.848],[-78.763,33.779],[-78.938,33.642],[-79.133,33.417],[-79.183,33.218],[-79.214,33.301],[-79.272,33.317],[-79.19,33.437],[-79.232,33.412],[-79.299,33.297],[-79.183,33.184],[-79.231,33.142],[-79.269,33.166],[-79.272,33.122],[-79.34,33.156],[-79.293,33.109],[-79.371,33.064],[-79.387,33.017],[-79.585,33.014],[-79.625,32.944],[-79.589,32.914],[-79.829,32.763],[-79.906,32.8],[-79.892,32.855],[-79.944,32.851],[-79.934,32.783],[-79.968,32.785],[-79.868,32.738],[-79.887,32.688],[-80.177,32.567],[-80.266,32.621],[-80.204,32.561],[-80.331,32.486],[-80.369,32.533],[-80.393,32.478],[-80.54,32.561],[-80.533,32.519],[-80.67,32.521],[-80.478,32.478],[-80.587,32.457],[-80.458,32.423],[-80.547,32.347],[-80.43,32.41],[-80.471,32.323],[-80.637,32.267],[-80.657,32.463],[-80.678,32.303],[-80.759,32.361],[-80.786,32.497],[-80.855,32.539],[-80.799,32.32],[-80.678,32.215],[-80.821,32.108],[-80.777,32.207],[-80.78,32.245],[-80.911,32.034],[-81.136,32.136],[-81.132,32.321],[-81.201,32.485],[-81.406,32.624],[-81.403,32.745],[-81.518,33.04],[-81.76,33.156],[-81.848,33.26],[-81.842,33.314],[-81.931,33.361],[-81.938,33.476],[-82.174,33.616],[-82.273,33.778],[-82.571,33.968],[-82.729,34.171],[-82.857,34.461],[-83.047,34.497],[-83.355,34.708],[-83.308,34.82],[-83.115,35.0],[-82.751,35.073],[-82.391,35.218],[-81.061,35.152],[-81.045,35.065],[-80.934,35.113],[-80.793,34.962],[-80.784,34.828],[-79.654,34.796]]],[[[-79.338,33.066],[-79.361,33.006],[-79.368,33.006],[-79.338,33.066]]]]}},{"type":"Feature","properties":{"name":"South Dakota"},"geometry":{"type":"Polygon","coordinates":[[[-104.053,43.0],[-104.045,45.942],[-96.556,45.942],[-96.642,45.759],[-96.863,45.601],[-96.708,45.422],[-96.566,45.394],[-96.454,45.297],[-96.454,43.5],[-96.599,43.496],[-96.533,43.375],[-96.571,43.229],[-96.481,43.217],[-96.455,43.122],[-96.638,42.751],[-96.524,42.653],[-96.483,42.518],[-96.629,42.543],[-96.697,42.672],[-97.127,42.79],[-97.276,42.884],[-97.839,42.872],[-98.007,42.784],[-98.485,43.0],[-104.053,43.0]]]}},{"type":"Feature","properties":{"name":"Tennessee"},"geometry":{"type":"Polygon","coordinates":[[[-89.667,35.915],[-89.726,35.993],[-89.614,36.142],[-89.695,36.247],[-89.561,36.264],[-89.628,36.341],[-89.531,36.384],[-89.56,36.5],[-89.494,36.501],[-89.479,36.452],[-89.424,36.499],[-88.043,36.499],[-88.072,36.689],[-87.839,36.643],[-86.508,36.664],[-83.73,36.586],[-81.659,36.61],[-81.744,36.4],[-81.716,36.344],[-81.81,36.361],[-81.892,36.317],[-82.078,36.104],[-82.213,36.159],[-82.377,36.107],[-82.56,35.962],[-82.63,36.057],[-82.77,36.0],[-82.81,35.933],[-82.907,35.946],[-82.991,35.784],[-83.171,35.756],[-83.499,35.57],[-83.735,35.566],[-83.889,35.512],[-84.011,35.425],[-84.078,35.268],[-84.291,35.23],[-84.325,34.987],[-90.304,35.0],[-90.178,35.13],[-90.085,35.148],[-90.115,35.37],[-90.012,35.512],[-89.918,35.548],[-89.952,35.723],[-89.722,35.833],[-89.784,35.878],[-89.76,35.909],[-89.667,35.915]]]}},{"type":"Feature","properties":{"name":"Texas"},"geometry":{"type":"MultiPolygon","coordinates":[[[[-106.392,31.746],[-106.601,31.836],[-106.662,32.0],[-103.066,32.002],[-103.042,36.5],[-100.002,36.5],[-99.999,34.575],[-99.882,34.565],[-99.681,34.395],[-99.416,34.38],[-99.362,34.462],[-99.192,34.322],[-99.176,34.221],[-98.975,34.216],[-98.72,34.137],[-98.586,34.157],[-98.491,34.075],[-98.343,34.143],[-98.107,34.15],[-98.088,34.028],[-97.956,33.995],[-97.927,33.873],[-97.84,33.868],[-97.641,33.995],[-97.586,33.906],[-97.469,33.892],[-97.436,33.827],[-97.267,33.855],[-97.212,33.91],[-97.178,33.869],[-97.201,33.787],[-97.144,33.725],[-97.094,33.742],[-97.075,33.862],[-97.018,33.859],[-96.933,33.957],[-96.851,33.872],[-96.748,33.849],[-96.601,33.905],[-96.582,33.839],[-96.41,33.787],[-96.329,33.702],[-96.29,33.763],[-96.203,33.764],[-96.147,33.828],[-95.938,33.896],[-95.783,33.855],[-95.77,33.896],[-95.598,33.952],[-95.497,33.875],[-95.357,33.868],[-95.22,33.963],[-94.967,33.855],[-94.873,33.756],[-94.467,33.644],[-94.387,33.562],[-94.193,33.594],[-94.047,33.554],[-94.043,31.998],[-93.84,31.79],[-93.83,31.594],[-93.727,31.515],[-93.743,31.473],[-93.654,31.374],[-93.676,31.32],[-93.6,31.198],[-93.548,31.193],[-93.56,31.097],[-93.515,31.042],[-93.578,31.008],[-93.538,30.944],[-93.574,30.82],[-93.731,30.566],[-93.704,30.473],[-93.756,30.373],[-93.71,30.265],[-93.717,30.08],[-93.798,29.986],[-93.854,29.987],[-93.924,29.866],[-93.933,29.776],[-93.876,29.675],[-94.102,29.671],[-94.654,29.452],[-94.763,29.367],[-94.791,29.38],[-94.701,29.463],[-94.504,29.526],[-94.486,29.566],[-94.779,29.53],[-94.693,29.696],[-94.734,29.782],[-94.807,29.782],[-94.92,29.655],[-95.052,29.75],[-95.064,29.713],[-94.986,29.675],[-95.024,29.542],[-94.908,29.496],[-94.965,29.47],[-94.943,29.422],[-94.821,29.374],[-94.889,29.376],[-95.116,29.175],[-95.171,29.209],[-95.159,29.046],[-95.602,28.764],[-95.952,28.689],[-95.94,28.626],[-95.719,28.715],[-96.219,28.489],[-95.988,28.645],[-96.226,28.587],[-96.137,28.627],[-96.215,28.629],[-96.188,28.691],[-96.346,28.635],[-96.383,28.73],[-96.445,28.764],[-96.398,28.712],[-96.417,28.644],[-96.37,28.627],[-96.428,28.595],[-96.493,28.579],[-96.447,28.636],[-96.485,28.613],[-96.651,28.73],[-96.609,28.579],[-96.493,28.511],[-96.548,28.469],[-96.474,28.494],[-96.404,28.435],[-96.654,28.319],[-96.793,28.48],[-96.767,28.411],[-96.844,28.416],[-96.781,28.332],[-96.782,28.242],[-96.88,28.151],[-96.945,28.126],[-96.91,28.264],[-96.973,28.134],[-97.02,28.14],[-97.014,28.209],[-97.173,28.159],[-97.218,28.075],[-97.149,28.006],[-97.021,28.1],[-97.184,27.837],[-97.232,27.825],[-97.267,27.879],[-97.521,27.873],[-97.487,27.835],[-97.391,27.846],[-97.372,27.755],[-97.26,27.695],[-97.411,27.335],[-97.542,27.29],[-97.461,27.344],[-97.487,27.4],[-97.63,27.3],[-97.774,27.468],[-97.668,27.311],[-97.774,27.298],[-97.56,27.235],[-97.426,27.264],[-97.446,27.133],[-97.498,27.101],[-97.481,27.022],[-97.563,26.994],[-97.481,26.878],[-97.548,26.9],[-97.562,26.838],[-97.493,26.792],[-97.419,26.502],[-97.473,26.496],[-97.377,26.338],[-97.34,26.342],[-97.311,26.123],[-97.212,26.091],[-97.256,25.999],[-97.152,26.075],[-97.138,25.975],[-97.328,25.933],[-97.366,25.844],[-97.66,26.031],[-98.223,26.075],[-98.429,26.218],[-98.654,26.244],[-98.801,26.372],[-99.106,26.423],[-99.091,26.484],[-99.165,26.54],[-99.248,26.827],[-99.462,27.057],[-99.432,27.208],[-99.521,27.311],[-99.473,27.427],[-99.515,27.589],[-99.7,27.659],[-99.833,27.777],[-100.056,28.138],[-100.275,28.277],[-100.356,28.478],[-100.323,28.51],[-100.384,28.537],[-100.624,28.925],[-100.669,29.116],[-100.763,29.174],[-100.796,29.258],[-101.008,29.381],[-101.038,29.46],[-101.213,29.532],[-101.234,29.623],[-101.312,29.598],[-101.301,29.65],[-101.358,29.667],[-101.405,29.778],[-101.543,29.771],[-101.546,29.82],[-101.632,29.776],[-102.109,29.802],[-102.321,29.894],[-102.406,29.777],[-102.691,29.737],[-102.839,29.452],[-102.838,29.366],[-102.883,29.344],[-102.9,29.264],[-102.859,29.229],[-102.988,29.177],[-103.123,28.996],[-103.387,29.029],[-103.55,29.155],[-103.771,29.23],[-103.784,29.275],[-104.057,29.339],[-104.267,29.527],[-104.444,29.589],[-104.68,29.942],[-104.682,30.193],[-104.853,30.412],[-104.934,30.611],[-105.205,30.802],[-105.364,30.85],[-105.961,31.371],[-106.209,31.477],[-106.392,31.746]]],[[[-97.343,26.757],[-97.166,26.103],[-97.398,26.831],[-97.405,27.125],[-97.392,27.193],[-97.377,27.208],[-97.343,26.757]]],[[[-97.206,27.633],[-97.044,27.835],[-97.259,27.496],[-97.352,27.235],[-97.398,27.229],[-97.254,27.66],[-97.206,27.633]]],[[[-96.868,28.136],[-96.85,28.071],[-97.034,27.852],[-96.973,28.01],[-96.868,28.136]]],[[[-96.419,28.395],[-96.417,28.329],[-96.836,28.071],[-96.808,28.188],[-96.443,28.341],[-96.419,28.395]]],[[[-96.35,28.409],[-96.313,28.459],[-96.233,28.489],[-96.35,28.409]]],[[[-94.724,29.333],[-95.108,29.089],[-95.117,29.089],[-94.828,29.318],[-94.834,29.36],[-94.724,29.333]]]]}},{"type":"Feature","properties":{"name":"Utah"},"geometry":{"type":"Polygon","coordinates":[[[-111.05,42.0],[-111.05,41.0],[-109.046,41.0],[-109.047,37.0],[-114.04,37.003],[-114.043,42.0],[-111.05,42.0]]]}},{"type":"Feature","properties":{"name":"Vermont"},"geometry":{"type":"Polygon","coordinates":[[[-73.351,45.005],[-71.506,45.014],[-71.515,44.895],[-71.635,44.74],[-71.549,44.587],[-71.678,44.446],[-72.02,44.318],[-72.101,43.973],[-72.392,43.558],[-72.471,43.006],[-72.555,42.878],[-72.467,42.729],[-73.276,42.746],[-73.247,43.552],[-73.309,43.626],[-73.424,43.595],[-73.363,43.779],[-73.439,44.053],[-73.317,44.274],[-73.294,44.464],[-73.37,44.583],[-73.336,44.789],[-73.378,44.857],[-73.351,45.005]]]}},{"type":"Feature","properties":{"name":"Virginia"},"geometry":{"type":"MultiPolygon","coordinates":[[[[-76.045,36.59],[-76.032,36.55],[-80.09,36.54],[-81.905,36.618],[-83.667,36.604],[-83.129,36.753],[-83.062,36.852],[-82.869,36.901],[-82.849,36.98],[-82.712,37.047],[-82.682,37.137],[-82.351,37.278],[-81.965,37.539],[-81.984,37.472],[-81.927,37.371],[-81.824,37.286],[-81.584,37.205],[-81.363,37.335],[-81.224,37.244],[-80.882,37.326],[-80.846,37.425],[-80.744,37.382],[-80.528,37.468],[-80.452,37.429],[-80.294,37.509],[-80.306,37.564],[-80.225,37.622],[-80.285,37.685],[-80.0,38.002],[-79.917,38.179],[-79.795,38.274],[-79.649,38.588],[-79.547,38.564],[-79.507,38.48],[-79.284,38.427],[-78.999,38.842],[-78.868,38.788],[-78.743,38.93],[-78.581,38.99],[-78.42,39.157],[-78.322,39.451],[-77.836,39.144],[-77.735,39.331],[-77.467,39.244],[-77.496,39.124],[-77.272,39.048],[-77.033,38.854],[-77.048,38.716],[-77.168,38.689],[-77.135,38.636],[-77.23,38.657],[-77.314,38.406],[-77.359,38.429],[-77.291,38.354],[-77.339,38.343],[-77.041,38.396],[-77.014,38.331],[-77.053,38.317],[-76.965,38.267],[-76.954,38.21],[-76.739,38.137],[-76.615,38.15],[-76.531,38.025],[-76.248,37.903],[-76.25,37.823],[-76.325,37.849],[-76.284,37.699],[-76.339,37.669],[-76.305,37.638],[-76.405,37.645],[-76.469,37.709],[-76.505,37.657],[-76.622,37.814],[-76.88,37.991],[-76.935,38.094],[-77.063,38.166],[-77.134,38.166],[-76.926,38.059],[-76.923,37.981],[-76.613,37.74],[-76.552,37.627],[-76.284,37.57],[-76.393,37.533],[-76.27,37.517],[-76.258,37.336],[-76.415,37.443],[-76.401,37.391],[-76.448,37.38],[-76.401,37.34],[-76.435,37.323],[-76.372,37.288],[-76.496,37.249],[-76.73,37.494],[-76.781,37.535],[-76.798,37.504],[-76.606,37.296],[-76.468,37.214],[-76.386,37.232],[-76.292,37.13],[-76.339,37.102],[-76.27,37.098],[-76.296,37.014],[-76.429,36.976],[-76.611,37.119],[-76.634,37.221],[-76.744,37.197],[-76.856,37.262],[-76.86,37.323],[-76.931,37.245],[-76.991,37.32],[-77.055,37.287],[-77.091,37.328],[-77.278,37.329],[-77.067,37.267],[-77.017,37.295],[-76.973,37.24],[-76.718,37.15],[-76.67,37.185],[-76.66,37.043],[-76.495,36.954],[-76.476,36.908],[-76.524,36.863],[-76.381,36.901],[-76.292,36.85],[-76.31,36.96],[-76.005,36.932],[-75.853,36.549],[-75.947,36.718],[-75.967,36.55],[-76.045,36.59]]],[[[-75.909,36.549],[-75.949,36.562],[-75.914,36.576],[-75.909,36.549]]],[[[-75.378,38.012],[-75.434,37.962],[-75.425,37.875],[-75.819,37.454],[-75.8,37.4],[-75.887,37.357],[-75.966,37.135],[-76.015,37.282],[-75.926,37.478],[-75.952,37.516],[-75.894,37.563],[-75.922,37.611],[-75.819,37.673],[-75.787,37.809],[-75.695,37.802],[-75.702,37.843],[-75.661,37.843],[-75.671,37.893],[-75.743,37.912],[-75.624,37.994],[-75.378,38.012]]],[[[-75.67,37.463],[-75.685,37.415],[-75.719,37.368],[-75.67,37.463]]],[[[-75.634,37.558],[-75.602,37.562],[-75.671,37.477],[-75.634,37.558]]],[[[-76.033,37.955],[-76.017,37.929],[-76.026,37.914],[-76.033,37.955]]],[[[-75.994,37.954],[-76.005,37.95],[-76.007,37.954],[-75.994,37.954]]],[[[-76.033,37.955],[-76.044,37.949],[-76.044,37.954],[-76.033,37.955]]],[[[-75.243,38.025],[-75.352,37.868],[-75.379,37.856],[-75.4,37.874],[-75.243,38.025]]],[[[-75.929,37.112],[-75.905,37.234],[-75.874,37.29],[-75.877,37.206],[-75.811,37.2],[-75.887,37.123],[-75.929,37.112]]]]}},{"type":"Feature","properties":{"name":"Washington"},"geometry":{"type":"MultiPolygon","coordinates":[[[[-122.653,48.993],[-117.038,48.993],[-117.044,46.378],[-116.942,46.26],[-116.909,46.162],[-116.961,46.105],[-116.879,46.001],[-119.002,46.0],[-119.093,45.949],[-119.575,45.928],[-120.23,45.737],[-120.631,45.729],[-120.9,45.642],[-121.155,45.622],[-121.272,45.709],[-121.793,45.721],[-122.261,45.566],[-122.722,45.649],[-122.807,45.978],[-122.967,46.136],[-123.112,46.186],[-123.298,46.152],[-123.456,46.267],[-123.603,46.26],[-123.693,46.305],[-123.873,46.24],[-124.009,46.313],[-124.076,46.268],[-124.073,46.643],[-124.018,46.569],[-124.014,46.385],[-123.958,46.378],[-123.927,46.44],[-123.841,46.416],[-123.936,46.472],[-123.896,46.544],[-123.956,46.623],[-123.895,46.603],[-123.923,46.658],[-123.877,46.692],[-123.812,46.663],[-123.764,46.678],[-123.9,46.747],[-123.976,46.741],[-123.973,46.701],[-124.093,46.743],[-124.127,46.899],[-124.021,46.832],[-124.047,46.891],[-123.813,46.959],[-124.117,47.043],[-124.148,47.024],[-124.106,46.933],[-124.178,46.926],[-124.2,47.187],[-124.318,47.357],[-124.423,47.742],[-124.61,47.875],[-124.672,47.991],[-124.735,48.17],[-124.661,48.32],[-124.728,48.388],[-123.971,48.166],[-123.247,48.115],[-123.15,48.177],[-123.108,48.184],[-123.161,48.152],[-123.063,48.118],[-123.008,48.039],[-122.999,48.092],[-122.927,48.095],[-122.857,48.03],[-122.873,47.994],[-122.825,48.035],[-122.878,48.107],[-122.77,48.141],[-122.792,48.083],[-122.62,47.878],[-122.676,47.862],[-122.8,47.68],[-122.806,47.843],[-122.839,47.782],[-122.856,47.826],[-122.839,47.747],[-123.161,47.357],[-123.074,47.345],[-122.839,47.432],[-123.052,47.367],[-123.114,47.391],[-122.949,47.597],[-122.764,47.669],[-122.624,47.847],[-122.571,47.82],[-122.613,47.946],[-122.528,47.906],[-122.468,47.757],[-122.558,47.74],[-122.596,47.692],[-122.661,47.73],[-122.592,47.583],[-122.682,47.652],[-122.697,47.623],[-122.639,47.577],[-122.682,47.528],[-122.553,47.583],[-122.508,47.52],[-122.538,47.371],[-122.586,47.336],[-122.569,47.264],[-122.686,47.301],[-122.628,47.38],[-122.633,47.405],[-122.726,47.339],[-122.724,47.233],[-122.773,47.173],[-122.815,47.251],[-122.806,47.398],[-122.92,47.278],[-122.965,47.181],[-123.068,47.146],[-123.079,47.13],[-123.018,47.13],[-123.079,47.096],[-122.93,47.174],[-123.01,47.083],[-122.935,47.13],[-122.893,47.047],[-122.901,47.13],[-122.817,47.166],[-122.722,47.089],[-122.572,47.209],[-122.538,47.316],[-122.433,47.265],[-122.422,47.316],[-122.328,47.357],[-122.409,47.575],[-122.346,47.562],[-122.34,47.599],[-122.429,47.66],[-122.381,47.72],[-122.404,47.798],[-122.32,47.942],[-122.192,48.026],[-122.34,48.09],[-122.376,48.213],[-122.444,48.232],[-122.469,48.177],[-122.348,48.054],[-122.51,48.147],[-122.534,48.25],[-122.401,48.235],[-122.386,48.304],[-122.534,48.375],[-122.559,48.434],[-122.683,48.43],[-122.702,48.498],[-122.633,48.516],[-122.581,48.458],[-122.568,48.489],[-122.489,48.455],[-122.494,48.529],[-122.567,48.585],[-122.44,48.581],[-122.525,48.692],[-122.509,48.756],[-122.575,48.78],[-122.66,48.723],[-122.658,48.777],[-122.768,48.874],[-122.746,48.918],[-122.814,48.952],[-122.653,48.993]]],[[[-123.091,48.993],[-123.045,48.984],[-123.088,48.972],[-123.091,48.993]]],[[[-123.998,46.453],[-123.948,46.464],[-123.964,46.407],[-123.998,46.453]]],[[[-122.471,47.496],[-122.367,47.384],[-122.469,47.336],[-122.44,47.393],[-122.463,47.398],[-122.527,47.346],[-122.471,47.496]]],[[[-122.511,47.696],[-122.499,47.571],[-122.578,47.602],[-122.558,47.714],[-122.511,47.696]]],[[[-122.719,48.102],[-122.677,48.049],[-122.682,48.007],[-122.737,48.056],[-122.702,48.049],[-122.719,48.102]]],[[[-122.351,47.961],[-122.393,47.905],[-122.476,47.987],[-122.539,47.972],[-122.61,48.06],[-122.607,48.154],[-122.744,48.206],[-122.657,48.385],[-122.596,48.402],[-122.518,48.294],[-122.594,48.308],[-122.724,48.234],[-122.581,48.188],[-122.536,48.006],[-122.514,48.091],[-122.351,47.961]]],[[[-122.887,48.564],[-122.813,48.427],[-122.938,48.458],[-122.887,48.564]]],[[[-122.678,48.573],[-122.714,48.542],[-122.735,48.59],[-122.715,48.606],[-122.678,48.573]]],[[[-123.017,48.497],[-122.965,48.451],[-123.139,48.496],[-123.178,48.599],[-123.129,48.62],[-122.978,48.531],[-123.017,48.497]]],[[[-122.751,48.655],[-122.821,48.609],[-122.896,48.7],[-122.874,48.594],[-123.027,48.627],[-122.918,48.711],[-122.751,48.655]]],[[[-122.615,48.659],[-122.662,48.67],[-122.715,48.739],[-122.698,48.735],[-122.615,48.659]]],[[[-122.718,47.181],[-122.69,47.13],[-122.742,47.144],[-122.718,47.181]]],[[[-122.847,47.298],[-122.848,47.193],[-122.874,47.168],[-122.922,47.237],[-122.847,47.298]]],[[[-123.411,46.175],[-123.349,46.166],[-123.316,46.149],[-123.411,46.175]]]]}},{"type":"Feature","properties":{"name":"West Virginia"},"geometry":{"type":"Polygon","coordinates":[[[-82.589,38.419],[-82.332,38.444],[-82.277,38.588],[-82.177,38.612],[-82.209,38.786],[-82.058,39.003],[-81.937,38.991],[-81.902,38.874],[-81.824,38.954],[-81.764,38.937],[-81.818,39.08],[-81.755,39.105],[-81.682,39.271],[-81.581,39.275],[-81.463,39.407],[-81.369,39.351],[-81.227,39.398],[-80.875,39.629],[-80.836,39.72],[-80.871,39.771],[-80.802,39.925],[-80.759,39.929],[-80.735,40.08],[-80.601,40.323],[-80.605,40.486],[-80.677,40.589],[-80.623,40.626],[-80.52,40.647],[-80.519,39.721],[-79.477,39.722],[-79.486,39.207],[-79.103,39.467],[-78.958,39.454],[-78.775,39.638],[-78.683,39.546],[-78.469,39.534],[-78.406,39.594],[-78.424,39.629],[-78.133,39.701],[-77.992,39.608],[-77.847,39.612],[-77.86,39.516],[-77.839,39.543],[-77.821,39.497],[-77.771,39.502],[-77.806,39.448],[-77.739,39.406],[-77.735,39.331],[-77.836,39.144],[-78.336,39.445],[-78.42,39.157],[-78.581,38.99],[-78.743,38.93],[-78.868,38.788],[-78.999,38.842],[-79.29,38.424],[-79.507,38.48],[-79.547,38.564],[-79.649,38.588],[-79.795,38.274],[-79.917,38.179],[-80.0,38.002],[-80.285,37.685],[-80.225,37.622],[-80.306,37.564],[-80.29,37.514],[-80.458,37.428],[-80.504,37.47],[-80.744,37.382],[-80.86,37.421],[-80.871,37.336],[-80.948,37.295],[-81.224,37.244],[-81.363,37.335],[-81.584,37.205],[-81.835,37.292],[-81.982,37.468],[-81.957,37.531],[-82.116,37.563],[-82.292,37.683],[-82.631,38.153],[-82.572,38.248],[-82.589,38.419]]]}},{"type":"Feature","properties":{"name":"Wisconsin"},"geometry":{"type":"Polygon","coordinates":[[[-86.742,45.437],[-86.251,45.236],[-86.498,45.076],[-86.715,44.845],[-87.061,43.97],[-87.147,43.38],[-87.019,42.496],[-90.641,42.512],[-90.703,42.655],[-91.01,42.716],[-91.08,42.792],[-91.168,43.16],[-91.086,43.317],[-91.209,43.373],[-91.248,43.463],[-91.243,43.74],[-91.295,43.919],[-91.414,44.018],[-91.65,44.068],[-91.817,44.163],[-91.95,44.336],[-92.103,44.437],[-92.286,44.471],[-92.394,44.58],[-92.585,44.608],[-92.82,44.758],[-92.758,44.926],[-92.802,45.078],[-92.75,45.126],[-92.759,45.283],[-92.663,45.426],[-92.751,45.559],[-92.902,45.611],[-92.891,45.704],[-92.704,45.913],[-92.293,46.083],[-92.289,46.663],[-92.215,46.664],[-92.11,46.769],[-91.965,46.729],[-91.468,46.924],[-90.654,47.308],[-89.958,47.286],[-90.413,46.584],[-90.217,46.498],[-90.118,46.341],[-89.119,46.148],[-88.837,46.036],[-88.529,46.025],[-88.123,45.931],[-88.086,45.877],[-88.11,45.803],[-87.902,45.759],[-87.803,45.687],[-87.804,45.5],[-87.882,45.377],[-87.661,45.37],[-87.735,45.199],[-87.654,45.121],[-87.436,45.079],[-87.403,45.205],[-87.199,45.323],[-87.092,45.444],[-86.742,45.437]]]}},{"type":"Feature","properties":{"name":"Wyoming"},"geometry":{"type":"Polygon","coordinates":[[[-111.05,41.0],[-111.051,45.0],[-104.057,45.0],[-104.054,41.0],[-111.05,41.0]]]}}]}